<?xml version='1.0' encoding='utf-8'?>
<gpx version="1.1" creator="RunCast" xmlns="http://www.topografix.com/GPX/1/1"><trk><name>mumbai_coastal_promenade</name><trkseg><trkpt lat="19.011300" lon="72.815500" /><trkpt lat="19.011171" lon="72.815459" /><trkpt lat="19.011043" lon="72.815418" /><trkpt lat="19.010914" lon="72.815378" /><trkpt lat="19.010786" lon="72.815337" /><trkpt lat="19.010657" lon="72.815296" /><trkpt lat="19.010529" lon="72.815255" /><trkpt lat="19.010400" lon="72.815214" /><trkpt lat="19.010271" lon="72.815173" /><trkpt lat="19.010143" lon="72.815133" /><trkpt lat="19.010014" lon="72.815092" /><trkpt lat="19.009886" lon="72.815051" /><trkpt lat="19.009757" lon="72.815010" /><trkpt lat="19.009629" lon="72.814969" /><trkpt lat="19.009500" lon="72.814929" /><trkpt lat="19.009371" lon="72.814888" /><trkpt lat="19.009243" lon="72.814847" /><trkpt lat="19.009114" lon="72.814806" /><trkpt lat="19.008986" lon="72.814765" /><trkpt lat="19.008857" lon="72.814724" /><trkpt lat="19.008729" lon="72.814684" /><trkpt lat="19.008600" lon="72.814643" /><trkpt lat="19.008471" lon="72.814602" /><trkpt lat="19.008343" lon="72.814561" /><trkpt lat="19.008214" lon="72.814520" /><trkpt lat="19.008086" lon="72.814480" /><trkpt lat="19.007957" lon="72.814439" /><trkpt lat="19.007829" lon="72.814398" /><trkpt lat="19.007700" lon="72.814357" /><trkpt lat="19.007571" lon="72.814316" /><trkpt lat="19.007443" lon="72.814276" /><trkpt lat="19.007314" lon="72.814235" /><trkpt lat="19.007186" lon="72.814194" /><trkpt lat="19.007057" lon="72.814153" /><trkpt lat="19.006929" lon="72.814112" /><trkpt lat="19.006800" lon="72.814071" /><trkpt lat="19.006671" lon="72.814031" /><trkpt lat="19.006543" lon="72.813990" /><trkpt lat="19.006414" lon="72.813949" /><trkpt lat="19.006286" lon="72.813908" /><trkpt lat="19.006157" lon="72.813867" /><trkpt lat="19.006029" lon="72.813827" /><trkpt lat="19.005900" lon="72.813786" /><trkpt lat="19.005771" lon="72.813745" /><trkpt lat="19.005643" lon="72.813704" /><trkpt lat="19.005514" lon="72.813663" /><trkpt lat="19.005386" lon="72.813622" /><trkpt lat="19.005257" lon="72.813582" /><trkpt lat="19.005129" lon="72.813541" /><trkpt lat="19.005000" lon="72.813500" /><trkpt lat="19.005105" lon="72.813350" /><trkpt lat="19.005209" lon="72.813201" /><trkpt lat="19.005314" lon="72.813051" /><trkpt lat="19.005418" lon="72.812901" /><trkpt lat="19.005523" lon="72.812751" /><trkpt lat="19.005628" lon="72.812601" /><trkpt lat="19.005732" lon="72.812452" /><trkpt lat="19.005837" lon="72.812302" /><trkpt lat="19.005790" lon="72.812241" /><trkpt lat="19.005637" lon="72.812162" /><trkpt lat="19.005483" lon="72.812082" /><trkpt lat="19.005326" lon="72.812005" /><trkpt lat="19.005169" lon="72.811928" /><trkpt lat="19.005012" lon="72.811851" /><trkpt lat="19.004853" lon="72.811779" /><trkpt lat="19.004695" lon="72.811708" /><trkpt lat="19.004536" lon="72.811636" /><trkpt lat="19.004385" lon="72.811571" /><trkpt lat="19.004235" lon="72.811505" /><trkpt lat="19.004084" lon="72.811440" /><trkpt lat="19.003917" lon="72.811373" /><trkpt lat="19.003751" lon="72.811306" /><trkpt lat="19.003584" lon="72.811239" /><trkpt lat="19.003431" lon="72.811169" /><trkpt lat="19.003278" lon="72.811099" /><trkpt lat="19.003125" lon="72.811029" /><trkpt lat="19.002987" lon="72.810968" /><trkpt lat="19.002849" lon="72.810907" /><trkpt lat="19.002711" lon="72.810846" /><trkpt lat="19.002578" lon="72.810803" /><trkpt lat="19.002446" lon="72.810760" /><trkpt lat="19.002313" lon="72.810717" /><trkpt lat="19.002140" lon="72.810682" /><trkpt lat="19.001968" lon="72.810647" /><trkpt lat="19.001795" lon="72.810612" /><trkpt lat="19.001652" lon="72.810583" /><trkpt lat="19.001508" lon="72.810555" /><trkpt lat="19.001365" lon="72.810526" /><trkpt lat="19.001248" lon="72.810489" /><trkpt lat="19.001130" lon="72.810453" /><trkpt lat="19.001013" lon="72.810416" /><trkpt lat="19.000880" lon="72.810385" /><trkpt lat="19.000747" lon="72.810355" /><trkpt lat="19.000622" lon="72.810326" /><trkpt lat="19.000480" lon="72.810307" /><trkpt lat="19.000337" lon="72.810287" /><trkpt lat="19.000195" lon="72.810268" /><trkpt lat="19.000028" lon="72.810268" /><trkpt lat="18.999861" lon="72.810267" /><trkpt lat="18.999694" lon="72.810267" /><trkpt lat="18.999530" lon="72.810270" /><trkpt lat="18.999365" lon="72.810273" /><trkpt lat="18.999201" lon="72.810276" /><trkpt lat="18.999060" lon="72.810285" /><trkpt lat="18.998918" lon="72.810295" /><trkpt lat="18.998777" lon="72.810304" /><trkpt lat="18.998632" lon="72.810320" /><trkpt lat="18.998486" lon="72.810337" /><trkpt lat="18.998341" lon="72.810353" /><trkpt lat="18.998190" lon="72.810394" /><trkpt lat="18.998040" lon="72.810435" /><trkpt lat="18.997904" lon="72.810471" /><trkpt lat="18.997767" lon="72.810506" /><trkpt lat="18.997631" lon="72.810542" /><trkpt lat="18.997492" lon="72.810582" /><trkpt lat="18.997352" lon="72.810621" /><trkpt lat="18.997213" lon="72.810661" /><trkpt lat="18.997074" lon="72.810701" /><trkpt lat="18.996956" lon="72.810732" /><trkpt lat="18.996838" lon="72.810762" /><trkpt lat="18.996720" lon="72.810793" /><trkpt lat="18.996583" lon="72.810843" /><trkpt lat="18.996445" lon="72.810893" /><trkpt lat="18.996308" lon="72.810943" /><trkpt lat="18.996154" lon="72.810995" /><trkpt lat="18.995999" lon="72.811046" /><trkpt lat="18.995845" lon="72.811098" /><trkpt lat="18.995727" lon="72.811112" /><trkpt lat="18.995609" lon="72.811125" /><trkpt lat="18.995453" lon="72.811144" /><trkpt lat="18.995298" lon="72.811163" /><trkpt lat="18.995135" lon="72.811183" /><trkpt lat="18.994979" lon="72.811193" /><trkpt lat="18.994824" lon="72.811203" /><trkpt lat="18.994668" lon="72.811213" /><trkpt lat="18.994513" lon="72.811223" /><trkpt lat="18.994357" lon="72.811233" /><trkpt lat="18.994193" lon="72.811235" /><trkpt lat="18.994028" lon="72.811238" /><trkpt lat="18.993864" lon="72.811240" /><trkpt lat="18.993699" lon="72.811243" /><trkpt lat="18.993535" lon="72.811245" /><trkpt lat="18.993363" lon="72.811235" /><trkpt lat="18.993192" lon="72.811226" /><trkpt lat="18.993020" lon="72.811216" /><trkpt lat="18.992848" lon="72.811206" /><trkpt lat="18.992677" lon="72.811197" /><trkpt lat="18.992505" lon="72.811187" /><trkpt lat="18.992340" lon="72.811151" /><trkpt lat="18.992175" lon="72.811115" /><trkpt lat="18.992010" lon="72.811078" /><trkpt lat="18.991845" lon="72.811042" /><trkpt lat="18.991680" lon="72.811006" /><trkpt lat="18.991524" lon="72.810955" /><trkpt lat="18.991367" lon="72.810905" /><trkpt lat="18.991211" lon="72.810854" /><trkpt lat="18.991055" lon="72.810803" /><trkpt lat="18.990898" lon="72.810753" /><trkpt lat="18.990742" lon="72.810702" /><trkpt lat="18.990594" lon="72.810634" /><trkpt lat="18.990445" lon="72.810567" /><trkpt lat="18.990297" lon="72.810499" /><trkpt lat="18.990149" lon="72.810432" /><trkpt lat="18.990001" lon="72.810364" /><trkpt lat="18.989852" lon="72.810297" /><trkpt lat="18.989704" lon="72.810229" /><trkpt lat="18.989763" lon="72.810083" /><trkpt lat="18.989822" lon="72.809937" /><trkpt lat="18.989882" lon="72.809792" /><trkpt lat="18.989941" lon="72.809646" /><trkpt lat="18.990000" lon="72.809500" /><trkpt lat="18.989867" lon="72.809489" /><trkpt lat="18.989734" lon="72.809478" /><trkpt lat="18.989602" lon="72.809467" /><trkpt lat="18.989469" lon="72.809456" /><trkpt lat="18.989336" lon="72.809445" /><trkpt lat="18.989203" lon="72.809434" /><trkpt lat="18.989070" lon="72.809423" /><trkpt lat="18.988937" lon="72.809413" /><trkpt lat="18.988805" lon="72.809402" /><trkpt lat="18.988672" lon="72.809391" /><trkpt lat="18.988539" lon="72.809380" /><trkpt lat="18.988406" lon="72.809369" /><trkpt lat="18.988273" lon="72.809358" /><trkpt lat="18.988141" lon="72.809347" /><trkpt lat="18.988008" lon="72.809336" /><trkpt lat="18.987875" lon="72.809325" /><trkpt lat="18.987742" lon="72.809314" /><trkpt lat="18.987609" lon="72.809303" /><trkpt lat="18.987477" lon="72.809292" /><trkpt lat="18.987344" lon="72.809281" /><trkpt lat="18.987211" lon="72.809270" /><trkpt lat="18.987078" lon="72.809259" /><trkpt lat="18.986945" lon="72.809248" /><trkpt lat="18.986812" lon="72.809237" /><trkpt lat="18.986680" lon="72.809227" /><trkpt lat="18.986547" lon="72.809216" /><trkpt lat="18.986414" lon="72.809205" /><trkpt lat="18.986281" lon="72.809194" /><trkpt lat="18.986148" lon="72.809183" /><trkpt lat="18.986016" lon="72.809172" /><trkpt lat="18.985883" lon="72.809161" /><trkpt lat="18.985750" lon="72.809150" /><trkpt lat="18.985617" lon="72.809139" /><trkpt lat="18.985484" lon="72.809128" /><trkpt lat="18.985352" lon="72.809117" /><trkpt lat="18.985219" lon="72.809106" /><trkpt lat="18.985086" lon="72.809095" /><trkpt lat="18.984953" lon="72.809084" /><trkpt lat="18.984820" lon="72.809073" /><trkpt lat="18.984687" lon="72.809063" /><trkpt lat="18.984555" lon="72.809052" /><trkpt lat="18.984422" lon="72.809041" /><trkpt lat="18.984289" lon="72.809030" /><trkpt lat="18.984156" lon="72.809019" /><trkpt lat="18.984023" lon="72.809008" /><trkpt lat="18.983891" lon="72.808997" /><trkpt lat="18.983758" lon="72.808986" /><trkpt lat="18.983625" lon="72.808975" /><trkpt lat="18.983492" lon="72.808964" /><trkpt lat="18.983359" lon="72.808953" /><trkpt lat="18.983227" lon="72.808942" /><trkpt lat="18.983094" lon="72.808931" /><trkpt lat="18.982961" lon="72.808920" /><trkpt lat="18.982828" lon="72.808909" /><trkpt lat="18.982695" lon="72.808898" /><trkpt lat="18.982563" lon="72.808887" /><trkpt lat="18.982430" lon="72.808877" /><trkpt lat="18.982297" lon="72.808866" /><trkpt lat="18.982164" lon="72.808855" /><trkpt lat="18.982031" lon="72.808844" /><trkpt lat="18.981898" lon="72.808833" /><trkpt lat="18.981766" lon="72.808822" /><trkpt lat="18.981633" lon="72.808811" /><trkpt lat="18.981632" lon="72.808830" /><trkpt lat="18.981764" lon="72.808859" /><trkpt lat="18.981896" lon="72.808889" /><trkpt lat="18.982027" lon="72.808919" /><trkpt lat="18.982159" lon="72.808948" /><trkpt lat="18.982291" lon="72.808978" /><trkpt lat="18.982423" lon="72.809008" /><trkpt lat="18.982555" lon="72.809037" /><trkpt lat="18.982687" lon="72.809067" /><trkpt lat="18.982819" lon="72.809096" /><trkpt lat="18.982950" lon="72.809126" /><trkpt lat="18.983082" lon="72.809156" /><trkpt lat="18.983214" lon="72.809185" /><trkpt lat="18.983346" lon="72.809215" /><trkpt lat="18.983478" lon="72.809245" /><trkpt lat="18.983610" lon="72.809274" /><trkpt lat="18.983742" lon="72.809304" /><trkpt lat="18.983873" lon="72.809334" /><trkpt lat="18.984005" lon="72.809363" /><trkpt lat="18.984137" lon="72.809393" /><trkpt lat="18.984269" lon="72.809423" /><trkpt lat="18.984401" lon="72.809452" /><trkpt lat="18.984533" lon="72.809482" /><trkpt lat="18.984665" lon="72.809512" /><trkpt lat="18.984796" lon="72.809541" /><trkpt lat="18.984928" lon="72.809571" /><trkpt lat="18.985060" lon="72.809600" /><trkpt lat="18.985192" lon="72.809630" /><trkpt lat="18.985324" lon="72.809660" /><trkpt lat="18.985456" lon="72.809689" /><trkpt lat="18.985588" lon="72.809719" /><trkpt lat="18.985719" lon="72.809749" /><trkpt lat="18.985851" lon="72.809778" /><trkpt lat="18.985983" lon="72.809808" /><trkpt lat="18.986115" lon="72.809838" /><trkpt lat="18.986247" lon="72.809867" /><trkpt lat="18.986379" lon="72.809897" /><trkpt lat="18.986511" lon="72.809927" /><trkpt lat="18.986642" lon="72.809956" /><trkpt lat="18.986774" lon="72.809986" /><trkpt lat="18.986906" lon="72.810015" /><trkpt lat="18.987038" lon="72.810045" /><trkpt lat="18.987170" lon="72.810075" /><trkpt lat="18.987302" lon="72.810104" /><trkpt lat="18.987434" lon="72.810134" /><trkpt lat="18.987565" lon="72.810164" /><trkpt lat="18.987697" lon="72.810193" /><trkpt lat="18.987829" lon="72.810223" /><trkpt lat="18.987961" lon="72.810253" /><trkpt lat="18.988093" lon="72.810282" /><trkpt lat="18.988225" lon="72.810312" /><trkpt lat="18.988357" lon="72.810342" /><trkpt lat="18.988488" lon="72.810371" /><trkpt lat="18.988620" lon="72.810401" /><trkpt lat="18.988752" lon="72.810431" /><trkpt lat="18.988884" lon="72.810460" /><trkpt lat="18.989016" lon="72.810490" /><trkpt lat="18.989148" lon="72.810519" /><trkpt lat="18.989280" lon="72.810549" /><trkpt lat="18.989412" lon="72.810579" /><trkpt lat="18.989543" lon="72.810608" /><trkpt lat="18.989675" lon="72.810638" /><trkpt lat="18.989807" lon="72.810668" /><trkpt lat="18.989939" lon="72.810697" /><trkpt lat="18.990071" lon="72.810727" /><trkpt lat="18.990203" lon="72.810757" /><trkpt lat="18.990335" lon="72.810786" /><trkpt lat="18.990466" lon="72.810816" /><trkpt lat="18.990598" lon="72.810846" /><trkpt lat="18.990730" lon="72.810875" /><trkpt lat="18.990862" lon="72.810905" /><trkpt lat="18.990994" lon="72.810935" /><trkpt lat="18.991126" lon="72.810964" /><trkpt lat="18.991258" lon="72.810994" /><trkpt lat="18.991389" lon="72.811023" /><trkpt lat="18.991521" lon="72.811053" /><trkpt lat="18.991653" lon="72.811083" /><trkpt lat="18.991785" lon="72.811112" /><trkpt lat="18.991917" lon="72.811142" /><trkpt lat="18.992049" lon="72.811172" /><trkpt lat="18.992181" lon="72.811201" /><trkpt lat="18.992312" lon="72.811231" /><trkpt lat="18.992444" lon="72.811261" /><trkpt lat="18.992576" lon="72.811290" /><trkpt lat="18.992708" lon="72.811320" /><trkpt lat="18.992840" lon="72.811350" /><trkpt lat="18.992972" lon="72.811379" /><trkpt lat="18.993104" lon="72.811409" /><trkpt lat="18.993235" lon="72.811438" /><trkpt lat="18.993367" lon="72.811468" /><trkpt lat="18.993499" lon="72.811498" /><trkpt lat="18.993631" lon="72.811527" /><trkpt lat="18.993763" lon="72.811557" /><trkpt lat="18.993895" lon="72.811587" /><trkpt lat="18.994027" lon="72.811616" /><trkpt lat="18.994158" lon="72.811646" /><trkpt lat="18.994290" lon="72.811676" /><trkpt lat="18.994422" lon="72.811705" /><trkpt lat="18.994554" lon="72.811735" /><trkpt lat="18.994686" lon="72.811765" /><trkpt lat="18.994818" lon="72.811794" /><trkpt lat="18.994950" lon="72.811824" /><trkpt lat="18.995081" lon="72.811854" /><trkpt lat="18.995213" lon="72.811883" /><trkpt lat="18.995345" lon="72.811913" /><trkpt lat="18.995477" lon="72.811942" /><trkpt lat="18.995609" lon="72.811972" /><trkpt lat="18.995741" lon="72.812002" /><trkpt lat="18.995873" lon="72.812031" /><trkpt lat="18.996004" lon="72.812061" /><trkpt lat="18.996136" lon="72.812091" /><trkpt lat="18.996268" lon="72.812120" /><trkpt lat="18.996400" lon="72.812150" /><trkpt lat="18.996532" lon="72.812180" /><trkpt lat="18.996664" lon="72.812209" /><trkpt lat="18.996796" lon="72.812239" /><trkpt lat="18.996927" lon="72.812269" /><trkpt lat="18.997059" lon="72.812298" /><trkpt lat="18.997191" lon="72.812328" /><trkpt lat="18.997323" lon="72.812358" /><trkpt lat="18.997455" lon="72.812387" /><trkpt lat="18.997587" lon="72.812417" /><trkpt lat="18.997719" lon="72.812446" /><trkpt lat="18.997850" lon="72.812476" /><trkpt lat="18.997982" lon="72.812506" /><trkpt lat="18.998114" lon="72.812535" /><trkpt lat="18.998246" lon="72.812565" /><trkpt lat="18.998378" lon="72.812595" /><trkpt lat="18.998510" lon="72.812624" /><trkpt lat="18.998642" lon="72.812654" /><trkpt lat="18.998773" lon="72.812684" /><trkpt lat="18.998905" lon="72.812713" /><trkpt lat="18.999037" lon="72.812743" /><trkpt lat="18.999169" lon="72.812773" /><trkpt lat="18.999301" lon="72.812802" /><trkpt lat="18.999433" lon="72.812832" /><trkpt lat="18.999565" lon="72.812862" /><trkpt lat="18.999696" lon="72.812891" /><trkpt lat="18.999828" lon="72.812921" /><trkpt lat="18.999960" lon="72.812950" /><trkpt lat="19.000092" lon="72.812980" /><trkpt lat="19.000224" lon="72.813010" /><trkpt lat="19.000356" lon="72.813039" /><trkpt lat="19.000488" lon="72.813069" /><trkpt lat="19.000619" lon="72.813099" /><trkpt lat="19.000751" lon="72.813128" /><trkpt lat="19.000883" lon="72.813158" /><trkpt lat="19.001015" lon="72.813188" /><trkpt lat="19.001147" lon="72.813217" /><trkpt lat="19.001279" lon="72.813247" /><trkpt lat="19.001411" lon="72.813277" /><trkpt lat="19.001542" lon="72.813306" /><trkpt lat="19.001674" lon="72.813336" /><trkpt lat="19.001806" lon="72.813365" /><trkpt lat="19.001938" lon="72.813395" /><trkpt lat="19.002070" lon="72.813425" /><trkpt lat="19.002202" lon="72.813454" /><trkpt lat="19.002334" lon="72.813484" /><trkpt lat="19.002465" lon="72.813514" /><trkpt lat="19.002597" lon="72.813543" /><trkpt lat="19.002729" lon="72.813573" /><trkpt lat="19.002861" lon="72.813603" /><trkpt lat="19.002993" lon="72.813632" /><trkpt lat="19.003125" lon="72.813662" /><trkpt lat="19.003257" lon="72.813692" /><trkpt lat="19.003388" lon="72.813721" /><trkpt lat="19.003520" lon="72.813751" /><trkpt lat="19.003652" lon="72.813781" /><trkpt lat="19.003784" lon="72.813810" /><trkpt lat="19.003916" lon="72.813840" /><trkpt lat="19.004048" lon="72.813869" /><trkpt lat="19.004180" lon="72.813899" /><trkpt lat="19.004312" lon="72.813929" /><trkpt lat="19.004443" lon="72.813958" /><trkpt lat="19.004575" lon="72.813988" /><trkpt lat="19.004707" lon="72.814018" /><trkpt lat="19.004839" lon="72.814047" /><trkpt lat="19.004971" lon="72.814077" /><trkpt lat="19.005103" lon="72.814107" /><trkpt lat="19.005235" lon="72.814136" /><trkpt lat="19.005366" lon="72.814166" /><trkpt lat="19.005498" lon="72.814196" /><trkpt lat="19.005630" lon="72.814225" /><trkpt lat="19.005762" lon="72.814255" /><trkpt lat="19.005894" lon="72.814285" /><trkpt lat="19.006026" lon="72.814314" /><trkpt lat="19.006158" lon="72.814344" /><trkpt lat="19.006289" lon="72.814373" /><trkpt lat="19.006421" lon="72.814403" /><trkpt lat="19.006553" lon="72.814433" /><trkpt lat="19.006685" lon="72.814462" /><trkpt lat="19.006817" lon="72.814492" /><trkpt lat="19.006949" lon="72.814522" /><trkpt lat="19.007081" lon="72.814551" /><trkpt lat="19.007212" lon="72.814581" /><trkpt lat="19.007344" lon="72.814611" /><trkpt lat="19.007476" lon="72.814640" /><trkpt lat="19.007608" lon="72.814670" /><trkpt lat="19.007740" lon="72.814700" /><trkpt lat="19.007872" lon="72.814729" /><trkpt lat="19.008004" lon="72.814759" /><trkpt lat="19.008135" lon="72.814788" /><trkpt lat="19.008267" lon="72.814818" /><trkpt lat="19.008399" lon="72.814848" /><trkpt lat="19.008531" lon="72.814877" /><trkpt lat="19.008663" lon="72.814907" /><trkpt lat="19.008795" lon="72.814937" /><trkpt lat="19.008927" lon="72.814966" /><trkpt lat="19.009058" lon="72.814996" /><trkpt lat="19.009190" lon="72.815026" /><trkpt lat="19.009322" lon="72.815055" /><trkpt lat="19.009454" lon="72.815085" /><trkpt lat="19.009586" lon="72.815115" /><trkpt lat="19.009718" lon="72.815144" /><trkpt lat="19.009850" lon="72.815174" /><trkpt lat="19.009981" lon="72.815204" /><trkpt lat="19.010113" lon="72.815233" /><trkpt lat="19.010245" lon="72.815263" /><trkpt lat="19.010377" lon="72.815292" /><trkpt lat="19.010509" lon="72.815322" /><trkpt lat="19.010641" lon="72.815352" /><trkpt lat="19.010773" lon="72.815381" /><trkpt lat="19.010904" lon="72.815411" /><trkpt lat="19.011036" lon="72.815441" /><trkpt lat="19.011168" lon="72.815470" /><trkpt lat="19.011300" lon="72.815500" /></trkseg></trk></gpx>