<?xml version="1.0" encoding="UTF-8"?>
<gpx version="1.1" creator="google-directions">
<trk><name>mumbai_juhu_beach</name><trkseg>
<trkpt lat="19.097380" lon="72.826350"></trkpt>
<trkpt lat="19.097640" lon="72.826250"></trkpt>
<trkpt lat="19.097800" lon="72.826180"></trkpt>
<trkpt lat="19.097870" lon="72.826150"></trkpt>
<trkpt lat="19.097980" lon="72.826130"></trkpt>
<trkpt lat="19.098380" lon="72.826060"></trkpt>
<trkpt lat="19.098850" lon="72.825900"></trkpt>
<trkpt lat="19.098920" lon="72.825870"></trkpt>
<trkpt lat="19.099190" lon="72.825780"></trkpt>
<trkpt lat="19.099200" lon="72.825780"></trkpt>
<trkpt lat="19.099360" lon="72.825730"></trkpt>
<trkpt lat="19.099400" lon="72.825720"></trkpt>
<trkpt lat="19.099570" lon="72.825670"></trkpt>
<trkpt lat="19.100050" lon="72.825520"></trkpt>
<trkpt lat="19.100230" lon="72.825470"></trkpt>
<trkpt lat="19.100750" lon="72.825320"></trkpt>
<trkpt lat="19.100770" lon="72.825310"></trkpt>
<trkpt lat="19.101090" lon="72.825220"></trkpt>
<trkpt lat="19.101270" lon="72.825170"></trkpt>
<trkpt lat="19.101440" lon="72.825120"></trkpt>
<trkpt lat="19.101610" lon="72.825070"></trkpt>
<trkpt lat="19.101660" lon="72.825050"></trkpt>
<trkpt lat="19.101790" lon="72.825020"></trkpt>
<trkpt lat="19.102140" lon="72.824920"></trkpt>
<trkpt lat="19.102160" lon="72.824910"></trkpt>
<trkpt lat="19.102310" lon="72.824870"></trkpt>
<trkpt lat="19.102450" lon="72.824840"></trkpt>
<trkpt lat="19.102480" lon="72.824830"></trkpt>
<trkpt lat="19.102660" lon="72.824790"></trkpt>
<trkpt lat="19.102740" lon="72.824770"></trkpt>
<trkpt lat="19.103010" lon="72.824720"></trkpt>
<trkpt lat="19.103000" lon="72.824830"></trkpt>
<trkpt lat="19.103000" lon="72.824870"></trkpt>
<trkpt lat="19.103000" lon="72.825010"></trkpt>
<trkpt lat="19.103000" lon="72.825100"></trkpt>
<trkpt lat="19.103000" lon="72.825170"></trkpt>
<trkpt lat="19.103010" lon="72.825300"></trkpt>
<trkpt lat="19.103030" lon="72.825480"></trkpt>
<trkpt lat="19.103030" lon="72.825520"></trkpt>
<trkpt lat="19.103040" lon="72.825670"></trkpt>
<trkpt lat="19.103050" lon="72.825820"></trkpt>
<trkpt lat="19.103070" lon="72.825970"></trkpt>
<trkpt lat="19.103050" lon="72.826050"></trkpt>
<trkpt lat="19.103100" lon="72.826500"></trkpt>
<trkpt lat="19.103120" lon="72.826690"></trkpt>
<trkpt lat="19.103130" lon="72.826730"></trkpt>
<trkpt lat="19.103150" lon="72.826860"></trkpt>
<trkpt lat="19.103070" lon="72.826870"></trkpt>
<trkpt lat="19.102450" lon="72.826940"></trkpt>
<trkpt lat="19.102210" lon="72.826980"></trkpt>
<trkpt lat="19.102140" lon="72.827000"></trkpt>
<trkpt lat="19.102120" lon="72.827000"></trkpt>
<trkpt lat="19.101810" lon="72.827060"></trkpt>
<trkpt lat="19.101740" lon="72.827080"></trkpt>
<trkpt lat="19.101530" lon="72.827120"></trkpt>
<trkpt lat="19.101380" lon="72.827150"></trkpt>
<trkpt lat="19.101240" lon="72.827170"></trkpt>
<trkpt lat="19.101190" lon="72.827180"></trkpt>
<trkpt lat="19.101120" lon="72.827200"></trkpt>
<trkpt lat="19.101000" lon="72.827220"></trkpt>
<trkpt lat="19.100930" lon="72.827240"></trkpt>
<trkpt lat="19.100900" lon="72.827250"></trkpt>
<trkpt lat="19.099990" lon="72.827450"></trkpt>
<trkpt lat="19.099930" lon="72.827090"></trkpt>
<trkpt lat="19.099860" lon="72.827100"></trkpt>
<trkpt lat="19.099860" lon="72.827070"></trkpt>
<trkpt lat="19.099760" lon="72.826580"></trkpt>
<trkpt lat="19.099800" lon="72.826500"></trkpt>
<trkpt lat="19.099840" lon="72.826490"></trkpt>
<trkpt lat="19.099740" lon="72.826120"></trkpt>
<trkpt lat="19.099740" lon="72.826100"></trkpt>
<trkpt lat="19.099740" lon="72.826120"></trkpt>
<trkpt lat="19.099840" lon="72.826490"></trkpt>
<trkpt lat="19.099800" lon="72.826500"></trkpt>
<trkpt lat="19.099760" lon="72.826580"></trkpt>
<trkpt lat="19.099860" lon="72.827070"></trkpt>
<trkpt lat="19.099860" lon="72.827100"></trkpt>
<trkpt lat="19.099930" lon="72.827090"></trkpt>
<trkpt lat="19.099990" lon="72.827450"></trkpt>
<trkpt lat="19.100900" lon="72.827250"></trkpt>
<trkpt lat="19.100930" lon="72.827240"></trkpt>
<trkpt lat="19.101000" lon="72.827220"></trkpt>
<trkpt lat="19.101120" lon="72.827200"></trkpt>
<trkpt lat="19.101170" lon="72.827190"></trkpt>
<trkpt lat="19.101240" lon="72.827170"></trkpt>
<trkpt lat="19.101380" lon="72.827150"></trkpt>
<trkpt lat="19.101530" lon="72.827120"></trkpt>
<trkpt lat="19.101740" lon="72.827080"></trkpt>
<trkpt lat="19.101710" lon="72.826900"></trkpt>
<trkpt lat="19.101700" lon="72.826900"></trkpt>
<trkpt lat="19.101710" lon="72.826900"></trkpt>
<trkpt lat="19.101780" lon="72.826890"></trkpt>
<trkpt lat="19.101810" lon="72.827060"></trkpt>
<trkpt lat="19.102120" lon="72.827000"></trkpt>
<trkpt lat="19.102140" lon="72.827000"></trkpt>
<trkpt lat="19.102210" lon="72.826980"></trkpt>
<trkpt lat="19.102450" lon="72.826940"></trkpt>
<trkpt lat="19.103070" lon="72.826870"></trkpt>
<trkpt lat="19.103150" lon="72.826860"></trkpt>
<trkpt lat="19.103220" lon="72.826850"></trkpt>
<trkpt lat="19.103320" lon="72.826850"></trkpt>
<trkpt lat="19.103390" lon="72.826840"></trkpt>
<trkpt lat="19.103480" lon="72.826840"></trkpt>
<trkpt lat="19.103560" lon="72.826830"></trkpt>
<trkpt lat="19.103740" lon="72.826820"></trkpt>
<trkpt lat="19.103820" lon="72.826810"></trkpt>
<trkpt lat="19.103870" lon="72.826810"></trkpt>
<trkpt lat="19.104060" lon="72.826790"></trkpt>
<trkpt lat="19.104130" lon="72.826780"></trkpt>
<trkpt lat="19.104810" lon="72.826650"></trkpt>
<trkpt lat="19.104870" lon="72.826640"></trkpt>
<trkpt lat="19.104940" lon="72.826610"></trkpt>
<trkpt lat="19.104960" lon="72.826690"></trkpt>
<trkpt lat="19.105090" lon="72.826650"></trkpt>
<trkpt lat="19.105450" lon="72.826580"></trkpt>
<trkpt lat="19.105500" lon="72.826590"></trkpt>
<trkpt lat="19.105870" lon="72.826530"></trkpt>
<trkpt lat="19.106290" lon="72.826480"></trkpt>
<trkpt lat="19.106760" lon="72.826430"></trkpt>
<trkpt lat="19.106770" lon="72.826430"></trkpt>
<trkpt lat="19.106840" lon="72.826420"></trkpt>
<trkpt lat="19.107080" lon="72.826410"></trkpt>
<trkpt lat="19.107170" lon="72.826410"></trkpt>
<trkpt lat="19.107410" lon="72.826430"></trkpt>
<trkpt lat="19.107420" lon="72.826360"></trkpt>
<trkpt lat="19.107460" lon="72.826090"></trkpt>
<trkpt lat="19.107460" lon="72.826060"></trkpt>
<trkpt lat="19.107470" lon="72.825820"></trkpt>
<trkpt lat="19.107470" lon="72.825790"></trkpt>
<trkpt lat="19.107490" lon="72.825750"></trkpt>
<trkpt lat="19.107510" lon="72.825740"></trkpt>
<trkpt lat="19.107520" lon="72.825730"></trkpt>
<trkpt lat="19.107530" lon="72.825720"></trkpt>
<trkpt lat="19.107560" lon="72.825700"></trkpt>
<trkpt lat="19.107580" lon="72.825690"></trkpt>
<trkpt lat="19.107610" lon="72.825680"></trkpt>
<trkpt lat="19.107640" lon="72.825670"></trkpt>
<trkpt lat="19.107700" lon="72.825660"></trkpt>
<trkpt lat="19.107860" lon="72.825640"></trkpt>
<trkpt lat="19.107920" lon="72.825630"></trkpt>
<trkpt lat="19.107990" lon="72.825620"></trkpt>
<trkpt lat="19.108280" lon="72.825610"></trkpt>
<trkpt lat="19.108360" lon="72.825600"></trkpt>
<trkpt lat="19.108460" lon="72.825590"></trkpt>
<trkpt lat="19.108480" lon="72.825480"></trkpt>
<trkpt lat="19.108410" lon="72.824910"></trkpt>
<trkpt lat="19.108310" lon="72.824240"></trkpt>
<trkpt lat="19.108330" lon="72.824150"></trkpt>
<trkpt lat="19.108300" lon="72.823940"></trkpt>
<trkpt lat="19.108260" lon="72.823650"></trkpt>
<trkpt lat="19.108340" lon="72.823630"></trkpt>
<trkpt lat="19.108790" lon="72.823550"></trkpt>
<trkpt lat="19.109150" lon="72.823500"></trkpt>
<trkpt lat="19.109320" lon="72.823470"></trkpt>
<trkpt lat="19.109380" lon="72.823460"></trkpt>
<trkpt lat="19.109500" lon="72.823440"></trkpt>
<trkpt lat="19.109680" lon="72.823400"></trkpt>
<trkpt lat="19.109860" lon="72.823370"></trkpt>
<trkpt lat="19.110130" lon="72.823330"></trkpt>
<trkpt lat="19.110380" lon="72.823260"></trkpt>
<trkpt lat="19.110460" lon="72.823240"></trkpt>
<trkpt lat="19.110380" lon="72.823260"></trkpt>
<trkpt lat="19.110130" lon="72.823330"></trkpt>
<trkpt lat="19.109860" lon="72.823370"></trkpt>
<trkpt lat="19.109680" lon="72.823400"></trkpt>
<trkpt lat="19.109500" lon="72.823440"></trkpt>
<trkpt lat="19.109380" lon="72.823460"></trkpt>
<trkpt lat="19.109320" lon="72.823470"></trkpt>
<trkpt lat="19.109150" lon="72.823500"></trkpt>
<trkpt lat="19.108790" lon="72.823550"></trkpt>
<trkpt lat="19.108340" lon="72.823630"></trkpt>
<trkpt lat="19.108260" lon="72.823650"></trkpt>
<trkpt lat="19.107650" lon="72.823770"></trkpt>
<trkpt lat="19.107590" lon="72.823780"></trkpt>
<trkpt lat="19.107470" lon="72.823800"></trkpt>
<trkpt lat="19.107190" lon="72.823850"></trkpt>
<trkpt lat="19.107080" lon="72.823870"></trkpt>
<trkpt lat="19.106940" lon="72.823890"></trkpt>
<trkpt lat="19.106780" lon="72.823920"></trkpt>
<trkpt lat="19.106500" lon="72.823990"></trkpt>
<trkpt lat="19.106450" lon="72.824010"></trkpt>
<trkpt lat="19.106270" lon="72.824070"></trkpt>
<trkpt lat="19.106140" lon="72.824090"></trkpt>
<trkpt lat="19.106130" lon="72.824090"></trkpt>
<trkpt lat="19.106100" lon="72.824100"></trkpt>
<trkpt lat="19.105600" lon="72.824200"></trkpt>
<trkpt lat="19.105400" lon="72.824250"></trkpt>
<trkpt lat="19.105220" lon="72.824280"></trkpt>
<trkpt lat="19.105030" lon="72.824320"></trkpt>
<trkpt lat="19.104690" lon="72.824380"></trkpt>
<trkpt lat="19.104150" lon="72.824510"></trkpt>
<trkpt lat="19.103990" lon="72.824540"></trkpt>
<trkpt lat="19.103840" lon="72.824570"></trkpt>
<trkpt lat="19.103810" lon="72.824570"></trkpt>
<trkpt lat="19.103660" lon="72.824600"></trkpt>
<trkpt lat="19.103630" lon="72.824600"></trkpt>
<trkpt lat="19.103460" lon="72.824640"></trkpt>
<trkpt lat="19.103040" lon="72.824720"></trkpt>
<trkpt lat="19.103010" lon="72.824720"></trkpt>
<trkpt lat="19.103000" lon="72.824830"></trkpt>
<trkpt lat="19.103000" lon="72.824870"></trkpt>
<trkpt lat="19.103000" lon="72.825010"></trkpt>
<trkpt lat="19.103000" lon="72.825100"></trkpt>
<trkpt lat="19.103000" lon="72.825170"></trkpt>
<trkpt lat="19.103010" lon="72.825300"></trkpt>
<trkpt lat="19.103030" lon="72.825480"></trkpt>
<trkpt lat="19.103030" lon="72.825520"></trkpt>
<trkpt lat="19.103040" lon="72.825670"></trkpt>
<trkpt lat="19.103050" lon="72.825820"></trkpt>
<trkpt lat="19.103070" lon="72.825970"></trkpt>
<trkpt lat="19.103050" lon="72.826050"></trkpt>
<trkpt lat="19.103100" lon="72.826500"></trkpt>
<trkpt lat="19.103120" lon="72.826690"></trkpt>
<trkpt lat="19.103130" lon="72.826730"></trkpt>
<trkpt lat="19.103150" lon="72.826860"></trkpt>
<trkpt lat="19.103070" lon="72.826870"></trkpt>
<trkpt lat="19.102450" lon="72.826940"></trkpt>
<trkpt lat="19.102210" lon="72.826980"></trkpt>
<trkpt lat="19.102140" lon="72.827000"></trkpt>
<trkpt lat="19.102120" lon="72.827000"></trkpt>
<trkpt lat="19.101810" lon="72.827060"></trkpt>
<trkpt lat="19.101780" lon="72.826890"></trkpt>
<trkpt lat="19.101710" lon="72.826910"></trkpt>
<trkpt lat="19.101750" lon="72.826900"></trkpt>
<trkpt lat="19.101710" lon="72.826900"></trkpt>
<trkpt lat="19.101740" lon="72.827080"></trkpt>
<trkpt lat="19.101530" lon="72.827120"></trkpt>
<trkpt lat="19.101380" lon="72.827150"></trkpt>
<trkpt lat="19.101240" lon="72.827170"></trkpt>
<trkpt lat="19.101190" lon="72.827180"></trkpt>
<trkpt lat="19.101120" lon="72.827200"></trkpt>
<trkpt lat="19.101000" lon="72.827220"></trkpt>
<trkpt lat="19.100930" lon="72.827240"></trkpt>
<trkpt lat="19.100900" lon="72.827250"></trkpt>
<trkpt lat="19.099990" lon="72.827450"></trkpt>
<trkpt lat="19.099930" lon="72.827090"></trkpt>
<trkpt lat="19.099860" lon="72.827100"></trkpt>
<trkpt lat="19.099860" lon="72.827070"></trkpt>
<trkpt lat="19.099760" lon="72.826580"></trkpt>
<trkpt lat="19.099800" lon="72.826500"></trkpt>
<trkpt lat="19.099840" lon="72.826490"></trkpt>
<trkpt lat="19.099740" lon="72.826120"></trkpt>
<trkpt lat="19.099740" lon="72.826100"></trkpt>
<trkpt lat="19.099740" lon="72.826120"></trkpt>
<trkpt lat="19.099840" lon="72.826490"></trkpt>
<trkpt lat="19.099800" lon="72.826500"></trkpt>
<trkpt lat="19.099760" lon="72.826580"></trkpt>
<trkpt lat="19.099860" lon="72.827070"></trkpt>
<trkpt lat="19.099860" lon="72.827100"></trkpt>
<trkpt lat="19.099930" lon="72.827090"></trkpt>
<trkpt lat="19.099990" lon="72.827450"></trkpt>
<trkpt lat="19.100900" lon="72.827250"></trkpt>
<trkpt lat="19.100930" lon="72.827240"></trkpt>
<trkpt lat="19.101000" lon="72.827220"></trkpt>
<trkpt lat="19.101120" lon="72.827200"></trkpt>
<trkpt lat="19.101170" lon="72.827190"></trkpt>
<trkpt lat="19.101240" lon="72.827170"></trkpt>
<trkpt lat="19.101380" lon="72.827150"></trkpt>
<trkpt lat="19.101530" lon="72.827120"></trkpt>
<trkpt lat="19.101740" lon="72.827080"></trkpt>
<trkpt lat="19.101810" lon="72.827060"></trkpt>
<trkpt lat="19.102120" lon="72.827000"></trkpt>
<trkpt lat="19.102140" lon="72.827000"></trkpt>
<trkpt lat="19.102210" lon="72.826980"></trkpt>
<trkpt lat="19.102450" lon="72.826940"></trkpt>
<trkpt lat="19.103070" lon="72.826870"></trkpt>
<trkpt lat="19.103150" lon="72.826860"></trkpt>
<trkpt lat="19.103130" lon="72.826730"></trkpt>
<trkpt lat="19.103120" lon="72.826690"></trkpt>
<trkpt lat="19.103100" lon="72.826500"></trkpt>
<trkpt lat="19.103050" lon="72.826050"></trkpt>
<trkpt lat="19.103070" lon="72.825970"></trkpt>
<trkpt lat="19.103050" lon="72.825820"></trkpt>
<trkpt lat="19.103040" lon="72.825670"></trkpt>
<trkpt lat="19.103030" lon="72.825520"></trkpt>
<trkpt lat="19.103030" lon="72.825480"></trkpt>
<trkpt lat="19.103010" lon="72.825300"></trkpt>
<trkpt lat="19.103000" lon="72.825170"></trkpt>
<trkpt lat="19.103000" lon="72.825100"></trkpt>
<trkpt lat="19.103000" lon="72.825010"></trkpt>
<trkpt lat="19.103000" lon="72.824870"></trkpt>
<trkpt lat="19.103000" lon="72.824830"></trkpt>
<trkpt lat="19.103010" lon="72.824720"></trkpt>
<trkpt lat="19.102740" lon="72.824770"></trkpt>
<trkpt lat="19.102660" lon="72.824790"></trkpt>
<trkpt lat="19.102480" lon="72.824830"></trkpt>
<trkpt lat="19.102450" lon="72.824840"></trkpt>
<trkpt lat="19.102310" lon="72.824870"></trkpt>
<trkpt lat="19.102160" lon="72.824910"></trkpt>
<trkpt lat="19.102140" lon="72.824920"></trkpt>
<trkpt lat="19.101790" lon="72.825020"></trkpt>
<trkpt lat="19.101660" lon="72.825050"></trkpt>
<trkpt lat="19.101610" lon="72.825070"></trkpt>
<trkpt lat="19.101440" lon="72.825120"></trkpt>
<trkpt lat="19.101270" lon="72.825170"></trkpt>
<trkpt lat="19.101090" lon="72.825220"></trkpt>
<trkpt lat="19.100770" lon="72.825310"></trkpt>
<trkpt lat="19.100750" lon="72.825320"></trkpt>
<trkpt lat="19.100230" lon="72.825470"></trkpt>
<trkpt lat="19.100050" lon="72.825520"></trkpt>
<trkpt lat="19.099570" lon="72.825670"></trkpt>
<trkpt lat="19.099400" lon="72.825720"></trkpt>
<trkpt lat="19.099360" lon="72.825730"></trkpt>
<trkpt lat="19.099200" lon="72.825780"></trkpt>
<trkpt lat="19.099190" lon="72.825780"></trkpt>
<trkpt lat="19.098920" lon="72.825870"></trkpt>
<trkpt lat="19.098850" lon="72.825900"></trkpt>
<trkpt lat="19.098380" lon="72.826060"></trkpt>
<trkpt lat="19.097980" lon="72.826130"></trkpt>
<trkpt lat="19.097870" lon="72.826150"></trkpt>
<trkpt lat="19.097800" lon="72.826180"></trkpt>
<trkpt lat="19.097640" lon="72.826250"></trkpt>
<trkpt lat="19.097380" lon="72.826350"></trkpt>
</trkseg></trk>
</gpx>
