<?xml version='1.0' encoding='utf-8'?>
<gpx version="1.1" creator="RunCast" xmlns="http://www.topografix.com/GPX/1/1"><trk><name>mumbai_priyadarshini_park</name><trkseg><trkpt lat="18.967600" lon="72.803600" /><trkpt lat="18.967629" lon="72.803414" /><trkpt lat="18.967657" lon="72.803229" /><trkpt lat="18.967686" lon="72.803043" /><trkpt lat="18.967714" lon="72.802857" /><trkpt lat="18.967743" lon="72.802671" /><trkpt lat="18.967771" lon="72.802486" /><trkpt lat="18.967800" lon="72.802300" /><trkpt lat="18.967829" lon="72.802114" /><trkpt lat="18.967857" lon="72.801929" /><trkpt lat="18.967886" lon="72.801743" /><trkpt lat="18.967914" lon="72.801557" /><trkpt lat="18.967943" lon="72.801371" /><trkpt lat="18.967971" lon="72.801186" /><trkpt lat="18.968000" lon="72.801000" /><trkpt lat="18.968150" lon="72.800900" /><trkpt lat="18.968300" lon="72.800800" /><trkpt lat="18.968450" lon="72.800700" /><trkpt lat="18.968600" lon="72.800600" /><trkpt lat="18.968750" lon="72.800500" /><trkpt lat="18.968900" lon="72.800400" /><trkpt lat="18.969050" lon="72.800300" /><trkpt lat="18.969200" lon="72.800200" /><trkpt lat="18.969350" lon="72.800100" /><trkpt lat="18.969500" lon="72.800000" /><trkpt lat="18.969650" lon="72.799900" /><trkpt lat="18.969800" lon="72.799800" /><trkpt lat="18.969942" lon="72.799900" /><trkpt lat="18.970083" lon="72.800000" /><trkpt lat="18.970225" lon="72.800100" /><trkpt lat="18.970367" lon="72.800200" /><trkpt lat="18.970508" lon="72.800300" /><trkpt lat="18.970650" lon="72.800400" /><trkpt lat="18.970792" lon="72.800500" /><trkpt lat="18.970933" lon="72.800600" /><trkpt lat="18.971075" lon="72.800700" /><trkpt lat="18.971217" lon="72.800800" /><trkpt lat="18.971358" lon="72.800900" /><trkpt lat="18.971500" lon="72.801000" /><trkpt lat="18.971519" lon="72.801187" /><trkpt lat="18.971538" lon="72.801375" /><trkpt lat="18.971556" lon="72.801563" /><trkpt lat="18.971575" lon="72.801750" /><trkpt lat="18.971594" lon="72.801938" /><trkpt lat="18.971612" lon="72.802125" /><trkpt lat="18.971631" lon="72.802312" /><trkpt lat="18.971650" lon="72.802500" /><trkpt lat="18.971669" lon="72.802688" /><trkpt lat="18.971688" lon="72.802875" /><trkpt lat="18.971706" lon="72.803062" /><trkpt lat="18.971725" lon="72.803250" /><trkpt lat="18.971744" lon="72.803438" /><trkpt lat="18.971763" lon="72.803625" /><trkpt lat="18.971781" lon="72.803813" /><trkpt lat="18.971800" lon="72.804000" /><trkpt lat="18.971692" lon="72.804150" /><trkpt lat="18.971583" lon="72.804300" /><trkpt lat="18.971475" lon="72.804450" /><trkpt lat="18.971367" lon="72.804600" /><trkpt lat="18.971258" lon="72.804750" /><trkpt lat="18.971150" lon="72.804900" /><trkpt lat="18.971042" lon="72.805050" /><trkpt lat="18.970933" lon="72.805200" /><trkpt lat="18.970825" lon="72.805350" /><trkpt lat="18.970717" lon="72.805500" /><trkpt lat="18.970608" lon="72.805650" /><trkpt lat="18.970500" lon="72.805800" /><trkpt lat="18.970327" lon="72.805773" /><trkpt lat="18.970155" lon="72.805745" /><trkpt lat="18.969982" lon="72.805718" /><trkpt lat="18.969809" lon="72.805691" /><trkpt lat="18.969636" lon="72.805664" /><trkpt lat="18.969464" lon="72.805636" /><trkpt lat="18.969291" lon="72.805609" /><trkpt lat="18.969118" lon="72.805582" /><trkpt lat="18.968945" lon="72.805555" /><trkpt lat="18.968773" lon="72.805527" /><trkpt lat="18.968600" lon="72.805500" /><trkpt lat="18.968517" lon="72.805342" /><trkpt lat="18.968433" lon="72.805183" /><trkpt lat="18.968350" lon="72.805025" /><trkpt lat="18.968267" lon="72.804867" /><trkpt lat="18.968183" lon="72.804708" /><trkpt lat="18.968100" lon="72.804550" /><trkpt lat="18.968017" lon="72.804392" /><trkpt lat="18.967933" lon="72.804233" /><trkpt lat="18.967850" lon="72.804075" /><trkpt lat="18.967767" lon="72.803917" /><trkpt lat="18.967683" lon="72.803758" /><trkpt lat="18.967600" lon="72.803600" /></trkseg></trk></gpx>