<?xml version="1.0" encoding="UTF-8"?>
<gpx version="1.1" creator="greatruns-mapmyrun">
<trk><name>mumbai_worli_seaface</name><trkseg>
<trkpt lat="19.016060" lon="72.817830"></trkpt>
<trkpt lat="19.015630" lon="72.817420"></trkpt>
<trkpt lat="19.015450" lon="72.817260"></trkpt>
<trkpt lat="19.015440" lon="72.817220"></trkpt>
<trkpt lat="19.015430" lon="72.817180"></trkpt>
<trkpt lat="19.015400" lon="72.817150"></trkpt>
<trkpt lat="19.015320" lon="72.817070"></trkpt>
<trkpt lat="19.015250" lon="72.817050"></trkpt>
<trkpt lat="19.015140" lon="72.817050"></trkpt>
<trkpt lat="19.015100" lon="72.817090"></trkpt>
<trkpt lat="19.015090" lon="72.817110"></trkpt>
<trkpt lat="19.015080" lon="72.817140"></trkpt>
<trkpt lat="19.014920" lon="72.817020"></trkpt>
<trkpt lat="19.014820" lon="72.816960"></trkpt>
<trkpt lat="19.014720" lon="72.816940"></trkpt>
<trkpt lat="19.013110" lon="72.816960"></trkpt>
<trkpt lat="19.012560" lon="72.816900"></trkpt>
<trkpt lat="19.012190" lon="72.816770"></trkpt>
<trkpt lat="19.011730" lon="72.816580"></trkpt>
<trkpt lat="19.011390" lon="72.816400"></trkpt>
<trkpt lat="19.009510" lon="72.815270"></trkpt>
<trkpt lat="19.009310" lon="72.815150"></trkpt>
<trkpt lat="19.009310" lon="72.815150"></trkpt>
<trkpt lat="19.008840" lon="72.814880"></trkpt>
<trkpt lat="19.008510" lon="72.814730"></trkpt>
<trkpt lat="19.007600" lon="72.814430"></trkpt>
<trkpt lat="19.005000" lon="72.813620"></trkpt>
<trkpt lat="19.004320" lon="72.813230"></trkpt>
<trkpt lat="19.001690" lon="72.811740"></trkpt>
<trkpt lat="19.001370" lon="72.811620"></trkpt>
<trkpt lat="19.001070" lon="72.811590"></trkpt>
<trkpt lat="18.998290" lon="72.811600"></trkpt>
<trkpt lat="18.997990" lon="72.811660"></trkpt>
<trkpt lat="18.997740" lon="72.811750"></trkpt>
<trkpt lat="18.997330" lon="72.811990"></trkpt>
<trkpt lat="18.996000" lon="72.812970"></trkpt>
<trkpt lat="18.994130" lon="72.814330"></trkpt>
<trkpt lat="18.993710" lon="72.814660"></trkpt>
<trkpt lat="18.993660" lon="72.814630"></trkpt>
</trkseg></trk>
</gpx>
