<?xml version="1.0" encoding="UTF-8"?>
<gpx version="1.1" creator="strava-api">
<trk><name>Mahalaxmi Racecourse</name><trkseg>
<trkpt lat="18.982350" lon="72.816270"></trkpt>
<trkpt lat="18.982160" lon="72.816510"></trkpt>
<trkpt lat="18.981950" lon="72.816730"></trkpt>
<trkpt lat="18.981880" lon="72.816830"></trkpt>
<trkpt lat="18.981820" lon="72.816980"></trkpt>
<trkpt lat="18.981810" lon="72.817180"></trkpt>
<trkpt lat="18.981910" lon="72.817500"></trkpt>
<trkpt lat="18.982060" lon="72.818140"></trkpt>
<trkpt lat="18.982110" lon="72.818260"></trkpt>
<trkpt lat="18.982440" lon="72.819750"></trkpt>
<trkpt lat="18.982880" lon="72.821680"></trkpt>
<trkpt lat="18.983070" lon="72.822640"></trkpt>
<trkpt lat="18.983190" lon="72.822940"></trkpt>
<trkpt lat="18.983330" lon="72.823190"></trkpt>
<trkpt lat="18.983550" lon="72.823420"></trkpt>
<trkpt lat="18.983770" lon="72.823550"></trkpt>
<trkpt lat="18.984050" lon="72.823670"></trkpt>
<trkpt lat="18.984190" lon="72.823690"></trkpt>
<trkpt lat="18.984600" lon="72.823730"></trkpt>
<trkpt lat="18.984820" lon="72.823700"></trkpt>
<trkpt lat="18.985340" lon="72.823470"></trkpt>
<trkpt lat="18.986010" lon="72.823100"></trkpt>
<trkpt lat="18.986320" lon="72.822940"></trkpt>
<trkpt lat="18.986510" lon="72.822790"></trkpt>
<trkpt lat="18.986630" lon="72.822670"></trkpt>
<trkpt lat="18.986800" lon="72.822440"></trkpt>
<trkpt lat="18.986870" lon="72.822340"></trkpt>
<trkpt lat="18.987000" lon="72.821950"></trkpt>
<trkpt lat="18.987020" lon="72.821570"></trkpt>
<trkpt lat="18.986950" lon="72.821160"></trkpt>
<trkpt lat="18.986860" lon="72.820950"></trkpt>
<trkpt lat="18.986540" lon="72.820430"></trkpt>
<trkpt lat="18.985910" lon="72.819520"></trkpt>
<trkpt lat="18.985680" lon="72.819150"></trkpt>
<trkpt lat="18.984390" lon="72.817220"></trkpt>
<trkpt lat="18.983900" lon="72.816560"></trkpt>
<trkpt lat="18.983750" lon="72.816420"></trkpt>
<trkpt lat="18.983470" lon="72.816260"></trkpt>
<trkpt lat="18.983360" lon="72.816210"></trkpt>
<trkpt lat="18.983140" lon="72.816170"></trkpt>
<trkpt lat="18.982810" lon="72.816150"></trkpt>
<trkpt lat="18.982570" lon="72.816160"></trkpt>
<trkpt lat="18.982460" lon="72.816130"></trkpt>
</trkseg></trk>
</gpx>
