<?xml version="1.0" encoding="UTF-8"?>
<gpx version="1.1" creator="google-directions">
<trk><name>mumbai_powai_lake</name><trkseg>
<trkpt lat="19.117630" lon="72.908900"></trkpt>
<trkpt lat="19.117630" lon="72.908930"></trkpt>
<trkpt lat="19.117640" lon="72.908950"></trkpt>
<trkpt lat="19.117640" lon="72.908960"></trkpt>
<trkpt lat="19.117650" lon="72.908970"></trkpt>
<trkpt lat="19.117680" lon="72.908980"></trkpt>
<trkpt lat="19.117710" lon="72.908980"></trkpt>
<trkpt lat="19.117750" lon="72.908990"></trkpt>
<trkpt lat="19.117780" lon="72.909000"></trkpt>
<trkpt lat="19.117800" lon="72.909020"></trkpt>
<trkpt lat="19.117850" lon="72.909070"></trkpt>
<trkpt lat="19.117940" lon="72.908960"></trkpt>
<trkpt lat="19.118020" lon="72.908860"></trkpt>
<trkpt lat="19.118070" lon="72.908800"></trkpt>
<trkpt lat="19.118120" lon="72.908730"></trkpt>
<trkpt lat="19.118280" lon="72.908540"></trkpt>
<trkpt lat="19.118360" lon="72.908430"></trkpt>
<trkpt lat="19.118390" lon="72.908400"></trkpt>
<trkpt lat="19.118630" lon="72.908160"></trkpt>
<trkpt lat="19.118650" lon="72.908190"></trkpt>
<trkpt lat="19.118700" lon="72.908250"></trkpt>
<trkpt lat="19.119190" lon="72.908670"></trkpt>
<trkpt lat="19.119160" lon="72.908770"></trkpt>
<trkpt lat="19.119140" lon="72.908860"></trkpt>
<trkpt lat="19.119120" lon="72.908960"></trkpt>
<trkpt lat="19.119110" lon="72.909040"></trkpt>
<trkpt lat="19.119030" lon="72.909490"></trkpt>
<trkpt lat="19.119100" lon="72.909530"></trkpt>
<trkpt lat="19.119180" lon="72.909050"></trkpt>
<trkpt lat="19.119190" lon="72.908970"></trkpt>
<trkpt lat="19.119210" lon="72.908880"></trkpt>
<trkpt lat="19.119230" lon="72.908800"></trkpt>
<trkpt lat="19.119250" lon="72.908720"></trkpt>
<trkpt lat="19.119280" lon="72.908640"></trkpt>
<trkpt lat="19.119320" lon="72.908570"></trkpt>
<trkpt lat="19.119370" lon="72.908610"></trkpt>
<trkpt lat="19.119670" lon="72.908830"></trkpt>
<trkpt lat="19.119710" lon="72.908640"></trkpt>
<trkpt lat="19.119800" lon="72.908250"></trkpt>
<trkpt lat="19.119830" lon="72.908120"></trkpt>
<trkpt lat="19.119910" lon="72.907720"></trkpt>
<trkpt lat="19.119930" lon="72.907570"></trkpt>
<trkpt lat="19.119950" lon="72.907500"></trkpt>
<trkpt lat="19.119960" lon="72.907440"></trkpt>
<trkpt lat="19.119990" lon="72.907390"></trkpt>
<trkpt lat="19.120030" lon="72.907340"></trkpt>
<trkpt lat="19.120060" lon="72.907300"></trkpt>
<trkpt lat="19.120080" lon="72.907270"></trkpt>
<trkpt lat="19.120100" lon="72.907260"></trkpt>
<trkpt lat="19.120170" lon="72.907200"></trkpt>
<trkpt lat="19.120420" lon="72.907110"></trkpt>
<trkpt lat="19.120450" lon="72.907180"></trkpt>
<trkpt lat="19.120460" lon="72.907200"></trkpt>
<trkpt lat="19.120490" lon="72.907270"></trkpt>
<trkpt lat="19.120580" lon="72.907450"></trkpt>
<trkpt lat="19.120590" lon="72.907450"></trkpt>
<trkpt lat="19.120700" lon="72.907400"></trkpt>
<trkpt lat="19.120860" lon="72.907320"></trkpt>
<trkpt lat="19.120770" lon="72.907130"></trkpt>
<trkpt lat="19.120690" lon="72.906930"></trkpt>
<trkpt lat="19.120670" lon="72.906880"></trkpt>
<trkpt lat="19.120670" lon="72.906860"></trkpt>
<trkpt lat="19.120660" lon="72.906840"></trkpt>
<trkpt lat="19.120660" lon="72.906820"></trkpt>
<trkpt lat="19.120670" lon="72.906810"></trkpt>
<trkpt lat="19.120680" lon="72.906790"></trkpt>
<trkpt lat="19.120710" lon="72.906770"></trkpt>
<trkpt lat="19.120760" lon="72.906860"></trkpt>
<trkpt lat="19.120890" lon="72.907070"></trkpt>
<trkpt lat="19.121060" lon="72.907350"></trkpt>
<trkpt lat="19.121180" lon="72.907520"></trkpt>
<trkpt lat="19.121190" lon="72.907540"></trkpt>
<trkpt lat="19.121250" lon="72.907630"></trkpt>
<trkpt lat="19.121290" lon="72.907690"></trkpt>
<trkpt lat="19.121350" lon="72.907760"></trkpt>
<trkpt lat="19.121380" lon="72.907790"></trkpt>
<trkpt lat="19.121440" lon="72.907830"></trkpt>
<trkpt lat="19.121460" lon="72.907840"></trkpt>
<trkpt lat="19.121560" lon="72.907890"></trkpt>
<trkpt lat="19.121750" lon="72.907960"></trkpt>
<trkpt lat="19.121800" lon="72.907980"></trkpt>
<trkpt lat="19.121870" lon="72.908000"></trkpt>
<trkpt lat="19.121960" lon="72.908030"></trkpt>
<trkpt lat="19.122080" lon="72.908060"></trkpt>
<trkpt lat="19.122110" lon="72.908060"></trkpt>
<trkpt lat="19.122150" lon="72.908070"></trkpt>
<trkpt lat="19.122250" lon="72.908090"></trkpt>
<trkpt lat="19.122320" lon="72.908090"></trkpt>
<trkpt lat="19.122420" lon="72.908100"></trkpt>
<trkpt lat="19.122720" lon="72.908120"></trkpt>
<trkpt lat="19.122740" lon="72.908070"></trkpt>
<trkpt lat="19.122750" lon="72.908030"></trkpt>
<trkpt lat="19.122790" lon="72.907960"></trkpt>
<trkpt lat="19.122800" lon="72.907920"></trkpt>
<trkpt lat="19.122800" lon="72.907880"></trkpt>
<trkpt lat="19.122790" lon="72.907720"></trkpt>
<trkpt lat="19.122790" lon="72.907640"></trkpt>
<trkpt lat="19.122780" lon="72.907570"></trkpt>
<trkpt lat="19.122780" lon="72.907530"></trkpt>
<trkpt lat="19.122780" lon="72.907500"></trkpt>
<trkpt lat="19.122760" lon="72.907410"></trkpt>
<trkpt lat="19.122760" lon="72.907360"></trkpt>
<trkpt lat="19.122750" lon="72.907290"></trkpt>
<trkpt lat="19.122750" lon="72.907240"></trkpt>
<trkpt lat="19.122770" lon="72.907200"></trkpt>
<trkpt lat="19.122790" lon="72.907180"></trkpt>
<trkpt lat="19.122810" lon="72.907160"></trkpt>
<trkpt lat="19.122830" lon="72.907150"></trkpt>
<trkpt lat="19.122860" lon="72.907130"></trkpt>
<trkpt lat="19.122910" lon="72.907120"></trkpt>
<trkpt lat="19.122860" lon="72.907130"></trkpt>
<trkpt lat="19.122830" lon="72.907150"></trkpt>
<trkpt lat="19.122810" lon="72.907160"></trkpt>
<trkpt lat="19.122790" lon="72.907180"></trkpt>
<trkpt lat="19.122770" lon="72.907200"></trkpt>
<trkpt lat="19.122750" lon="72.907240"></trkpt>
<trkpt lat="19.122750" lon="72.907290"></trkpt>
<trkpt lat="19.122760" lon="72.907360"></trkpt>
<trkpt lat="19.122760" lon="72.907410"></trkpt>
<trkpt lat="19.122780" lon="72.907500"></trkpt>
<trkpt lat="19.122780" lon="72.907530"></trkpt>
<trkpt lat="19.122780" lon="72.907570"></trkpt>
<trkpt lat="19.122790" lon="72.907640"></trkpt>
<trkpt lat="19.122790" lon="72.907720"></trkpt>
<trkpt lat="19.122800" lon="72.907880"></trkpt>
<trkpt lat="19.122800" lon="72.907920"></trkpt>
<trkpt lat="19.122790" lon="72.907960"></trkpt>
<trkpt lat="19.122750" lon="72.908030"></trkpt>
<trkpt lat="19.122740" lon="72.908070"></trkpt>
<trkpt lat="19.122720" lon="72.908110"></trkpt>
<trkpt lat="19.122710" lon="72.908170"></trkpt>
<trkpt lat="19.122700" lon="72.908260"></trkpt>
<trkpt lat="19.122470" lon="72.908210"></trkpt>
<trkpt lat="19.122150" lon="72.908170"></trkpt>
<trkpt lat="19.121850" lon="72.908100"></trkpt>
<trkpt lat="19.121750" lon="72.908070"></trkpt>
<trkpt lat="19.121690" lon="72.908050"></trkpt>
<trkpt lat="19.121620" lon="72.908030"></trkpt>
<trkpt lat="19.121500" lon="72.907980"></trkpt>
<trkpt lat="19.121380" lon="72.907910"></trkpt>
<trkpt lat="19.121300" lon="72.907860"></trkpt>
<trkpt lat="19.121250" lon="72.907810"></trkpt>
<trkpt lat="19.121140" lon="72.907710"></trkpt>
<trkpt lat="19.121020" lon="72.907560"></trkpt>
<trkpt lat="19.120900" lon="72.907370"></trkpt>
<trkpt lat="19.120810" lon="72.907240"></trkpt>
<trkpt lat="19.120700" lon="72.907040"></trkpt>
<trkpt lat="19.120610" lon="72.906850"></trkpt>
<trkpt lat="19.120420" lon="72.906520"></trkpt>
<trkpt lat="19.120280" lon="72.906230"></trkpt>
<trkpt lat="19.120110" lon="72.905860"></trkpt>
<trkpt lat="19.119920" lon="72.905370"></trkpt>
<trkpt lat="19.119860" lon="72.905130"></trkpt>
<trkpt lat="19.119840" lon="72.905070"></trkpt>
<trkpt lat="19.119760" lon="72.904780"></trkpt>
<trkpt lat="19.119640" lon="72.904360"></trkpt>
<trkpt lat="19.119560" lon="72.904020"></trkpt>
<trkpt lat="19.119490" lon="72.903710"></trkpt>
<trkpt lat="19.119480" lon="72.903480"></trkpt>
<trkpt lat="19.119500" lon="72.903270"></trkpt>
<trkpt lat="19.119520" lon="72.903140"></trkpt>
<trkpt lat="19.119540" lon="72.903030"></trkpt>
<trkpt lat="19.119650" lon="72.902680"></trkpt>
<trkpt lat="19.119670" lon="72.902480"></trkpt>
<trkpt lat="19.119690" lon="72.902470"></trkpt>
<trkpt lat="19.119710" lon="72.902450"></trkpt>
<trkpt lat="19.119730" lon="72.902410"></trkpt>
<trkpt lat="19.119750" lon="72.902370"></trkpt>
<trkpt lat="19.119770" lon="72.902320"></trkpt>
<trkpt lat="19.119790" lon="72.902270"></trkpt>
<trkpt lat="19.119800" lon="72.902190"></trkpt>
<trkpt lat="19.120060" lon="72.901120"></trkpt>
<trkpt lat="19.120080" lon="72.901020"></trkpt>
<trkpt lat="19.120100" lon="72.900950"></trkpt>
<trkpt lat="19.120130" lon="72.900820"></trkpt>
<trkpt lat="19.120160" lon="72.900700"></trkpt>
<trkpt lat="19.120180" lon="72.900570"></trkpt>
<trkpt lat="19.120230" lon="72.900350"></trkpt>
<trkpt lat="19.120260" lon="72.900240"></trkpt>
<trkpt lat="19.120290" lon="72.900120"></trkpt>
<trkpt lat="19.120330" lon="72.900030"></trkpt>
<trkpt lat="19.120360" lon="72.899960"></trkpt>
<trkpt lat="19.120410" lon="72.899880"></trkpt>
<trkpt lat="19.120460" lon="72.899790"></trkpt>
<trkpt lat="19.120510" lon="72.899720"></trkpt>
<trkpt lat="19.120570" lon="72.899660"></trkpt>
<trkpt lat="19.120630" lon="72.899600"></trkpt>
<trkpt lat="19.120660" lon="72.899570"></trkpt>
<trkpt lat="19.120690" lon="72.899540"></trkpt>
<trkpt lat="19.120750" lon="72.899500"></trkpt>
<trkpt lat="19.120820" lon="72.899450"></trkpt>
<trkpt lat="19.120910" lon="72.899400"></trkpt>
<trkpt lat="19.121280" lon="72.899240"></trkpt>
<trkpt lat="19.121400" lon="72.899190"></trkpt>
<trkpt lat="19.121540" lon="72.899130"></trkpt>
<trkpt lat="19.121580" lon="72.899120"></trkpt>
<trkpt lat="19.121650" lon="72.899080"></trkpt>
<trkpt lat="19.121680" lon="72.899060"></trkpt>
<trkpt lat="19.121700" lon="72.899030"></trkpt>
<trkpt lat="19.121720" lon="72.898990"></trkpt>
<trkpt lat="19.122840" lon="72.898560"></trkpt>
<trkpt lat="19.122950" lon="72.898500"></trkpt>
<trkpt lat="19.122990" lon="72.898470"></trkpt>
<trkpt lat="19.123030" lon="72.898450"></trkpt>
<trkpt lat="19.123120" lon="72.898380"></trkpt>
<trkpt lat="19.123170" lon="72.898340"></trkpt>
<trkpt lat="19.123300" lon="72.898260"></trkpt>
<trkpt lat="19.123400" lon="72.898180"></trkpt>
<trkpt lat="19.123490" lon="72.898110"></trkpt>
<trkpt lat="19.123610" lon="72.898000"></trkpt>
<trkpt lat="19.123740" lon="72.897880"></trkpt>
<trkpt lat="19.123850" lon="72.897750"></trkpt>
<trkpt lat="19.123890" lon="72.897700"></trkpt>
<trkpt lat="19.123990" lon="72.897580"></trkpt>
<trkpt lat="19.124300" lon="72.897000"></trkpt>
<trkpt lat="19.124320" lon="72.897000"></trkpt>
<trkpt lat="19.124370" lon="72.896970"></trkpt>
<trkpt lat="19.124400" lon="72.896950"></trkpt>
<trkpt lat="19.124420" lon="72.896930"></trkpt>
<trkpt lat="19.124420" lon="72.896920"></trkpt>
<trkpt lat="19.124470" lon="72.896850"></trkpt>
<trkpt lat="19.124490" lon="72.896810"></trkpt>
<trkpt lat="19.124560" lon="72.896630"></trkpt>
<trkpt lat="19.124620" lon="72.896480"></trkpt>
<trkpt lat="19.124650" lon="72.896400"></trkpt>
<trkpt lat="19.124720" lon="72.896220"></trkpt>
<trkpt lat="19.124780" lon="72.896040"></trkpt>
<trkpt lat="19.124820" lon="72.895850"></trkpt>
<trkpt lat="19.124830" lon="72.895810"></trkpt>
<trkpt lat="19.124830" lon="72.895800"></trkpt>
<trkpt lat="19.124860" lon="72.895670"></trkpt>
<trkpt lat="19.124900" lon="72.895530"></trkpt>
<trkpt lat="19.124940" lon="72.895440"></trkpt>
<trkpt lat="19.124970" lon="72.895390"></trkpt>
<trkpt lat="19.125020" lon="72.895340"></trkpt>
<trkpt lat="19.125120" lon="72.895250"></trkpt>
<trkpt lat="19.125280" lon="72.895140"></trkpt>
<trkpt lat="19.125430" lon="72.895030"></trkpt>
<trkpt lat="19.125570" lon="72.894890"></trkpt>
<trkpt lat="19.125590" lon="72.894870"></trkpt>
<trkpt lat="19.125690" lon="72.894730"></trkpt>
<trkpt lat="19.126000" lon="72.894250"></trkpt>
<trkpt lat="19.126080" lon="72.894120"></trkpt>
<trkpt lat="19.126230" lon="72.893860"></trkpt>
<trkpt lat="19.126500" lon="72.894100"></trkpt>
<trkpt lat="19.126780" lon="72.894340"></trkpt>
<trkpt lat="19.127470" lon="72.894960"></trkpt>
<trkpt lat="19.127530" lon="72.895010"></trkpt>
<trkpt lat="19.128170" lon="72.895560"></trkpt>
<trkpt lat="19.128550" lon="72.895840"></trkpt>
<trkpt lat="19.128890" lon="72.896080"></trkpt>
<trkpt lat="19.129080" lon="72.896200"></trkpt>
<trkpt lat="19.129340" lon="72.896400"></trkpt>
<trkpt lat="19.129660" lon="72.896600"></trkpt>
<trkpt lat="19.130000" lon="72.896810"></trkpt>
<trkpt lat="19.130500" lon="72.897090"></trkpt>
<trkpt lat="19.130780" lon="72.897210"></trkpt>
<trkpt lat="19.130820" lon="72.897220"></trkpt>
<trkpt lat="19.130890" lon="72.897230"></trkpt>
<trkpt lat="19.130920" lon="72.897230"></trkpt>
<trkpt lat="19.131030" lon="72.897270"></trkpt>
<trkpt lat="19.131050" lon="72.897340"></trkpt>
<trkpt lat="19.131070" lon="72.897400"></trkpt>
<trkpt lat="19.131100" lon="72.897440"></trkpt>
<trkpt lat="19.131150" lon="72.897480"></trkpt>
<trkpt lat="19.131230" lon="72.897540"></trkpt>
<trkpt lat="19.131240" lon="72.897540"></trkpt>
<trkpt lat="19.131280" lon="72.897570"></trkpt>
<trkpt lat="19.131380" lon="72.897630"></trkpt>
<trkpt lat="19.131600" lon="72.897760"></trkpt>
<trkpt lat="19.131680" lon="72.897820"></trkpt>
<trkpt lat="19.131690" lon="72.897830"></trkpt>
<trkpt lat="19.131730" lon="72.897870"></trkpt>
<trkpt lat="19.131800" lon="72.897940"></trkpt>
<trkpt lat="19.131800" lon="72.897960"></trkpt>
<trkpt lat="19.131810" lon="72.897960"></trkpt>
<trkpt lat="19.131880" lon="72.898140"></trkpt>
<trkpt lat="19.131960" lon="72.898300"></trkpt>
<trkpt lat="19.131970" lon="72.898340"></trkpt>
<trkpt lat="19.132050" lon="72.898520"></trkpt>
<trkpt lat="19.132120" lon="72.898610"></trkpt>
<trkpt lat="19.132160" lon="72.898650"></trkpt>
<trkpt lat="19.132280" lon="72.898730"></trkpt>
<trkpt lat="19.132490" lon="72.898820"></trkpt>
<trkpt lat="19.132550" lon="72.898840"></trkpt>
<trkpt lat="19.132650" lon="72.898900"></trkpt>
<trkpt lat="19.132680" lon="72.898920"></trkpt>
<trkpt lat="19.132830" lon="72.899030"></trkpt>
<trkpt lat="19.132910" lon="72.899090"></trkpt>
<trkpt lat="19.132970" lon="72.899130"></trkpt>
<trkpt lat="19.133010" lon="72.899170"></trkpt>
<trkpt lat="19.133050" lon="72.899210"></trkpt>
<trkpt lat="19.133110" lon="72.899270"></trkpt>
<trkpt lat="19.133130" lon="72.899320"></trkpt>
<trkpt lat="19.133140" lon="72.899350"></trkpt>
<trkpt lat="19.133150" lon="72.899380"></trkpt>
<trkpt lat="19.133080" lon="72.899400"></trkpt>
<trkpt lat="19.133050" lon="72.899430"></trkpt>
<trkpt lat="19.133040" lon="72.899490"></trkpt>
<trkpt lat="19.133030" lon="72.899530"></trkpt>
<trkpt lat="19.133030" lon="72.899570"></trkpt>
<trkpt lat="19.133030" lon="72.899600"></trkpt>
<trkpt lat="19.133030" lon="72.899630"></trkpt>
<trkpt lat="19.133030" lon="72.899690"></trkpt>
<trkpt lat="19.133030" lon="72.899750"></trkpt>
<trkpt lat="19.133030" lon="72.899810"></trkpt>
<trkpt lat="19.133040" lon="72.899870"></trkpt>
<trkpt lat="19.133040" lon="72.899930"></trkpt>
<trkpt lat="19.133050" lon="72.900280"></trkpt>
<trkpt lat="19.132920" lon="72.900280"></trkpt>
<trkpt lat="19.132880" lon="72.900280"></trkpt>
<trkpt lat="19.132860" lon="72.900280"></trkpt>
<trkpt lat="19.132850" lon="72.900290"></trkpt>
<trkpt lat="19.132830" lon="72.900300"></trkpt>
<trkpt lat="19.132820" lon="72.900300"></trkpt>
<trkpt lat="19.132800" lon="72.900320"></trkpt>
<trkpt lat="19.132390" lon="72.900830"></trkpt>
<trkpt lat="19.132380" lon="72.900860"></trkpt>
<trkpt lat="19.132380" lon="72.900900"></trkpt>
<trkpt lat="19.132380" lon="72.900920"></trkpt>
<trkpt lat="19.132390" lon="72.900960"></trkpt>
<trkpt lat="19.132380" lon="72.900920"></trkpt>
<trkpt lat="19.132380" lon="72.900900"></trkpt>
<trkpt lat="19.132380" lon="72.900860"></trkpt>
<trkpt lat="19.132390" lon="72.900830"></trkpt>
<trkpt lat="19.132800" lon="72.900320"></trkpt>
<trkpt lat="19.132820" lon="72.900300"></trkpt>
<trkpt lat="19.132830" lon="72.900300"></trkpt>
<trkpt lat="19.132850" lon="72.900290"></trkpt>
<trkpt lat="19.132860" lon="72.900280"></trkpt>
<trkpt lat="19.132880" lon="72.900280"></trkpt>
<trkpt lat="19.132920" lon="72.900280"></trkpt>
<trkpt lat="19.133050" lon="72.900280"></trkpt>
<trkpt lat="19.133040" lon="72.899930"></trkpt>
<trkpt lat="19.133040" lon="72.899870"></trkpt>
<trkpt lat="19.133030" lon="72.899810"></trkpt>
<trkpt lat="19.133030" lon="72.899750"></trkpt>
<trkpt lat="19.133030" lon="72.899690"></trkpt>
<trkpt lat="19.133030" lon="72.899630"></trkpt>
<trkpt lat="19.133030" lon="72.899600"></trkpt>
<trkpt lat="19.133030" lon="72.899570"></trkpt>
<trkpt lat="19.133030" lon="72.899530"></trkpt>
<trkpt lat="19.133040" lon="72.899490"></trkpt>
<trkpt lat="19.133050" lon="72.899430"></trkpt>
<trkpt lat="19.133080" lon="72.899400"></trkpt>
<trkpt lat="19.133150" lon="72.899380"></trkpt>
<trkpt lat="19.133140" lon="72.899350"></trkpt>
<trkpt lat="19.133120" lon="72.899300"></trkpt>
<trkpt lat="19.133100" lon="72.899260"></trkpt>
<trkpt lat="19.133050" lon="72.899210"></trkpt>
<trkpt lat="19.133010" lon="72.899170"></trkpt>
<trkpt lat="19.132970" lon="72.899130"></trkpt>
<trkpt lat="19.132910" lon="72.899090"></trkpt>
<trkpt lat="19.132830" lon="72.899030"></trkpt>
<trkpt lat="19.132680" lon="72.898920"></trkpt>
<trkpt lat="19.132650" lon="72.898900"></trkpt>
<trkpt lat="19.132550" lon="72.898840"></trkpt>
<trkpt lat="19.132490" lon="72.898820"></trkpt>
<trkpt lat="19.132510" lon="72.898740"></trkpt>
<trkpt lat="19.132310" lon="72.898660"></trkpt>
<trkpt lat="19.132210" lon="72.898590"></trkpt>
<trkpt lat="19.132120" lon="72.898490"></trkpt>
<trkpt lat="19.132040" lon="72.898310"></trkpt>
<trkpt lat="19.132020" lon="72.898270"></trkpt>
<trkpt lat="19.132020" lon="72.898260"></trkpt>
<trkpt lat="19.131940" lon="72.898110"></trkpt>
<trkpt lat="19.131870" lon="72.897930"></trkpt>
<trkpt lat="19.131870" lon="72.897920"></trkpt>
<trkpt lat="19.131850" lon="72.897900"></trkpt>
<trkpt lat="19.131780" lon="72.897810"></trkpt>
<trkpt lat="19.131740" lon="72.897770"></trkpt>
<trkpt lat="19.131720" lon="72.897760"></trkpt>
<trkpt lat="19.131630" lon="72.897690"></trkpt>
<trkpt lat="19.131420" lon="72.897560"></trkpt>
<trkpt lat="19.131320" lon="72.897500"></trkpt>
<trkpt lat="19.131270" lon="72.897480"></trkpt>
<trkpt lat="19.131270" lon="72.897470"></trkpt>
<trkpt lat="19.131190" lon="72.897420"></trkpt>
<trkpt lat="19.131160" lon="72.897390"></trkpt>
<trkpt lat="19.131130" lon="72.897360"></trkpt>
<trkpt lat="19.131120" lon="72.897320"></trkpt>
<trkpt lat="19.131110" lon="72.897290"></trkpt>
<trkpt lat="19.131310" lon="72.897330"></trkpt>
<trkpt lat="19.131580" lon="72.897360"></trkpt>
<trkpt lat="19.131790" lon="72.897360"></trkpt>
<trkpt lat="19.131970" lon="72.897360"></trkpt>
<trkpt lat="19.132480" lon="72.897250"></trkpt>
<trkpt lat="19.132740" lon="72.897220"></trkpt>
<trkpt lat="19.132820" lon="72.897200"></trkpt>
<trkpt lat="19.132980" lon="72.897160"></trkpt>
<trkpt lat="19.133050" lon="72.897130"></trkpt>
<trkpt lat="19.133140" lon="72.897080"></trkpt>
<trkpt lat="19.133210" lon="72.897040"></trkpt>
<trkpt lat="19.133500" lon="72.897280"></trkpt>
<trkpt lat="19.134120" lon="72.897960"></trkpt>
<trkpt lat="19.134210" lon="72.898140"></trkpt>
<trkpt lat="19.134240" lon="72.898210"></trkpt>
<trkpt lat="19.134270" lon="72.898300"></trkpt>
<trkpt lat="19.134290" lon="72.898380"></trkpt>
<trkpt lat="19.134290" lon="72.898400"></trkpt>
<trkpt lat="19.134310" lon="72.898480"></trkpt>
<trkpt lat="19.134340" lon="72.898630"></trkpt>
<trkpt lat="19.134370" lon="72.898770"></trkpt>
<trkpt lat="19.134380" lon="72.898830"></trkpt>
<trkpt lat="19.134410" lon="72.898900"></trkpt>
<trkpt lat="19.134430" lon="72.898970"></trkpt>
<trkpt lat="19.134450" lon="72.899040"></trkpt>
<trkpt lat="19.134490" lon="72.899120"></trkpt>
<trkpt lat="19.134590" lon="72.899310"></trkpt>
<trkpt lat="19.134680" lon="72.899460"></trkpt>
<trkpt lat="19.134760" lon="72.899600"></trkpt>
<trkpt lat="19.134810" lon="72.899690"></trkpt>
<trkpt lat="19.134850" lon="72.899760"></trkpt>
<trkpt lat="19.134890" lon="72.899800"></trkpt>
<trkpt lat="19.134960" lon="72.899900"></trkpt>
<trkpt lat="19.135110" lon="72.900080"></trkpt>
<trkpt lat="19.135240" lon="72.900240"></trkpt>
<trkpt lat="19.135430" lon="72.900460"></trkpt>
<trkpt lat="19.135690" lon="72.900750"></trkpt>
<trkpt lat="19.135770" lon="72.900830"></trkpt>
<trkpt lat="19.135820" lon="72.900890"></trkpt>
<trkpt lat="19.135930" lon="72.901010"></trkpt>
<trkpt lat="19.136060" lon="72.901140"></trkpt>
<trkpt lat="19.136160" lon="72.901230"></trkpt>
<trkpt lat="19.136260" lon="72.901310"></trkpt>
<trkpt lat="19.136400" lon="72.901580"></trkpt>
<trkpt lat="19.136470" lon="72.901720"></trkpt>
<trkpt lat="19.136520" lon="72.901800"></trkpt>
<trkpt lat="19.136550" lon="72.901860"></trkpt>
<trkpt lat="19.136650" lon="72.902030"></trkpt>
<trkpt lat="19.136750" lon="72.902170"></trkpt>
<trkpt lat="19.136840" lon="72.902310"></trkpt>
<trkpt lat="19.136900" lon="72.902400"></trkpt>
<trkpt lat="19.136960" lon="72.902500"></trkpt>
<trkpt lat="19.137060" lon="72.902630"></trkpt>
<trkpt lat="19.137110" lon="72.902700"></trkpt>
<trkpt lat="19.137160" lon="72.902760"></trkpt>
<trkpt lat="19.137210" lon="72.902820"></trkpt>
<trkpt lat="19.137270" lon="72.902870"></trkpt>
<trkpt lat="19.137330" lon="72.902900"></trkpt>
<trkpt lat="19.137400" lon="72.902940"></trkpt>
<trkpt lat="19.137460" lon="72.902970"></trkpt>
<trkpt lat="19.137510" lon="72.902980"></trkpt>
<trkpt lat="19.137580" lon="72.903000"></trkpt>
<trkpt lat="19.137570" lon="72.903020"></trkpt>
<trkpt lat="19.137500" lon="72.903000"></trkpt>
<trkpt lat="19.137480" lon="72.903080"></trkpt>
<trkpt lat="19.137150" lon="72.902990"></trkpt>
<trkpt lat="19.137120" lon="72.902990"></trkpt>
<trkpt lat="19.137100" lon="72.903000"></trkpt>
<trkpt lat="19.137070" lon="72.903010"></trkpt>
<trkpt lat="19.137040" lon="72.903010"></trkpt>
<trkpt lat="19.136990" lon="72.903030"></trkpt>
<trkpt lat="19.136920" lon="72.903050"></trkpt>
<trkpt lat="19.136850" lon="72.903040"></trkpt>
<trkpt lat="19.136780" lon="72.903030"></trkpt>
<trkpt lat="19.136740" lon="72.903020"></trkpt>
<trkpt lat="19.136670" lon="72.903310"></trkpt>
<trkpt lat="19.136880" lon="72.903260"></trkpt>
<trkpt lat="19.136900" lon="72.903340"></trkpt>
<trkpt lat="19.137290" lon="72.904060"></trkpt>
<trkpt lat="19.137350" lon="72.904110"></trkpt>
<trkpt lat="19.137450" lon="72.904380"></trkpt>
<trkpt lat="19.137540" lon="72.904590"></trkpt>
<trkpt lat="19.137740" lon="72.905080"></trkpt>
<trkpt lat="19.137840" lon="72.905340"></trkpt>
<trkpt lat="19.137830" lon="72.905420"></trkpt>
<trkpt lat="19.137520" lon="72.905600"></trkpt>
<trkpt lat="19.137360" lon="72.905700"></trkpt>
<trkpt lat="19.137230" lon="72.905800"></trkpt>
<trkpt lat="19.137180" lon="72.905840"></trkpt>
<trkpt lat="19.137130" lon="72.905870"></trkpt>
<trkpt lat="19.137090" lon="72.905900"></trkpt>
<trkpt lat="19.137070" lon="72.905900"></trkpt>
<trkpt lat="19.137050" lon="72.905910"></trkpt>
<trkpt lat="19.137030" lon="72.905920"></trkpt>
<trkpt lat="19.137000" lon="72.905940"></trkpt>
<trkpt lat="19.136860" lon="72.905990"></trkpt>
<trkpt lat="19.136810" lon="72.906010"></trkpt>
<trkpt lat="19.136590" lon="72.906090"></trkpt>
<trkpt lat="19.136540" lon="72.906110"></trkpt>
<trkpt lat="19.136410" lon="72.906150"></trkpt>
<trkpt lat="19.136300" lon="72.906180"></trkpt>
<trkpt lat="19.136240" lon="72.906190"></trkpt>
<trkpt lat="19.136210" lon="72.906200"></trkpt>
<trkpt lat="19.135990" lon="72.906250"></trkpt>
<trkpt lat="19.135910" lon="72.906270"></trkpt>
<trkpt lat="19.135870" lon="72.906270"></trkpt>
<trkpt lat="19.135830" lon="72.906280"></trkpt>
<trkpt lat="19.135800" lon="72.906280"></trkpt>
<trkpt lat="19.135760" lon="72.906270"></trkpt>
<trkpt lat="19.135660" lon="72.906240"></trkpt>
<trkpt lat="19.135620" lon="72.906230"></trkpt>
<trkpt lat="19.135610" lon="72.906230"></trkpt>
<trkpt lat="19.135470" lon="72.906180"></trkpt>
<trkpt lat="19.135450" lon="72.906270"></trkpt>
<trkpt lat="19.135420" lon="72.906360"></trkpt>
<trkpt lat="19.135340" lon="72.906750"></trkpt>
<trkpt lat="19.135290" lon="72.907060"></trkpt>
<trkpt lat="19.135270" lon="72.907140"></trkpt>
<trkpt lat="19.135190" lon="72.907550"></trkpt>
<trkpt lat="19.135120" lon="72.907810"></trkpt>
<trkpt lat="19.135030" lon="72.908150"></trkpt>
<trkpt lat="19.135010" lon="72.908230"></trkpt>
<trkpt lat="19.134980" lon="72.908310"></trkpt>
<trkpt lat="19.134940" lon="72.908410"></trkpt>
<trkpt lat="19.134920" lon="72.908480"></trkpt>
<trkpt lat="19.134810" lon="72.908820"></trkpt>
<trkpt lat="19.134760" lon="72.908960"></trkpt>
<trkpt lat="19.134730" lon="72.909030"></trkpt>
<trkpt lat="19.134620" lon="72.909350"></trkpt>
<trkpt lat="19.134350" lon="72.910040"></trkpt>
<trkpt lat="19.134320" lon="72.910110"></trkpt>
<trkpt lat="19.134250" lon="72.910310"></trkpt>
<trkpt lat="19.134120" lon="72.910740"></trkpt>
<trkpt lat="19.133930" lon="72.911250"></trkpt>
<trkpt lat="19.133710" lon="72.911820"></trkpt>
<trkpt lat="19.133680" lon="72.911900"></trkpt>
<trkpt lat="19.133610" lon="72.912100"></trkpt>
<trkpt lat="19.133600" lon="72.912140"></trkpt>
<trkpt lat="19.133570" lon="72.912210"></trkpt>
<trkpt lat="19.133420" lon="72.912660"></trkpt>
<trkpt lat="19.133230" lon="72.913240"></trkpt>
<trkpt lat="19.133140" lon="72.913510"></trkpt>
<trkpt lat="19.133040" lon="72.913800"></trkpt>
<trkpt lat="19.133020" lon="72.913870"></trkpt>
<trkpt lat="19.132960" lon="72.914030"></trkpt>
<trkpt lat="19.132890" lon="72.914220"></trkpt>
<trkpt lat="19.132850" lon="72.914340"></trkpt>
<trkpt lat="19.132830" lon="72.914380"></trkpt>
<trkpt lat="19.132770" lon="72.914470"></trkpt>
<trkpt lat="19.132690" lon="72.914600"></trkpt>
<trkpt lat="19.132640" lon="72.914660"></trkpt>
<trkpt lat="19.132590" lon="72.914620"></trkpt>
<trkpt lat="19.132450" lon="72.914490"></trkpt>
<trkpt lat="19.132390" lon="72.914380"></trkpt>
<trkpt lat="19.132330" lon="72.914300"></trkpt>
<trkpt lat="19.132030" lon="72.913990"></trkpt>
<trkpt lat="19.131980" lon="72.913950"></trkpt>
<trkpt lat="19.131910" lon="72.913930"></trkpt>
<trkpt lat="19.131850" lon="72.913930"></trkpt>
<trkpt lat="19.131820" lon="72.913930"></trkpt>
<trkpt lat="19.131780" lon="72.913950"></trkpt>
<trkpt lat="19.131700" lon="72.913860"></trkpt>
<trkpt lat="19.131610" lon="72.913910"></trkpt>
<trkpt lat="19.131560" lon="72.913940"></trkpt>
<trkpt lat="19.131530" lon="72.913950"></trkpt>
<trkpt lat="19.131510" lon="72.913960"></trkpt>
<trkpt lat="19.131490" lon="72.913970"></trkpt>
<trkpt lat="19.131470" lon="72.913960"></trkpt>
<trkpt lat="19.131450" lon="72.913960"></trkpt>
<trkpt lat="19.131430" lon="72.913950"></trkpt>
<trkpt lat="19.131410" lon="72.913930"></trkpt>
<trkpt lat="19.131400" lon="72.913920"></trkpt>
<trkpt lat="19.131380" lon="72.913890"></trkpt>
<trkpt lat="19.131370" lon="72.913870"></trkpt>
<trkpt lat="19.131350" lon="72.913840"></trkpt>
<trkpt lat="19.131350" lon="72.913800"></trkpt>
<trkpt lat="19.131340" lon="72.913760"></trkpt>
<trkpt lat="19.131340" lon="72.913700"></trkpt>
<trkpt lat="19.131350" lon="72.913650"></trkpt>
<trkpt lat="19.131360" lon="72.913610"></trkpt>
<trkpt lat="19.131080" lon="72.913490"></trkpt>
<trkpt lat="19.131010" lon="72.913450"></trkpt>
<trkpt lat="19.130990" lon="72.913480"></trkpt>
<trkpt lat="19.130970" lon="72.913490"></trkpt>
<trkpt lat="19.130930" lon="72.913520"></trkpt>
<trkpt lat="19.130890" lon="72.913540"></trkpt>
<trkpt lat="19.130530" lon="72.913600"></trkpt>
<trkpt lat="19.130180" lon="72.913660"></trkpt>
<trkpt lat="19.130160" lon="72.913660"></trkpt>
<trkpt lat="19.130140" lon="72.913660"></trkpt>
<trkpt lat="19.130000" lon="72.913680"></trkpt>
<trkpt lat="19.129820" lon="72.913710"></trkpt>
<trkpt lat="19.129650" lon="72.913730"></trkpt>
<trkpt lat="19.129650" lon="72.913740"></trkpt>
<trkpt lat="19.129630" lon="72.913740"></trkpt>
<trkpt lat="19.129450" lon="72.913730"></trkpt>
<trkpt lat="19.129290" lon="72.913720"></trkpt>
<trkpt lat="19.129280" lon="72.913720"></trkpt>
<trkpt lat="19.129100" lon="72.913700"></trkpt>
<trkpt lat="19.128850" lon="72.913680"></trkpt>
<trkpt lat="19.128740" lon="72.913680"></trkpt>
<trkpt lat="19.128680" lon="72.913680"></trkpt>
<trkpt lat="19.128620" lon="72.913680"></trkpt>
<trkpt lat="19.128580" lon="72.913690"></trkpt>
<trkpt lat="19.128550" lon="72.913690"></trkpt>
<trkpt lat="19.128520" lon="72.913690"></trkpt>
<trkpt lat="19.128500" lon="72.913700"></trkpt>
<trkpt lat="19.128480" lon="72.913710"></trkpt>
<trkpt lat="19.128450" lon="72.913720"></trkpt>
<trkpt lat="19.128390" lon="72.913750"></trkpt>
<trkpt lat="19.128340" lon="72.913780"></trkpt>
<trkpt lat="19.128110" lon="72.913950"></trkpt>
<trkpt lat="19.128030" lon="72.914000"></trkpt>
<trkpt lat="19.127900" lon="72.914090"></trkpt>
<trkpt lat="19.127870" lon="72.914100"></trkpt>
<trkpt lat="19.127860" lon="72.914100"></trkpt>
<trkpt lat="19.127850" lon="72.914100"></trkpt>
<trkpt lat="19.127840" lon="72.914100"></trkpt>
<trkpt lat="19.127820" lon="72.914100"></trkpt>
<trkpt lat="19.127800" lon="72.914090"></trkpt>
<trkpt lat="19.127430" lon="72.914010"></trkpt>
<trkpt lat="19.126090" lon="72.913780"></trkpt>
<trkpt lat="19.126000" lon="72.913770"></trkpt>
<trkpt lat="19.125890" lon="72.913740"></trkpt>
<trkpt lat="19.125800" lon="72.913720"></trkpt>
<trkpt lat="19.125690" lon="72.913660"></trkpt>
<trkpt lat="19.125550" lon="72.913560"></trkpt>
<trkpt lat="19.125310" lon="72.913400"></trkpt>
<trkpt lat="19.125270" lon="72.913330"></trkpt>
<trkpt lat="19.125250" lon="72.913260"></trkpt>
<trkpt lat="19.125230" lon="72.913200"></trkpt>
<trkpt lat="19.125190" lon="72.912980"></trkpt>
<trkpt lat="19.125150" lon="72.912760"></trkpt>
<trkpt lat="19.125140" lon="72.912690"></trkpt>
<trkpt lat="19.125130" lon="72.912580"></trkpt>
<trkpt lat="19.125120" lon="72.912490"></trkpt>
<trkpt lat="19.125110" lon="72.912310"></trkpt>
<trkpt lat="19.125100" lon="72.912290"></trkpt>
<trkpt lat="19.125100" lon="72.912260"></trkpt>
<trkpt lat="19.125100" lon="72.912020"></trkpt>
<trkpt lat="19.125080" lon="72.911850"></trkpt>
<trkpt lat="19.125060" lon="72.911760"></trkpt>
<trkpt lat="19.125030" lon="72.911680"></trkpt>
<trkpt lat="19.124970" lon="72.911590"></trkpt>
<trkpt lat="19.124870" lon="72.911410"></trkpt>
<trkpt lat="19.124840" lon="72.911360"></trkpt>
<trkpt lat="19.124810" lon="72.911290"></trkpt>
<trkpt lat="19.124790" lon="72.911170"></trkpt>
<trkpt lat="19.124750" lon="72.910920"></trkpt>
<trkpt lat="19.124740" lon="72.910820"></trkpt>
<trkpt lat="19.124720" lon="72.910690"></trkpt>
<trkpt lat="19.124690" lon="72.910530"></trkpt>
<trkpt lat="19.124670" lon="72.910370"></trkpt>
<trkpt lat="19.124670" lon="72.910260"></trkpt>
<trkpt lat="19.124660" lon="72.910120"></trkpt>
<trkpt lat="19.124740" lon="72.909690"></trkpt>
<trkpt lat="19.124770" lon="72.909550"></trkpt>
<trkpt lat="19.124790" lon="72.909430"></trkpt>
<trkpt lat="19.124800" lon="72.909320"></trkpt>
<trkpt lat="19.124810" lon="72.909120"></trkpt>
<trkpt lat="19.124810" lon="72.909060"></trkpt>
<trkpt lat="19.124810" lon="72.908870"></trkpt>
<trkpt lat="19.124810" lon="72.908850"></trkpt>
<trkpt lat="19.124810" lon="72.908830"></trkpt>
<trkpt lat="19.124820" lon="72.908820"></trkpt>
<trkpt lat="19.124830" lon="72.908810"></trkpt>
<trkpt lat="19.124850" lon="72.908800"></trkpt>
<trkpt lat="19.124930" lon="72.908780"></trkpt>
<trkpt lat="19.125010" lon="72.908770"></trkpt>
<trkpt lat="19.125250" lon="72.908740"></trkpt>
<trkpt lat="19.125470" lon="72.908740"></trkpt>
<trkpt lat="19.125570" lon="72.908740"></trkpt>
<trkpt lat="19.125670" lon="72.908740"></trkpt>
<trkpt lat="19.125770" lon="72.908740"></trkpt>
<trkpt lat="19.125890" lon="72.908760"></trkpt>
<trkpt lat="19.125960" lon="72.908780"></trkpt>
<trkpt lat="19.126100" lon="72.908880"></trkpt>
<trkpt lat="19.125960" lon="72.908780"></trkpt>
<trkpt lat="19.125890" lon="72.908760"></trkpt>
<trkpt lat="19.125770" lon="72.908740"></trkpt>
<trkpt lat="19.125670" lon="72.908740"></trkpt>
<trkpt lat="19.125570" lon="72.908740"></trkpt>
<trkpt lat="19.125470" lon="72.908740"></trkpt>
<trkpt lat="19.125250" lon="72.908740"></trkpt>
<trkpt lat="19.125010" lon="72.908770"></trkpt>
<trkpt lat="19.124930" lon="72.908780"></trkpt>
<trkpt lat="19.124850" lon="72.908800"></trkpt>
<trkpt lat="19.124830" lon="72.908810"></trkpt>
<trkpt lat="19.124820" lon="72.908820"></trkpt>
<trkpt lat="19.124810" lon="72.908830"></trkpt>
<trkpt lat="19.124810" lon="72.908850"></trkpt>
<trkpt lat="19.124810" lon="72.908870"></trkpt>
<trkpt lat="19.124810" lon="72.909060"></trkpt>
<trkpt lat="19.124810" lon="72.909120"></trkpt>
<trkpt lat="19.124800" lon="72.909320"></trkpt>
<trkpt lat="19.124790" lon="72.909430"></trkpt>
<trkpt lat="19.124770" lon="72.909550"></trkpt>
<trkpt lat="19.124740" lon="72.909690"></trkpt>
<trkpt lat="19.124660" lon="72.910120"></trkpt>
<trkpt lat="19.124670" lon="72.910260"></trkpt>
<trkpt lat="19.124670" lon="72.910370"></trkpt>
<trkpt lat="19.124690" lon="72.910530"></trkpt>
<trkpt lat="19.124720" lon="72.910690"></trkpt>
<trkpt lat="19.124740" lon="72.910820"></trkpt>
<trkpt lat="19.124750" lon="72.910920"></trkpt>
<trkpt lat="19.124790" lon="72.911170"></trkpt>
<trkpt lat="19.124810" lon="72.911290"></trkpt>
<trkpt lat="19.124840" lon="72.911360"></trkpt>
<trkpt lat="19.124850" lon="72.911380"></trkpt>
<trkpt lat="19.124790" lon="72.911420"></trkpt>
<trkpt lat="19.124550" lon="72.911430"></trkpt>
<trkpt lat="19.124450" lon="72.911430"></trkpt>
<trkpt lat="19.124440" lon="72.911430"></trkpt>
<trkpt lat="19.124370" lon="72.911410"></trkpt>
<trkpt lat="19.124300" lon="72.911390"></trkpt>
<trkpt lat="19.124260" lon="72.911380"></trkpt>
<trkpt lat="19.124180" lon="72.911340"></trkpt>
<trkpt lat="19.123900" lon="72.911300"></trkpt>
<trkpt lat="19.123910" lon="72.911220"></trkpt>
<trkpt lat="19.123960" lon="72.910780"></trkpt>
<trkpt lat="19.124050" lon="72.910170"></trkpt>
<trkpt lat="19.124080" lon="72.909850"></trkpt>
<trkpt lat="19.124090" lon="72.909690"></trkpt>
<trkpt lat="19.124100" lon="72.909620"></trkpt>
<trkpt lat="19.124100" lon="72.909550"></trkpt>
<trkpt lat="19.124090" lon="72.909460"></trkpt>
<trkpt lat="19.124080" lon="72.909370"></trkpt>
<trkpt lat="19.124040" lon="72.909240"></trkpt>
<trkpt lat="19.124020" lon="72.909170"></trkpt>
<trkpt lat="19.123980" lon="72.909050"></trkpt>
<trkpt lat="19.123930" lon="72.908970"></trkpt>
<trkpt lat="19.123870" lon="72.908880"></trkpt>
<trkpt lat="19.123820" lon="72.908810"></trkpt>
<trkpt lat="19.123750" lon="72.908740"></trkpt>
<trkpt lat="19.123630" lon="72.908630"></trkpt>
<trkpt lat="19.123400" lon="72.908470"></trkpt>
<trkpt lat="19.123280" lon="72.908410"></trkpt>
<trkpt lat="19.123190" lon="72.908370"></trkpt>
<trkpt lat="19.122770" lon="72.908270"></trkpt>
<trkpt lat="19.122700" lon="72.908260"></trkpt>
<trkpt lat="19.122710" lon="72.908170"></trkpt>
<trkpt lat="19.122720" lon="72.908120"></trkpt>
<trkpt lat="19.122420" lon="72.908100"></trkpt>
<trkpt lat="19.122320" lon="72.908090"></trkpt>
<trkpt lat="19.122250" lon="72.908090"></trkpt>
<trkpt lat="19.122150" lon="72.908070"></trkpt>
<trkpt lat="19.122110" lon="72.908060"></trkpt>
<trkpt lat="19.122080" lon="72.908060"></trkpt>
<trkpt lat="19.121960" lon="72.908030"></trkpt>
<trkpt lat="19.121870" lon="72.908000"></trkpt>
<trkpt lat="19.121800" lon="72.907980"></trkpt>
<trkpt lat="19.121750" lon="72.907960"></trkpt>
<trkpt lat="19.121560" lon="72.907890"></trkpt>
<trkpt lat="19.121460" lon="72.907840"></trkpt>
<trkpt lat="19.121440" lon="72.907830"></trkpt>
<trkpt lat="19.121380" lon="72.907790"></trkpt>
<trkpt lat="19.121350" lon="72.907760"></trkpt>
<trkpt lat="19.121290" lon="72.907690"></trkpt>
<trkpt lat="19.121250" lon="72.907630"></trkpt>
<trkpt lat="19.121190" lon="72.907540"></trkpt>
<trkpt lat="19.121180" lon="72.907520"></trkpt>
<trkpt lat="19.121060" lon="72.907350"></trkpt>
<trkpt lat="19.120890" lon="72.907070"></trkpt>
<trkpt lat="19.120760" lon="72.906860"></trkpt>
<trkpt lat="19.120710" lon="72.906770"></trkpt>
<trkpt lat="19.120680" lon="72.906790"></trkpt>
<trkpt lat="19.120670" lon="72.906810"></trkpt>
<trkpt lat="19.120660" lon="72.906820"></trkpt>
<trkpt lat="19.120660" lon="72.906840"></trkpt>
<trkpt lat="19.120670" lon="72.906860"></trkpt>
<trkpt lat="19.120670" lon="72.906880"></trkpt>
<trkpt lat="19.120690" lon="72.906930"></trkpt>
<trkpt lat="19.120770" lon="72.907130"></trkpt>
<trkpt lat="19.120860" lon="72.907320"></trkpt>
<trkpt lat="19.120700" lon="72.907400"></trkpt>
<trkpt lat="19.120580" lon="72.907460"></trkpt>
<trkpt lat="19.120570" lon="72.907440"></trkpt>
<trkpt lat="19.120490" lon="72.907270"></trkpt>
<trkpt lat="19.120460" lon="72.907200"></trkpt>
<trkpt lat="19.120450" lon="72.907180"></trkpt>
<trkpt lat="19.120420" lon="72.907110"></trkpt>
<trkpt lat="19.120170" lon="72.907200"></trkpt>
<trkpt lat="19.120100" lon="72.907260"></trkpt>
<trkpt lat="19.120080" lon="72.907270"></trkpt>
<trkpt lat="19.120060" lon="72.907300"></trkpt>
<trkpt lat="19.120030" lon="72.907340"></trkpt>
<trkpt lat="19.119990" lon="72.907390"></trkpt>
<trkpt lat="19.119960" lon="72.907440"></trkpt>
<trkpt lat="19.119950" lon="72.907500"></trkpt>
<trkpt lat="19.119930" lon="72.907570"></trkpt>
<trkpt lat="19.119910" lon="72.907720"></trkpt>
<trkpt lat="19.119830" lon="72.908120"></trkpt>
<trkpt lat="19.119800" lon="72.908250"></trkpt>
<trkpt lat="19.119710" lon="72.908640"></trkpt>
<trkpt lat="19.119670" lon="72.908830"></trkpt>
<trkpt lat="19.119370" lon="72.908610"></trkpt>
<trkpt lat="19.119290" lon="72.908540"></trkpt>
<trkpt lat="19.118780" lon="72.908110"></trkpt>
<trkpt lat="19.118710" lon="72.908030"></trkpt>
<trkpt lat="19.118690" lon="72.908010"></trkpt>
<trkpt lat="19.118640" lon="72.908050"></trkpt>
<trkpt lat="19.118580" lon="72.908100"></trkpt>
<trkpt lat="19.118340" lon="72.908340"></trkpt>
<trkpt lat="19.118310" lon="72.908380"></trkpt>
<trkpt lat="19.118220" lon="72.908490"></trkpt>
<trkpt lat="19.118060" lon="72.908690"></trkpt>
<trkpt lat="19.117990" lon="72.908780"></trkpt>
<trkpt lat="19.117890" lon="72.908910"></trkpt>
<trkpt lat="19.117860" lon="72.908940"></trkpt>
<trkpt lat="19.117800" lon="72.909020"></trkpt>
<trkpt lat="19.117780" lon="72.909000"></trkpt>
<trkpt lat="19.117750" lon="72.908990"></trkpt>
<trkpt lat="19.117710" lon="72.908980"></trkpt>
<trkpt lat="19.117680" lon="72.908980"></trkpt>
<trkpt lat="19.117650" lon="72.908970"></trkpt>
<trkpt lat="19.117640" lon="72.908960"></trkpt>
<trkpt lat="19.117640" lon="72.908950"></trkpt>
<trkpt lat="19.117630" lon="72.908930"></trkpt>
<trkpt lat="19.117630" lon="72.908900"></trkpt>
</trkseg></trk>
</gpx>
