<?xml version='1.0' encoding='utf-8'?>
<gpx version="1.1" creator="RunCast" xmlns="http://www.topografix.com/GPX/1/1"><trk><name>mumbai_mahalaxmi_racecourse</name><trkseg><trkpt lat="18.983200" lon="72.819800" /><trkpt lat="18.983091" lon="72.819877" /><trkpt lat="18.982982" lon="72.819955" /><trkpt lat="18.982873" lon="72.820032" /><trkpt lat="18.982764" lon="72.820109" /><trkpt lat="18.982655" lon="72.820186" /><trkpt lat="18.982545" lon="72.820264" /><trkpt lat="18.982436" lon="72.820341" /><trkpt lat="18.982327" lon="72.820418" /><trkpt lat="18.982218" lon="72.820495" /><trkpt lat="18.982109" lon="72.820573" /><trkpt lat="18.982000" lon="72.820650" /><trkpt lat="18.981891" lon="72.820727" /><trkpt lat="18.981782" lon="72.820805" /><trkpt lat="18.981673" lon="72.820882" /><trkpt lat="18.981564" lon="72.820959" /><trkpt lat="18.981455" lon="72.821036" /><trkpt lat="18.981345" lon="72.821114" /><trkpt lat="18.981236" lon="72.821191" /><trkpt lat="18.981127" lon="72.821268" /><trkpt lat="18.981018" lon="72.821345" /><trkpt lat="18.980909" lon="72.821423" /><trkpt lat="18.980800" lon="72.821500" /><trkpt lat="18.980770" lon="72.821635" /><trkpt lat="18.980740" lon="72.821770" /><trkpt lat="18.980710" lon="72.821905" /><trkpt lat="18.980680" lon="72.822040" /><trkpt lat="18.980650" lon="72.822175" /><trkpt lat="18.980620" lon="72.822310" /><trkpt lat="18.980590" lon="72.822445" /><trkpt lat="18.980560" lon="72.822580" /><trkpt lat="18.980530" lon="72.822715" /><trkpt lat="18.980500" lon="72.822850" /><trkpt lat="18.980470" lon="72.822985" /><trkpt lat="18.980440" lon="72.823120" /><trkpt lat="18.980410" lon="72.823255" /><trkpt lat="18.980380" lon="72.823390" /><trkpt lat="18.980350" lon="72.823525" /><trkpt lat="18.980320" lon="72.823660" /><trkpt lat="18.980290" lon="72.823795" /><trkpt lat="18.980260" lon="72.823930" /><trkpt lat="18.980230" lon="72.824065" /><trkpt lat="18.980200" lon="72.824200" /><trkpt lat="18.980268" lon="72.824321" /><trkpt lat="18.980337" lon="72.824442" /><trkpt lat="18.980405" lon="72.824563" /><trkpt lat="18.980474" lon="72.824684" /><trkpt lat="18.980542" lon="72.824805" /><trkpt lat="18.980611" lon="72.824926" /><trkpt lat="18.980679" lon="72.825047" /><trkpt lat="18.980747" lon="72.825168" /><trkpt lat="18.980816" lon="72.825289" /><trkpt lat="18.980884" lon="72.825411" /><trkpt lat="18.980953" lon="72.825532" /><trkpt lat="18.981021" lon="72.825653" /><trkpt lat="18.981089" lon="72.825774" /><trkpt lat="18.981158" lon="72.825895" /><trkpt lat="18.981226" lon="72.826016" /><trkpt lat="18.981295" lon="72.826137" /><trkpt lat="18.981363" lon="72.826258" /><trkpt lat="18.981432" lon="72.826379" /><trkpt lat="18.981500" lon="72.826500" /><trkpt lat="18.981632" lon="72.826526" /><trkpt lat="18.981763" lon="72.826553" /><trkpt lat="18.981895" lon="72.826579" /><trkpt lat="18.982026" lon="72.826605" /><trkpt lat="18.982158" lon="72.826632" /><trkpt lat="18.982289" lon="72.826658" /><trkpt lat="18.982421" lon="72.826684" /><trkpt lat="18.982553" lon="72.826711" /><trkpt lat="18.982684" lon="72.826737" /><trkpt lat="18.982816" lon="72.826763" /><trkpt lat="18.982947" lon="72.826789" /><trkpt lat="18.983079" lon="72.826816" /><trkpt lat="18.983211" lon="72.826842" /><trkpt lat="18.983342" lon="72.826868" /><trkpt lat="18.983474" lon="72.826895" /><trkpt lat="18.983605" lon="72.826921" /><trkpt lat="18.983737" lon="72.826947" /><trkpt lat="18.983868" lon="72.826974" /><trkpt lat="18.984000" lon="72.827000" /><trkpt lat="18.984105" lon="72.826921" /><trkpt lat="18.984211" lon="72.826842" /><trkpt lat="18.984316" lon="72.826763" /><trkpt lat="18.984421" lon="72.826684" /><trkpt lat="18.984526" lon="72.826605" /><trkpt lat="18.984632" lon="72.826526" /><trkpt lat="18.984737" lon="72.826447" /><trkpt lat="18.984842" lon="72.826368" /><trkpt lat="18.984947" lon="72.826289" /><trkpt lat="18.985053" lon="72.826211" /><trkpt lat="18.985158" lon="72.826132" /><trkpt lat="18.985263" lon="72.826053" /><trkpt lat="18.985368" lon="72.825974" /><trkpt lat="18.985474" lon="72.825895" /><trkpt lat="18.985579" lon="72.825816" /><trkpt lat="18.985684" lon="72.825737" /><trkpt lat="18.985789" lon="72.825658" /><trkpt lat="18.985895" lon="72.825579" /><trkpt lat="18.986000" lon="72.825500" /><trkpt lat="18.986028" lon="72.825361" /><trkpt lat="18.986056" lon="72.825222" /><trkpt lat="18.986083" lon="72.825083" /><trkpt lat="18.986111" lon="72.824944" /><trkpt lat="18.986139" lon="72.824806" /><trkpt lat="18.986167" lon="72.824667" /><trkpt lat="18.986194" lon="72.824528" /><trkpt lat="18.986222" lon="72.824389" /><trkpt lat="18.986250" lon="72.824250" /><trkpt lat="18.986278" lon="72.824111" /><trkpt lat="18.986306" lon="72.823972" /><trkpt lat="18.986333" lon="72.823833" /><trkpt lat="18.986361" lon="72.823694" /><trkpt lat="18.986389" lon="72.823556" /><trkpt lat="18.986417" lon="72.823417" /><trkpt lat="18.986444" lon="72.823278" /><trkpt lat="18.986472" lon="72.823139" /><trkpt lat="18.986500" lon="72.823000" /><trkpt lat="18.986450" lon="72.822875" /><trkpt lat="18.986400" lon="72.822750" /><trkpt lat="18.986350" lon="72.822625" /><trkpt lat="18.986300" lon="72.822500" /><trkpt lat="18.986250" lon="72.822375" /><trkpt lat="18.986200" lon="72.822250" /><trkpt lat="18.986150" lon="72.822125" /><trkpt lat="18.986100" lon="72.822000" /><trkpt lat="18.986050" lon="72.821875" /><trkpt lat="18.986000" lon="72.821750" /><trkpt lat="18.985950" lon="72.821625" /><trkpt lat="18.985900" lon="72.821500" /><trkpt lat="18.985850" lon="72.821375" /><trkpt lat="18.985800" lon="72.821250" /><trkpt lat="18.985750" lon="72.821125" /><trkpt lat="18.985700" lon="72.821000" /><trkpt lat="18.985650" lon="72.820875" /><trkpt lat="18.985600" lon="72.820750" /><trkpt lat="18.985550" lon="72.820625" /><trkpt lat="18.985500" lon="72.820500" /><trkpt lat="18.985372" lon="72.820461" /><trkpt lat="18.985244" lon="72.820422" /><trkpt lat="18.985117" lon="72.820383" /><trkpt lat="18.984989" lon="72.820344" /><trkpt lat="18.984861" lon="72.820306" /><trkpt lat="18.984733" lon="72.820267" /><trkpt lat="18.984606" lon="72.820228" /><trkpt lat="18.984478" lon="72.820189" /><trkpt lat="18.984350" lon="72.820150" /><trkpt lat="18.984222" lon="72.820111" /><trkpt lat="18.984094" lon="72.820072" /><trkpt lat="18.983967" lon="72.820033" /><trkpt lat="18.983839" lon="72.819994" /><trkpt lat="18.983711" lon="72.819956" /><trkpt lat="18.983583" lon="72.819917" /><trkpt lat="18.983456" lon="72.819878" /><trkpt lat="18.983328" lon="72.819839" /><trkpt lat="18.983200" lon="72.819800" /></trkseg></trk></gpx>