<?xml version="1.0" encoding="UTF-8"?>
<gpx version="1.1" creator="strava-api">
<trk><name>Bandstand Promenade North to South</name><trkseg>
<trkpt lat="19.054340" lon="72.823290"></trkpt>
<trkpt lat="19.054320" lon="72.823080"></trkpt>
<trkpt lat="19.054260" lon="72.822880"></trkpt>
<trkpt lat="19.054010" lon="72.822600"></trkpt>
<trkpt lat="19.053860" lon="72.822470"></trkpt>
<trkpt lat="19.053700" lon="72.822360"></trkpt>
<trkpt lat="19.053360" lon="72.822170"></trkpt>
<trkpt lat="19.053190" lon="72.822050"></trkpt>
<trkpt lat="19.053020" lon="72.821970"></trkpt>
<trkpt lat="19.052480" lon="72.821780"></trkpt>
<trkpt lat="19.052280" lon="72.821740"></trkpt>
<trkpt lat="19.051900" lon="72.821670"></trkpt>
<trkpt lat="19.051700" lon="72.821670"></trkpt>
<trkpt lat="19.051340" lon="72.821570"></trkpt>
<trkpt lat="19.051150" lon="72.821550"></trkpt>
<trkpt lat="19.050950" lon="72.821570"></trkpt>
<trkpt lat="19.050750" lon="72.821530"></trkpt>
<trkpt lat="19.050560" lon="72.821470"></trkpt>
<trkpt lat="19.050400" lon="72.821390"></trkpt>
<trkpt lat="19.049900" lon="72.821090"></trkpt>
<trkpt lat="19.049590" lon="72.820870"></trkpt>
<trkpt lat="19.049110" lon="72.820580"></trkpt>
<trkpt lat="19.048760" lon="72.820450"></trkpt>
<trkpt lat="19.048410" lon="72.820300"></trkpt>
<trkpt lat="19.047900" lon="72.820050"></trkpt>
<trkpt lat="19.047740" lon="72.819940"></trkpt>
<trkpt lat="19.047210" lon="72.819750"></trkpt>
<trkpt lat="19.046830" lon="72.819670"></trkpt>
<trkpt lat="19.046650" lon="72.819640"></trkpt>
</trkseg></trk>
</gpx>
