<?xml version='1.0' encoding='utf-8'?>
<gpx version="1.1" creator="RunCast" xmlns="http://www.topografix.com/GPX/1/1"><trk><name>mumbai_marine_drive</name><trkseg><trkpt lat="18.927508" lon="72.819927" /><trkpt lat="18.927649" lon="72.820044" /><trkpt lat="18.927790" lon="72.820162" /><trkpt lat="18.927931" lon="72.820279" /><trkpt lat="18.928072" lon="72.820397" /><trkpt lat="18.928214" lon="72.820514" /><trkpt lat="18.928355" lon="72.820631" /><trkpt lat="18.928496" lon="72.820749" /><trkpt lat="18.928637" lon="72.820866" /><trkpt lat="18.928787" lon="72.820970" /><trkpt lat="18.928936" lon="72.821075" /><trkpt lat="18.929086" lon="72.821179" /><trkpt lat="18.929236" lon="72.821284" /><trkpt lat="18.929386" lon="72.821388" /><trkpt lat="18.929535" lon="72.821493" /><trkpt lat="18.929685" lon="72.821597" /><trkpt lat="18.929668" lon="72.821692" /><trkpt lat="18.929650" lon="72.821787" /><trkpt lat="18.929626" lon="72.821694" /><trkpt lat="18.929756" lon="72.821773" /><trkpt lat="18.929886" lon="72.821853" /><trkpt lat="18.930017" lon="72.821933" /><trkpt lat="18.930147" lon="72.822012" /><trkpt lat="18.930277" lon="72.822091" /><trkpt lat="18.930407" lon="72.822171" /><trkpt lat="18.930545" lon="72.822240" /><trkpt lat="18.930684" lon="72.822309" /><trkpt lat="18.930822" lon="72.822378" /><trkpt lat="18.930960" lon="72.822446" /><trkpt lat="18.931099" lon="72.822515" /><trkpt lat="18.931237" lon="72.822584" /><trkpt lat="18.931388" lon="72.822652" /><trkpt lat="18.931539" lon="72.822719" /><trkpt lat="18.931635" lon="72.822762" /><trkpt lat="18.931732" lon="72.822804" /><trkpt lat="18.931845" lon="72.822855" /><trkpt lat="18.931958" lon="72.822905" /><trkpt lat="18.932071" lon="72.822956" /><trkpt lat="18.932215" lon="72.823009" /><trkpt lat="18.932359" lon="72.823063" /><trkpt lat="18.932504" lon="72.823116" /><trkpt lat="18.932648" lon="72.823169" /><trkpt lat="18.932792" lon="72.823223" /><trkpt lat="18.932936" lon="72.823276" /><trkpt lat="18.933067" lon="72.823320" /><trkpt lat="18.933197" lon="72.823364" /><trkpt lat="18.933328" lon="72.823409" /><trkpt lat="18.933459" lon="72.823453" /><trkpt lat="18.933511" lon="72.823470" /><trkpt lat="18.933622" lon="72.823501" /><trkpt lat="18.933732" lon="72.823532" /><trkpt lat="18.933785" lon="72.823489" /><trkpt lat="18.933804" lon="72.823435" /><trkpt lat="18.933635" lon="72.823382" /><trkpt lat="18.933467" lon="72.823329" /><trkpt lat="18.933298" lon="72.823276" /><trkpt lat="18.933130" lon="72.823223" /><trkpt lat="18.932961" lon="72.823170" /><trkpt lat="18.932817" lon="72.823114" /><trkpt lat="18.932673" lon="72.823058" /><trkpt lat="18.932530" lon="72.823002" /><trkpt lat="18.932386" lon="72.822946" /><trkpt lat="18.932242" lon="72.822890" /><trkpt lat="18.932098" lon="72.822834" /><trkpt lat="18.932098" lon="72.822834" /><trkpt lat="18.932242" lon="72.822890" /><trkpt lat="18.932386" lon="72.822946" /><trkpt lat="18.932530" lon="72.823002" /><trkpt lat="18.932673" lon="72.823058" /><trkpt lat="18.932817" lon="72.823114" /><trkpt lat="18.932961" lon="72.823170" /><trkpt lat="18.933130" lon="72.823223" /><trkpt lat="18.933298" lon="72.823276" /><trkpt lat="18.933467" lon="72.823329" /><trkpt lat="18.933635" lon="72.823382" /><trkpt lat="18.933804" lon="72.823435" /><trkpt lat="18.933854" lon="72.823261" /><trkpt lat="18.933903" lon="72.823087" /><trkpt lat="18.933953" lon="72.822913" /><trkpt lat="18.934003" lon="72.822739" /><trkpt lat="18.934053" lon="72.822565" /><trkpt lat="18.934102" lon="72.822391" /><trkpt lat="18.934152" lon="72.822217" /><trkpt lat="18.934202" lon="72.822044" /><trkpt lat="18.934251" lon="72.821870" /><trkpt lat="18.934301" lon="72.821696" /><trkpt lat="18.934351" lon="72.821522" /><trkpt lat="18.934401" lon="72.821348" /><trkpt lat="18.934450" lon="72.821174" /><trkpt lat="18.934500" lon="72.821000" /><trkpt lat="18.934620" lon="72.820940" /><trkpt lat="18.934740" lon="72.820880" /><trkpt lat="18.934860" lon="72.820820" /><trkpt lat="18.934980" lon="72.820760" /><trkpt lat="18.935100" lon="72.820700" /><trkpt lat="18.935220" lon="72.820640" /><trkpt lat="18.935340" lon="72.820580" /><trkpt lat="18.935460" lon="72.820520" /><trkpt lat="18.935580" lon="72.820460" /><trkpt lat="18.935700" lon="72.820400" /><trkpt lat="18.935820" lon="72.820340" /><trkpt lat="18.935940" lon="72.820280" /><trkpt lat="18.936060" lon="72.820220" /><trkpt lat="18.936180" lon="72.820160" /><trkpt lat="18.936300" lon="72.820100" /><trkpt lat="18.936420" lon="72.820040" /><trkpt lat="18.936540" lon="72.819980" /><trkpt lat="18.936660" lon="72.819920" /><trkpt lat="18.936780" lon="72.819860" /><trkpt lat="18.936900" lon="72.819800" /><trkpt lat="18.937020" lon="72.819740" /><trkpt lat="18.937140" lon="72.819680" /><trkpt lat="18.937260" lon="72.819620" /><trkpt lat="18.937380" lon="72.819560" /><trkpt lat="18.937500" lon="72.819500" /><trkpt lat="18.937611" lon="72.819426" /><trkpt lat="18.937722" lon="72.819352" /><trkpt lat="18.937833" lon="72.819278" /><trkpt lat="18.937944" lon="72.819204" /><trkpt lat="18.938056" lon="72.819130" /><trkpt lat="18.938167" lon="72.819056" /><trkpt lat="18.938278" lon="72.818981" /><trkpt lat="18.938389" lon="72.818907" /><trkpt lat="18.938500" lon="72.818833" /><trkpt lat="18.938611" lon="72.818759" /><trkpt lat="18.938722" lon="72.818685" /><trkpt lat="18.938833" lon="72.818611" /><trkpt lat="18.938944" lon="72.818537" /><trkpt lat="18.939056" lon="72.818463" /><trkpt lat="18.939167" lon="72.818389" /><trkpt lat="18.939278" lon="72.818315" /><trkpt lat="18.939389" lon="72.818241" /><trkpt lat="18.939500" lon="72.818167" /><trkpt lat="18.939611" lon="72.818093" /><trkpt lat="18.939722" lon="72.818019" /><trkpt lat="18.939833" lon="72.817944" /><trkpt lat="18.939944" lon="72.817870" /><trkpt lat="18.940056" lon="72.817796" /><trkpt lat="18.940167" lon="72.817722" /><trkpt lat="18.940278" lon="72.817648" /><trkpt lat="18.940389" lon="72.817574" /><trkpt lat="18.940500" lon="72.817500" /><trkpt lat="18.940611" lon="72.817426" /><trkpt lat="18.940722" lon="72.817352" /><trkpt lat="18.940833" lon="72.817278" /><trkpt lat="18.940944" lon="72.817204" /><trkpt lat="18.941056" lon="72.817130" /><trkpt lat="18.941167" lon="72.817056" /><trkpt lat="18.941278" lon="72.816981" /><trkpt lat="18.941389" lon="72.816907" /><trkpt lat="18.941500" lon="72.816833" /><trkpt lat="18.941611" lon="72.816759" /><trkpt lat="18.941722" lon="72.816685" /><trkpt lat="18.941833" lon="72.816611" /><trkpt lat="18.941944" lon="72.816537" /><trkpt lat="18.942056" lon="72.816463" /><trkpt lat="18.942167" lon="72.816389" /><trkpt lat="18.942278" lon="72.816315" /><trkpt lat="18.942389" lon="72.816241" /><trkpt lat="18.942500" lon="72.816167" /><trkpt lat="18.942611" lon="72.816093" /><trkpt lat="18.942722" lon="72.816019" /><trkpt lat="18.942833" lon="72.815944" /><trkpt lat="18.942944" lon="72.815870" /><trkpt lat="18.943056" lon="72.815796" /><trkpt lat="18.943167" lon="72.815722" /><trkpt lat="18.943278" lon="72.815648" /><trkpt lat="18.943389" lon="72.815574" /><trkpt lat="18.943500" lon="72.815500" /><trkpt lat="18.943611" lon="72.815426" /><trkpt lat="18.943722" lon="72.815352" /><trkpt lat="18.943833" lon="72.815278" /><trkpt lat="18.943944" lon="72.815204" /><trkpt lat="18.944056" lon="72.815130" /><trkpt lat="18.944167" lon="72.815056" /><trkpt lat="18.944278" lon="72.814981" /><trkpt lat="18.944389" lon="72.814907" /><trkpt lat="18.944500" lon="72.814833" /><trkpt lat="18.944611" lon="72.814759" /><trkpt lat="18.944722" lon="72.814685" /><trkpt lat="18.944833" lon="72.814611" /><trkpt lat="18.944944" lon="72.814537" /><trkpt lat="18.945056" lon="72.814463" /><trkpt lat="18.945167" lon="72.814389" /><trkpt lat="18.945278" lon="72.814315" /><trkpt lat="18.945389" lon="72.814241" /><trkpt lat="18.945500" lon="72.814167" /><trkpt lat="18.945611" lon="72.814093" /><trkpt lat="18.945722" lon="72.814019" /><trkpt lat="18.945833" lon="72.813944" /><trkpt lat="18.945944" lon="72.813870" /><trkpt lat="18.946056" lon="72.813796" /><trkpt lat="18.946167" lon="72.813722" /><trkpt lat="18.946278" lon="72.813648" /><trkpt lat="18.946389" lon="72.813574" /><trkpt lat="18.946500" lon="72.813500" /><trkpt lat="18.946611" lon="72.813426" /><trkpt lat="18.946722" lon="72.813352" /><trkpt lat="18.946833" lon="72.813278" /><trkpt lat="18.946944" lon="72.813204" /><trkpt lat="18.947056" lon="72.813130" /><trkpt lat="18.947167" lon="72.813056" /><trkpt lat="18.947278" lon="72.812981" /><trkpt lat="18.947389" lon="72.812907" /><trkpt lat="18.947500" lon="72.812833" /><trkpt lat="18.947611" lon="72.812759" /><trkpt lat="18.947722" lon="72.812685" /><trkpt lat="18.947833" lon="72.812611" /><trkpt lat="18.947944" lon="72.812537" /><trkpt lat="18.948056" lon="72.812463" /><trkpt lat="18.948167" lon="72.812389" /><trkpt lat="18.948278" lon="72.812315" /><trkpt lat="18.948389" lon="72.812241" /><trkpt lat="18.948500" lon="72.812167" /><trkpt lat="18.948611" lon="72.812093" /><trkpt lat="18.948722" lon="72.812019" /><trkpt lat="18.948833" lon="72.811944" /><trkpt lat="18.948944" lon="72.811870" /><trkpt lat="18.949056" lon="72.811796" /><trkpt lat="18.949167" lon="72.811722" /><trkpt lat="18.949278" lon="72.811648" /><trkpt lat="18.949389" lon="72.811574" /><trkpt lat="18.949500" lon="72.811500" /><trkpt lat="18.949611" lon="72.811426" /><trkpt lat="18.949722" lon="72.811352" /><trkpt lat="18.949833" lon="72.811278" /><trkpt lat="18.949944" lon="72.811204" /><trkpt lat="18.950056" lon="72.811130" /><trkpt lat="18.950167" lon="72.811056" /><trkpt lat="18.950278" lon="72.810981" /><trkpt lat="18.950389" lon="72.810907" /><trkpt lat="18.950500" lon="72.810833" /><trkpt lat="18.950611" lon="72.810759" /><trkpt lat="18.950722" lon="72.810685" /><trkpt lat="18.950833" lon="72.810611" /><trkpt lat="18.950944" lon="72.810537" /><trkpt lat="18.951056" lon="72.810463" /><trkpt lat="18.951167" lon="72.810389" /><trkpt lat="18.951278" lon="72.810315" /><trkpt lat="18.951389" lon="72.810241" /><trkpt lat="18.951500" lon="72.810167" /><trkpt lat="18.951611" lon="72.810093" /><trkpt lat="18.951722" lon="72.810019" /><trkpt lat="18.951833" lon="72.809944" /><trkpt lat="18.951944" lon="72.809870" /><trkpt lat="18.952056" lon="72.809796" /><trkpt lat="18.952167" lon="72.809722" /><trkpt lat="18.952278" lon="72.809648" /><trkpt lat="18.952389" lon="72.809574" /><trkpt lat="18.952500" lon="72.809500" /><trkpt lat="18.952613" lon="72.809425" /><trkpt lat="18.952725" lon="72.809350" /><trkpt lat="18.952838" lon="72.809275" /><trkpt lat="18.952950" lon="72.809200" /><trkpt lat="18.953063" lon="72.809125" /><trkpt lat="18.953175" lon="72.809050" /><trkpt lat="18.953288" lon="72.808975" /><trkpt lat="18.953400" lon="72.808900" /><trkpt lat="18.953512" lon="72.808825" /><trkpt lat="18.953625" lon="72.808750" /><trkpt lat="18.953737" lon="72.808675" /><trkpt lat="18.953850" lon="72.808600" /><trkpt lat="18.953962" lon="72.808525" /><trkpt lat="18.954075" lon="72.808450" /><trkpt lat="18.954187" lon="72.808375" /><trkpt lat="18.954300" lon="72.808300" /></trkseg></trk></gpx>