<?xml version='1.0' encoding='utf-8'?>
<gpx version="1.1" creator="RunCast" xmlns="http://www.topografix.com/GPX/1/1"><trk><name>mumbai_bandra_soul</name><trkseg><trkpt lat="19.048400" lon="72.818300" /><trkpt lat="19.048518" lon="72.818232" /><trkpt lat="19.048636" lon="72.818164" /><trkpt lat="19.048755" lon="72.818095" /><trkpt lat="19.048873" lon="72.818027" /><trkpt lat="19.048991" lon="72.817959" /><trkpt lat="19.049109" lon="72.817891" /><trkpt lat="19.049227" lon="72.817823" /><trkpt lat="19.049345" lon="72.817755" /><trkpt lat="19.049464" lon="72.817686" /><trkpt lat="19.049582" lon="72.817618" /><trkpt lat="19.049700" lon="72.817550" /><trkpt lat="19.049818" lon="72.817482" /><trkpt lat="19.049936" lon="72.817414" /><trkpt lat="19.050055" lon="72.817345" /><trkpt lat="19.050173" lon="72.817277" /><trkpt lat="19.050291" lon="72.817209" /><trkpt lat="19.050409" lon="72.817141" /><trkpt lat="19.050527" lon="72.817073" /><trkpt lat="19.050645" lon="72.817005" /><trkpt lat="19.050764" lon="72.816936" /><trkpt lat="19.050882" lon="72.816868" /><trkpt lat="19.051000" lon="72.816800" /><trkpt lat="19.051095" lon="72.816895" /><trkpt lat="19.051190" lon="72.816990" /><trkpt lat="19.051286" lon="72.817086" /><trkpt lat="19.051381" lon="72.817181" /><trkpt lat="19.051476" lon="72.817276" /><trkpt lat="19.051571" lon="72.817371" /><trkpt lat="19.051667" lon="72.817467" /><trkpt lat="19.051762" lon="72.817562" /><trkpt lat="19.051857" lon="72.817657" /><trkpt lat="19.051952" lon="72.817752" /><trkpt lat="19.052048" lon="72.817848" /><trkpt lat="19.052143" lon="72.817943" /><trkpt lat="19.052238" lon="72.818038" /><trkpt lat="19.052333" lon="72.818133" /><trkpt lat="19.052429" lon="72.818229" /><trkpt lat="19.052524" lon="72.818324" /><trkpt lat="19.052619" lon="72.818419" /><trkpt lat="19.052714" lon="72.818514" /><trkpt lat="19.052810" lon="72.818610" /><trkpt lat="19.052905" lon="72.818705" /><trkpt lat="19.053000" lon="72.818800" /><trkpt lat="19.052962" lon="72.818983" /><trkpt lat="19.052924" lon="72.819166" /><trkpt lat="19.052885" lon="72.819349" /><trkpt lat="19.052847" lon="72.819532" /><trkpt lat="19.052809" lon="72.819715" /><trkpt lat="19.052771" lon="72.819898" /><trkpt lat="19.052732" lon="72.820081" /><trkpt lat="19.052694" lon="72.820263" /><trkpt lat="19.052656" lon="72.820446" /><trkpt lat="19.052618" lon="72.820629" /><trkpt lat="19.052579" lon="72.820812" /><trkpt lat="19.052541" lon="72.820995" /><trkpt lat="19.052503" lon="72.821178" /><trkpt lat="19.052464" lon="72.821361" /><trkpt lat="19.052426" lon="72.821544" /><trkpt lat="19.052388" lon="72.821727" /><trkpt lat="19.052539" lon="72.821763" /><trkpt lat="19.052690" lon="72.821798" /><trkpt lat="19.052807" lon="72.821849" /><trkpt lat="19.052924" lon="72.821900" /><trkpt lat="19.053041" lon="72.821951" /><trkpt lat="19.053152" lon="72.822010" /><trkpt lat="19.053262" lon="72.822069" /><trkpt lat="19.053373" lon="72.822128" /><trkpt lat="19.053493" lon="72.822175" /><trkpt lat="19.053612" lon="72.822221" /><trkpt lat="19.053732" lon="72.822268" /><trkpt lat="19.053833" lon="72.822328" /><trkpt lat="19.053935" lon="72.822389" /><trkpt lat="19.054036" lon="72.822499" /><trkpt lat="19.054138" lon="72.822609" /><trkpt lat="19.054219" lon="72.822733" /><trkpt lat="19.054301" lon="72.822858" /><trkpt lat="19.054351" lon="72.823024" /><trkpt lat="19.054495" lon="72.823133" /><trkpt lat="19.054638" lon="72.823243" /><trkpt lat="19.054782" lon="72.823352" /><trkpt lat="19.054925" lon="72.823462" /><trkpt lat="19.055069" lon="72.823571" /><trkpt lat="19.055213" lon="72.823681" /><trkpt lat="19.055356" lon="72.823791" /><trkpt lat="19.055500" lon="72.823900" /><trkpt lat="19.055580" lon="72.824013" /><trkpt lat="19.055660" lon="72.824127" /><trkpt lat="19.055740" lon="72.824240" /><trkpt lat="19.055820" lon="72.824353" /><trkpt lat="19.055900" lon="72.824467" /><trkpt lat="19.055980" lon="72.824580" /><trkpt lat="19.056060" lon="72.824693" /><trkpt lat="19.056140" lon="72.824807" /><trkpt lat="19.056220" lon="72.824920" /><trkpt lat="19.056300" lon="72.825033" /><trkpt lat="19.056380" lon="72.825147" /><trkpt lat="19.056460" lon="72.825260" /><trkpt lat="19.056540" lon="72.825373" /><trkpt lat="19.056620" lon="72.825487" /><trkpt lat="19.056700" lon="72.825600" /><trkpt lat="19.056780" lon="72.825713" /><trkpt lat="19.056860" lon="72.825827" /><trkpt lat="19.056940" lon="72.825940" /><trkpt lat="19.057020" lon="72.826053" /><trkpt lat="19.057100" lon="72.826167" /><trkpt lat="19.057180" lon="72.826280" /><trkpt lat="19.057260" lon="72.826393" /><trkpt lat="19.057340" lon="72.826507" /><trkpt lat="19.057420" lon="72.826620" /><trkpt lat="19.057500" lon="72.826733" /><trkpt lat="19.057580" lon="72.826847" /><trkpt lat="19.057660" lon="72.826960" /><trkpt lat="19.057740" lon="72.827073" /><trkpt lat="19.057820" lon="72.827187" /><trkpt lat="19.057900" lon="72.827300" /><trkpt lat="19.057991" lon="72.827404" /><trkpt lat="19.058083" lon="72.827509" /><trkpt lat="19.058174" lon="72.827613" /><trkpt lat="19.058265" lon="72.827717" /><trkpt lat="19.058357" lon="72.827822" /><trkpt lat="19.058448" lon="72.827926" /><trkpt lat="19.058539" lon="72.828030" /><trkpt lat="19.058630" lon="72.828135" /><trkpt lat="19.058722" lon="72.828239" /><trkpt lat="19.058813" lon="72.828343" /><trkpt lat="19.058904" lon="72.828448" /><trkpt lat="19.058996" lon="72.828552" /><trkpt lat="19.059087" lon="72.828657" /><trkpt lat="19.059178" lon="72.828761" /><trkpt lat="19.059270" lon="72.828865" /><trkpt lat="19.059361" lon="72.828970" /><trkpt lat="19.059452" lon="72.829074" /><trkpt lat="19.059543" lon="72.829178" /><trkpt lat="19.059635" lon="72.829283" /><trkpt lat="19.059726" lon="72.829387" /><trkpt lat="19.059817" lon="72.829491" /><trkpt lat="19.059909" lon="72.829596" /><trkpt lat="19.060000" lon="72.829700" /><trkpt lat="19.060118" lon="72.829765" /><trkpt lat="19.060235" lon="72.829829" /><trkpt lat="19.060353" lon="72.829894" /><trkpt lat="19.060471" lon="72.829959" /><trkpt lat="19.060588" lon="72.830024" /><trkpt lat="19.060706" lon="72.830088" /><trkpt lat="19.060824" lon="72.830153" /><trkpt lat="19.060941" lon="72.830218" /><trkpt lat="19.061059" lon="72.830282" /><trkpt lat="19.061176" lon="72.830347" /><trkpt lat="19.061294" lon="72.830412" /><trkpt lat="19.061412" lon="72.830476" /><trkpt lat="19.061529" lon="72.830541" /><trkpt lat="19.061647" lon="72.830606" /><trkpt lat="19.061765" lon="72.830671" /><trkpt lat="19.061882" lon="72.830735" /><trkpt lat="19.062000" lon="72.830800" /><trkpt lat="19.062071" lon="72.830918" /><trkpt lat="19.062141" lon="72.831035" /><trkpt lat="19.062212" lon="72.831153" /><trkpt lat="19.062282" lon="72.831271" /><trkpt lat="19.062353" lon="72.831388" /><trkpt lat="19.062424" lon="72.831506" /><trkpt lat="19.062494" lon="72.831624" /><trkpt lat="19.062565" lon="72.831741" /><trkpt lat="19.062635" lon="72.831859" /><trkpt lat="19.062706" lon="72.831976" /><trkpt lat="19.062776" lon="72.832094" /><trkpt lat="19.062847" lon="72.832212" /><trkpt lat="19.062918" lon="72.832329" /><trkpt lat="19.062988" lon="72.832447" /><trkpt lat="19.063059" lon="72.832565" /><trkpt lat="19.063129" lon="72.832682" /><trkpt lat="19.063200" lon="72.832800" /></trkseg></trk></gpx>