<?xml version='1.0' encoding='utf-8'?>
<gpx version="1.1" creator="RunCast" xmlns="http://www.topografix.com/GPX/1/1"><trk><name>mumbai_juhu_beach</name><trkseg><trkpt lat="19.107000" lon="72.826500" /><trkpt lat="19.106868" lon="72.826491" /><trkpt lat="19.106736" lon="72.826481" /><trkpt lat="19.106604" lon="72.826472" /><trkpt lat="19.106472" lon="72.826462" /><trkpt lat="19.106340" lon="72.826453" /><trkpt lat="19.106208" lon="72.826443" /><trkpt lat="19.106075" lon="72.826434" /><trkpt lat="19.105943" lon="72.826425" /><trkpt lat="19.105811" lon="72.826415" /><trkpt lat="19.105679" lon="72.826406" /><trkpt lat="19.105547" lon="72.826396" /><trkpt lat="19.105415" lon="72.826387" /><trkpt lat="19.105283" lon="72.826377" /><trkpt lat="19.105151" lon="72.826368" /><trkpt lat="19.105019" lon="72.826358" /><trkpt lat="19.104887" lon="72.826349" /><trkpt lat="19.104755" lon="72.826340" /><trkpt lat="19.104623" lon="72.826330" /><trkpt lat="19.104491" lon="72.826321" /><trkpt lat="19.104358" lon="72.826311" /><trkpt lat="19.104226" lon="72.826302" /><trkpt lat="19.104094" lon="72.826292" /><trkpt lat="19.103962" lon="72.826283" /><trkpt lat="19.103830" lon="72.826274" /><trkpt lat="19.103698" lon="72.826264" /><trkpt lat="19.103566" lon="72.826255" /><trkpt lat="19.103434" lon="72.826245" /><trkpt lat="19.103302" lon="72.826236" /><trkpt lat="19.103170" lon="72.826226" /><trkpt lat="19.103038" lon="72.826217" /><trkpt lat="19.102906" lon="72.826208" /><trkpt lat="19.102774" lon="72.826198" /><trkpt lat="19.102642" lon="72.826189" /><trkpt lat="19.102509" lon="72.826179" /><trkpt lat="19.102377" lon="72.826170" /><trkpt lat="19.102245" lon="72.826160" /><trkpt lat="19.102113" lon="72.826151" /><trkpt lat="19.101981" lon="72.826142" /><trkpt lat="19.101849" lon="72.826132" /><trkpt lat="19.101717" lon="72.826123" /><trkpt lat="19.101585" lon="72.826113" /><trkpt lat="19.101453" lon="72.826104" /><trkpt lat="19.101321" lon="72.826094" /><trkpt lat="19.101189" lon="72.826085" /><trkpt lat="19.101057" lon="72.826075" /><trkpt lat="19.100925" lon="72.826066" /><trkpt lat="19.100792" lon="72.826057" /><trkpt lat="19.100660" lon="72.826047" /><trkpt lat="19.100528" lon="72.826038" /><trkpt lat="19.100396" lon="72.826028" /><trkpt lat="19.100264" lon="72.826019" /><trkpt lat="19.100132" lon="72.826009" /><trkpt lat="19.100000" lon="72.826000" /><trkpt lat="19.099868" lon="72.825991" /><trkpt lat="19.099736" lon="72.825981" /><trkpt lat="19.099604" lon="72.825972" /><trkpt lat="19.099472" lon="72.825962" /><trkpt lat="19.099340" lon="72.825953" /><trkpt lat="19.099208" lon="72.825943" /><trkpt lat="19.099075" lon="72.825934" /><trkpt lat="19.098943" lon="72.825925" /><trkpt lat="19.098811" lon="72.825915" /><trkpt lat="19.098679" lon="72.825906" /><trkpt lat="19.098547" lon="72.825896" /><trkpt lat="19.098415" lon="72.825887" /><trkpt lat="19.098283" lon="72.825877" /><trkpt lat="19.098151" lon="72.825868" /><trkpt lat="19.098019" lon="72.825858" /><trkpt lat="19.097887" lon="72.825849" /><trkpt lat="19.097755" lon="72.825840" /><trkpt lat="19.097623" lon="72.825830" /><trkpt lat="19.097491" lon="72.825821" /><trkpt lat="19.097358" lon="72.825811" /><trkpt lat="19.097226" lon="72.825802" /><trkpt lat="19.097094" lon="72.825792" /><trkpt lat="19.096962" lon="72.825783" /><trkpt lat="19.096830" lon="72.825774" /><trkpt lat="19.096698" lon="72.825764" /><trkpt lat="19.096566" lon="72.825755" /><trkpt lat="19.096434" lon="72.825745" /><trkpt lat="19.096302" lon="72.825736" /><trkpt lat="19.096170" lon="72.825726" /><trkpt lat="19.096038" lon="72.825717" /><trkpt lat="19.095906" lon="72.825708" /><trkpt lat="19.095774" lon="72.825698" /><trkpt lat="19.095642" lon="72.825689" /><trkpt lat="19.095509" lon="72.825679" /><trkpt lat="19.095377" lon="72.825670" /><trkpt lat="19.095245" lon="72.825660" /><trkpt lat="19.095113" lon="72.825651" /><trkpt lat="19.094981" lon="72.825642" /><trkpt lat="19.094849" lon="72.825632" /><trkpt lat="19.094717" lon="72.825623" /><trkpt lat="19.094585" lon="72.825613" /><trkpt lat="19.094453" lon="72.825604" /><trkpt lat="19.094321" lon="72.825594" /><trkpt lat="19.094189" lon="72.825585" /><trkpt lat="19.094057" lon="72.825575" /><trkpt lat="19.093925" lon="72.825566" /><trkpt lat="19.093792" lon="72.825557" /><trkpt lat="19.093660" lon="72.825547" /><trkpt lat="19.093528" lon="72.825538" /><trkpt lat="19.093396" lon="72.825528" /><trkpt lat="19.093264" lon="72.825519" /><trkpt lat="19.093132" lon="72.825509" /><trkpt lat="19.093000" lon="72.825500" /><trkpt lat="19.092868" lon="72.825491" /><trkpt lat="19.092736" lon="72.825481" /><trkpt lat="19.092604" lon="72.825472" /><trkpt lat="19.092472" lon="72.825462" /><trkpt lat="19.092340" lon="72.825453" /><trkpt lat="19.092208" lon="72.825443" /><trkpt lat="19.092075" lon="72.825434" /><trkpt lat="19.091943" lon="72.825425" /><trkpt lat="19.091811" lon="72.825415" /><trkpt lat="19.091679" lon="72.825406" /><trkpt lat="19.091547" lon="72.825396" /><trkpt lat="19.091415" lon="72.825387" /><trkpt lat="19.091283" lon="72.825377" /><trkpt lat="19.091151" lon="72.825368" /><trkpt lat="19.091019" lon="72.825358" /><trkpt lat="19.090887" lon="72.825349" /><trkpt lat="19.090755" lon="72.825340" /><trkpt lat="19.090623" lon="72.825330" /><trkpt lat="19.090491" lon="72.825321" /><trkpt lat="19.090358" lon="72.825311" /><trkpt lat="19.090226" lon="72.825302" /><trkpt lat="19.090094" lon="72.825292" /><trkpt lat="19.089962" lon="72.825283" /><trkpt lat="19.089830" lon="72.825274" /><trkpt lat="19.089698" lon="72.825264" /><trkpt lat="19.089566" lon="72.825255" /><trkpt lat="19.089434" lon="72.825245" /><trkpt lat="19.089302" lon="72.825236" /><trkpt lat="19.089170" lon="72.825226" /><trkpt lat="19.089038" lon="72.825217" /><trkpt lat="19.088906" lon="72.825208" /><trkpt lat="19.088774" lon="72.825198" /><trkpt lat="19.088642" lon="72.825189" /><trkpt lat="19.088509" lon="72.825179" /><trkpt lat="19.088377" lon="72.825170" /><trkpt lat="19.088245" lon="72.825160" /><trkpt lat="19.088113" lon="72.825151" /><trkpt lat="19.087981" lon="72.825142" /><trkpt lat="19.087849" lon="72.825132" /><trkpt lat="19.087717" lon="72.825123" /><trkpt lat="19.087585" lon="72.825113" /><trkpt lat="19.087453" lon="72.825104" /><trkpt lat="19.087321" lon="72.825094" /><trkpt lat="19.087189" lon="72.825085" /><trkpt lat="19.087057" lon="72.825075" /><trkpt lat="19.086925" lon="72.825066" /><trkpt lat="19.086792" lon="72.825057" /><trkpt lat="19.086660" lon="72.825047" /><trkpt lat="19.086528" lon="72.825038" /><trkpt lat="19.086396" lon="72.825028" /><trkpt lat="19.086264" lon="72.825019" /><trkpt lat="19.086132" lon="72.825009" /><trkpt lat="19.086134" lon="72.825010" /><trkpt lat="19.086268" lon="72.825019" /><trkpt lat="19.086401" lon="72.825029" /><trkpt lat="19.086535" lon="72.825038" /><trkpt lat="19.086669" lon="72.825048" /><trkpt lat="19.086803" lon="72.825057" /><trkpt lat="19.086936" lon="72.825067" /><trkpt lat="19.087070" lon="72.825076" /><trkpt lat="19.087204" lon="72.825086" /><trkpt lat="19.087338" lon="72.825096" /><trkpt lat="19.087471" lon="72.825105" /><trkpt lat="19.087605" lon="72.825115" /><trkpt lat="19.087739" lon="72.825124" /><trkpt lat="19.087873" lon="72.825134" /><trkpt lat="19.088006" lon="72.825143" /><trkpt lat="19.088140" lon="72.825153" /><trkpt lat="19.088274" lon="72.825162" /><trkpt lat="19.088408" lon="72.825172" /><trkpt lat="19.088541" lon="72.825182" /><trkpt lat="19.088675" lon="72.825191" /><trkpt lat="19.088809" lon="72.825201" /><trkpt lat="19.088943" lon="72.825210" /><trkpt lat="19.089076" lon="72.825220" /><trkpt lat="19.089210" lon="72.825229" /><trkpt lat="19.089344" lon="72.825239" /><trkpt lat="19.089478" lon="72.825248" /><trkpt lat="19.089611" lon="72.825258" /><trkpt lat="19.089745" lon="72.825268" /><trkpt lat="19.089879" lon="72.825277" /><trkpt lat="19.090013" lon="72.825287" /><trkpt lat="19.090146" lon="72.825296" /><trkpt lat="19.090280" lon="72.825306" /><trkpt lat="19.090414" lon="72.825315" /><trkpt lat="19.090548" lon="72.825325" /><trkpt lat="19.090682" lon="72.825334" /><trkpt lat="19.090815" lon="72.825344" /><trkpt lat="19.090949" lon="72.825354" /><trkpt lat="19.091083" lon="72.825363" /><trkpt lat="19.091217" lon="72.825373" /><trkpt lat="19.091350" lon="72.825382" /><trkpt lat="19.091484" lon="72.825392" /><trkpt lat="19.091618" lon="72.825401" /><trkpt lat="19.091752" lon="72.825411" /><trkpt lat="19.091885" lon="72.825420" /><trkpt lat="19.092019" lon="72.825430" /><trkpt lat="19.092153" lon="72.825439" /><trkpt lat="19.092287" lon="72.825449" /><trkpt lat="19.092420" lon="72.825459" /><trkpt lat="19.092554" lon="72.825468" /><trkpt lat="19.092688" lon="72.825478" /><trkpt lat="19.092822" lon="72.825487" /><trkpt lat="19.092955" lon="72.825497" /><trkpt lat="19.093089" lon="72.825506" /><trkpt lat="19.093223" lon="72.825516" /><trkpt lat="19.093357" lon="72.825525" /><trkpt lat="19.093490" lon="72.825535" /><trkpt lat="19.093624" lon="72.825545" /><trkpt lat="19.093758" lon="72.825554" /><trkpt lat="19.093892" lon="72.825564" /><trkpt lat="19.094025" lon="72.825573" /><trkpt lat="19.094159" lon="72.825583" /><trkpt lat="19.094293" lon="72.825592" /><trkpt lat="19.094427" lon="72.825602" /><trkpt lat="19.094561" lon="72.825611" /><trkpt lat="19.094694" lon="72.825621" /><trkpt lat="19.094828" lon="72.825631" /><trkpt lat="19.094962" lon="72.825640" /><trkpt lat="19.095096" lon="72.825650" /><trkpt lat="19.095229" lon="72.825659" /><trkpt lat="19.095363" lon="72.825669" /><trkpt lat="19.095497" lon="72.825678" /><trkpt lat="19.095631" lon="72.825688" /><trkpt lat="19.095764" lon="72.825697" /><trkpt lat="19.095898" lon="72.825707" /><trkpt lat="19.096032" lon="72.825717" /><trkpt lat="19.096166" lon="72.825726" /><trkpt lat="19.096299" lon="72.825736" /><trkpt lat="19.096433" lon="72.825745" /><trkpt lat="19.096567" lon="72.825755" /><trkpt lat="19.096701" lon="72.825764" /><trkpt lat="19.096834" lon="72.825774" /><trkpt lat="19.096968" lon="72.825783" /><trkpt lat="19.097102" lon="72.825793" /><trkpt lat="19.097236" lon="72.825803" /><trkpt lat="19.097369" lon="72.825812" /><trkpt lat="19.097503" lon="72.825822" /><trkpt lat="19.097637" lon="72.825831" /><trkpt lat="19.097771" lon="72.825841" /><trkpt lat="19.097904" lon="72.825850" /><trkpt lat="19.098038" lon="72.825860" /><trkpt lat="19.098172" lon="72.825869" /><trkpt lat="19.098306" lon="72.825879" /><trkpt lat="19.098439" lon="72.825889" /><trkpt lat="19.098573" lon="72.825898" /><trkpt lat="19.098707" lon="72.825908" /><trkpt lat="19.098841" lon="72.825917" /><trkpt lat="19.098975" lon="72.825927" /><trkpt lat="19.099108" lon="72.825936" /><trkpt lat="19.099242" lon="72.825946" /><trkpt lat="19.099376" lon="72.825955" /><trkpt lat="19.099510" lon="72.825965" /><trkpt lat="19.099643" lon="72.825975" /><trkpt lat="19.099777" lon="72.825984" /><trkpt lat="19.099911" lon="72.825994" /><trkpt lat="19.100045" lon="72.826003" /><trkpt lat="19.100178" lon="72.826013" /><trkpt lat="19.100312" lon="72.826022" /><trkpt lat="19.100446" lon="72.826032" /><trkpt lat="19.100580" lon="72.826041" /><trkpt lat="19.100713" lon="72.826051" /><trkpt lat="19.100847" lon="72.826061" /><trkpt lat="19.100981" lon="72.826070" /><trkpt lat="19.101115" lon="72.826080" /><trkpt lat="19.101248" lon="72.826089" /><trkpt lat="19.101382" lon="72.826099" /><trkpt lat="19.101516" lon="72.826108" /><trkpt lat="19.101650" lon="72.826118" /><trkpt lat="19.101783" lon="72.826127" /><trkpt lat="19.101917" lon="72.826137" /><trkpt lat="19.102051" lon="72.826146" /><trkpt lat="19.102185" lon="72.826156" /><trkpt lat="19.102318" lon="72.826166" /><trkpt lat="19.102452" lon="72.826175" /><trkpt lat="19.102586" lon="72.826185" /><trkpt lat="19.102720" lon="72.826194" /><trkpt lat="19.102854" lon="72.826204" /><trkpt lat="19.102987" lon="72.826213" /><trkpt lat="19.103121" lon="72.826223" /><trkpt lat="19.103255" lon="72.826232" /><trkpt lat="19.103389" lon="72.826242" /><trkpt lat="19.103522" lon="72.826252" /><trkpt lat="19.103656" lon="72.826261" /><trkpt lat="19.103790" lon="72.826271" /><trkpt lat="19.103924" lon="72.826280" /><trkpt lat="19.104057" lon="72.826290" /><trkpt lat="19.104191" lon="72.826299" /><trkpt lat="19.104325" lon="72.826309" /><trkpt lat="19.104459" lon="72.826318" /><trkpt lat="19.104592" lon="72.826328" /><trkpt lat="19.104726" lon="72.826338" /><trkpt lat="19.104860" lon="72.826347" /><trkpt lat="19.104994" lon="72.826357" /><trkpt lat="19.105127" lon="72.826366" /><trkpt lat="19.105261" lon="72.826376" /><trkpt lat="19.105395" lon="72.826385" /><trkpt lat="19.105529" lon="72.826395" /><trkpt lat="19.105662" lon="72.826404" /><trkpt lat="19.105796" lon="72.826414" /><trkpt lat="19.105930" lon="72.826424" /><trkpt lat="19.106064" lon="72.826433" /><trkpt lat="19.106197" lon="72.826443" /><trkpt lat="19.106331" lon="72.826452" /><trkpt lat="19.106465" lon="72.826462" /><trkpt lat="19.106599" lon="72.826471" /><trkpt lat="19.106732" lon="72.826481" /><trkpt lat="19.106866" lon="72.826490" /><trkpt lat="19.107000" lon="72.826500" /></trkseg></trk></gpx>