<?xml version="1.0" encoding="UTF-8"?>
<gpx version="1.1" creator="greatruns-mapmyrun">
<trk><name>mumbai_marine_drive</name><trkseg>
<trkpt lat="18.955800" lon="72.809430"></trkpt>
<trkpt lat="18.955910" lon="72.809910"></trkpt>
<trkpt lat="18.955940" lon="72.810470"></trkpt>
<trkpt lat="18.955940" lon="72.810930"></trkpt>
<trkpt lat="18.955930" lon="72.810970"></trkpt>
<trkpt lat="18.955930" lon="72.810970"></trkpt>
<trkpt lat="18.955850" lon="72.811430"></trkpt>
<trkpt lat="18.955700" lon="72.812030"></trkpt>
<trkpt lat="18.955520" lon="72.812530"></trkpt>
<trkpt lat="18.955520" lon="72.812530"></trkpt>
<trkpt lat="18.955290" lon="72.813150"></trkpt>
<trkpt lat="18.955040" lon="72.813630"></trkpt>
<trkpt lat="18.954880" lon="72.813900"></trkpt>
<trkpt lat="18.954720" lon="72.814190"></trkpt>
<trkpt lat="18.954560" lon="72.814420"></trkpt>
<trkpt lat="18.954560" lon="72.814420"></trkpt>
<trkpt lat="18.954370" lon="72.814690"></trkpt>
<trkpt lat="18.954160" lon="72.814930"></trkpt>
<trkpt lat="18.953980" lon="72.815150"></trkpt>
<trkpt lat="18.953980" lon="72.815150"></trkpt>
<trkpt lat="18.953850" lon="72.815240"></trkpt>
<trkpt lat="18.953690" lon="72.815290"></trkpt>
<trkpt lat="18.953540" lon="72.815310"></trkpt>
<trkpt lat="18.953300" lon="72.815470"></trkpt>
<trkpt lat="18.953180" lon="72.815580"></trkpt>
<trkpt lat="18.953040" lon="72.815750"></trkpt>
<trkpt lat="18.952800" lon="72.815970"></trkpt>
<trkpt lat="18.952800" lon="72.815970"></trkpt>
<trkpt lat="18.952060" lon="72.816620"></trkpt>
<trkpt lat="18.951820" lon="72.816870"></trkpt>
<trkpt lat="18.951310" lon="72.817330"></trkpt>
<trkpt lat="18.951100" lon="72.817520"></trkpt>
<trkpt lat="18.951100" lon="72.817520"></trkpt>
<trkpt lat="18.949300" lon="72.819110"></trkpt>
<trkpt lat="18.949300" lon="72.819110"></trkpt>
<trkpt lat="18.947840" lon="72.820310"></trkpt>
<trkpt lat="18.946380" lon="72.821370"></trkpt>
<trkpt lat="18.945680" lon="72.821800"></trkpt>
<trkpt lat="18.944750" lon="72.822320"></trkpt>
<trkpt lat="18.943870" lon="72.822750"></trkpt>
<trkpt lat="18.942560" lon="72.823260"></trkpt>
<trkpt lat="18.941580" lon="72.823550"></trkpt>
<trkpt lat="18.940670" lon="72.823770"></trkpt>
<trkpt lat="18.939830" lon="72.823930"></trkpt>
<trkpt lat="18.938700" lon="72.824010"></trkpt>
<trkpt lat="18.937630" lon="72.824050"></trkpt>
<trkpt lat="18.936360" lon="72.823970"></trkpt>
<trkpt lat="18.934660" lon="72.823710"></trkpt>
<trkpt lat="18.934210" lon="72.823610"></trkpt>
<trkpt lat="18.933770" lon="72.823500"></trkpt>
<trkpt lat="18.932960" lon="72.823240"></trkpt>
<trkpt lat="18.931630" lon="72.822730"></trkpt>
<trkpt lat="18.931630" lon="72.822730"></trkpt>
<trkpt lat="18.931110" lon="72.822490"></trkpt>
<trkpt lat="18.930380" lon="72.822110"></trkpt>
<trkpt lat="18.929660" lon="72.821650"></trkpt>
<trkpt lat="18.929060" lon="72.821250"></trkpt>
<trkpt lat="18.928620" lon="72.820920"></trkpt>
<trkpt lat="18.927940" lon="72.820360"></trkpt>
<trkpt lat="18.927280" lon="72.819790"></trkpt>
<trkpt lat="18.925470" lon="72.818140"></trkpt>
</trkseg></trk>
</gpx>
