<?xml version="1.0" encoding="UTF-8"?>
<gpx version="1.1" creator="greatruns-mapmyrun">
<trk><name>mumbai_bandra_soul</name><trkseg>
<trkpt lat="19.065890" lon="72.823170"></trkpt>
<trkpt lat="19.065590" lon="72.823220"></trkpt>
<trkpt lat="19.065300" lon="72.823240"></trkpt>
<trkpt lat="19.064900" lon="72.823210"></trkpt>
<trkpt lat="19.064610" lon="72.823160"></trkpt>
<trkpt lat="19.064170" lon="72.822980"></trkpt>
<trkpt lat="19.063780" lon="72.822800"></trkpt>
<trkpt lat="19.063100" lon="72.822590"></trkpt>
<trkpt lat="19.062740" lon="72.822480"></trkpt>
<trkpt lat="19.062150" lon="72.822360"></trkpt>
<trkpt lat="19.061500" lon="72.822200"></trkpt>
<trkpt lat="19.061140" lon="72.822160"></trkpt>
<trkpt lat="19.060970" lon="72.822200"></trkpt>
<trkpt lat="19.060790" lon="72.822290"></trkpt>
<trkpt lat="19.060700" lon="72.822370"></trkpt>
<trkpt lat="19.060630" lon="72.822430"></trkpt>
<trkpt lat="19.060550" lon="72.822380"></trkpt>
<trkpt lat="19.060450" lon="72.822330"></trkpt>
<trkpt lat="19.060450" lon="72.822340"></trkpt>
<trkpt lat="19.060150" lon="72.822200"></trkpt>
<trkpt lat="19.060150" lon="72.822200"></trkpt>
<trkpt lat="19.060113" lon="72.822015"></trkpt>
<trkpt lat="19.060113" lon="72.822015"></trkpt>
<trkpt lat="19.060200" lon="72.821392"></trkpt>
<trkpt lat="19.060200" lon="72.821392"></trkpt>
<trkpt lat="19.059941" lon="72.821237"></trkpt>
<trkpt lat="19.059941" lon="72.821237"></trkpt>
<trkpt lat="19.059556" lon="72.821087"></trkpt>
<trkpt lat="19.059556" lon="72.821087"></trkpt>
<trkpt lat="19.059267" lon="72.820904"></trkpt>
<trkpt lat="19.059267" lon="72.820904"></trkpt>
<trkpt lat="19.059114" lon="72.820936"></trkpt>
<trkpt lat="19.059114" lon="72.820936"></trkpt>
<trkpt lat="19.058891" lon="72.820995"></trkpt>
<trkpt lat="19.058891" lon="72.820995"></trkpt>
<trkpt lat="19.058815" lon="72.821210"></trkpt>
<trkpt lat="19.058815" lon="72.821210"></trkpt>
<trkpt lat="19.058810" lon="72.821392"></trkpt>
<trkpt lat="19.058810" lon="72.821392"></trkpt>
<trkpt lat="19.059125" lon="72.821564"></trkpt>
<trkpt lat="19.059125" lon="72.821564"></trkpt>
<trkpt lat="19.059490" lon="72.821773"></trkpt>
<trkpt lat="19.059490" lon="72.821773"></trkpt>
<trkpt lat="19.059850" lon="72.821924"></trkpt>
<trkpt lat="19.059850" lon="72.821924"></trkpt>
<trkpt lat="19.060058" lon="72.822058"></trkpt>
<trkpt lat="19.060058" lon="72.822058"></trkpt>
<trkpt lat="19.059982" lon="72.822143"></trkpt>
<trkpt lat="19.059990" lon="72.822130"></trkpt>
<trkpt lat="19.059350" lon="72.821840"></trkpt>
<trkpt lat="19.059030" lon="72.821710"></trkpt>
<trkpt lat="19.058880" lon="72.821750"></trkpt>
<trkpt lat="19.058880" lon="72.821750"></trkpt>
<trkpt lat="19.058640" lon="72.821810"></trkpt>
<trkpt lat="19.058430" lon="72.821900"></trkpt>
<trkpt lat="19.058350" lon="72.821980"></trkpt>
<trkpt lat="19.058330" lon="72.822190"></trkpt>
<trkpt lat="19.058370" lon="72.822380"></trkpt>
<trkpt lat="19.058410" lon="72.822460"></trkpt>
<trkpt lat="19.058620" lon="72.822820"></trkpt>
<trkpt lat="19.058470" lon="72.822940"></trkpt>
<trkpt lat="19.058440" lon="72.822980"></trkpt>
<trkpt lat="19.058440" lon="72.822980"></trkpt>
<trkpt lat="19.058310" lon="72.823130"></trkpt>
<trkpt lat="19.058130" lon="72.823410"></trkpt>
<trkpt lat="19.057970" lon="72.823560"></trkpt>
<trkpt lat="19.057840" lon="72.823720"></trkpt>
<trkpt lat="19.057740" lon="72.823720"></trkpt>
<trkpt lat="19.057600" lon="72.823750"></trkpt>
<trkpt lat="19.057160" lon="72.824010"></trkpt>
<trkpt lat="19.056900" lon="72.824140"></trkpt>
<trkpt lat="19.056900" lon="72.824140"></trkpt>
<trkpt lat="19.056640" lon="72.824240"></trkpt>
<trkpt lat="19.056190" lon="72.824380"></trkpt>
<trkpt lat="19.055880" lon="72.824440"></trkpt>
<trkpt lat="19.055470" lon="72.824540"></trkpt>
<trkpt lat="19.055320" lon="72.824620"></trkpt>
<trkpt lat="19.055260" lon="72.824700"></trkpt>
<trkpt lat="19.055230" lon="72.824820"></trkpt>
<trkpt lat="19.055160" lon="72.825230"></trkpt>
<trkpt lat="19.055160" lon="72.825230"></trkpt>
<trkpt lat="19.055150" lon="72.825270"></trkpt>
<trkpt lat="19.055030" lon="72.825310"></trkpt>
<trkpt lat="19.054740" lon="72.825380"></trkpt>
<trkpt lat="19.054680" lon="72.825050"></trkpt>
<trkpt lat="19.054620" lon="72.824860"></trkpt>
<trkpt lat="19.054520" lon="72.824710"></trkpt>
<trkpt lat="19.054400" lon="72.824610"></trkpt>
<trkpt lat="19.054240" lon="72.824530"></trkpt>
<trkpt lat="19.054240" lon="72.824530"></trkpt>
<trkpt lat="19.054170" lon="72.824490"></trkpt>
<trkpt lat="19.054240" lon="72.824050"></trkpt>
<trkpt lat="19.054260" lon="72.823790"></trkpt>
<trkpt lat="19.054270" lon="72.823380"></trkpt>
<trkpt lat="19.054300" lon="72.823350"></trkpt>
<trkpt lat="19.054300" lon="72.823350"></trkpt>
<trkpt lat="19.054380" lon="72.823280"></trkpt>
<trkpt lat="19.054390" lon="72.823230"></trkpt>
<trkpt lat="19.054300" lon="72.822950"></trkpt>
<trkpt lat="19.054200" lon="72.822740"></trkpt>
<trkpt lat="19.054050" lon="72.822560"></trkpt>
<trkpt lat="19.053880" lon="72.822400"></trkpt>
<trkpt lat="19.053660" lon="72.822260"></trkpt>
<trkpt lat="19.053380" lon="72.822140"></trkpt>
<trkpt lat="19.053290" lon="72.822030"></trkpt>
<trkpt lat="19.052890" lon="72.821860"></trkpt>
<trkpt lat="19.052740" lon="72.821830"></trkpt>
<trkpt lat="19.052520" lon="72.821710"></trkpt>
<trkpt lat="19.052050" lon="72.821620"></trkpt>
<trkpt lat="19.051700" lon="72.821600"></trkpt>
<trkpt lat="19.051320" lon="72.821500"></trkpt>
<trkpt lat="19.050920" lon="72.821520"></trkpt>
<trkpt lat="19.050580" lon="72.821430"></trkpt>
<trkpt lat="19.050340" lon="72.821300"></trkpt>
<trkpt lat="19.050340" lon="72.821300"></trkpt>
<trkpt lat="19.049840" lon="72.820970"></trkpt>
<trkpt lat="19.049350" lon="72.820660"></trkpt>
<trkpt lat="19.049030" lon="72.820490"></trkpt>
<trkpt lat="19.048850" lon="72.820420"></trkpt>
<trkpt lat="19.048520" lon="72.820270"></trkpt>
<trkpt lat="19.047500" lon="72.819840"></trkpt>
<trkpt lat="19.047500" lon="72.819840"></trkpt>
<trkpt lat="19.047220" lon="72.819740"></trkpt>
<trkpt lat="19.046720" lon="72.819620"></trkpt>
<trkpt lat="19.046690" lon="72.819630"></trkpt>
<trkpt lat="19.046650" lon="72.819670"></trkpt>
<trkpt lat="19.046650" lon="72.819670"></trkpt>
<trkpt lat="19.046630" lon="72.819710"></trkpt>
<trkpt lat="19.046400" lon="72.819700"></trkpt>
<trkpt lat="19.045510" lon="72.819380"></trkpt>
<trkpt lat="19.044680" lon="72.819060"></trkpt>
<trkpt lat="19.044280" lon="72.818830"></trkpt>
<trkpt lat="19.042990" lon="72.818570"></trkpt>
<trkpt lat="19.042740" lon="72.818540"></trkpt>
<trkpt lat="19.042380" lon="72.818490"></trkpt>
<trkpt lat="19.042360" lon="72.818510"></trkpt>
</trkseg></trk>
</gpx>
