<?xml version='1.0' encoding='utf-8'?>
<gpx version="1.1" creator="RunCast" xmlns="http://www.topografix.com/GPX/1/1"><trk><name>mumbai_danda_versova</name><trkseg><trkpt lat="19.072800" lon="72.835300" /><trkpt lat="19.072927" lon="72.835255" /><trkpt lat="19.073054" lon="72.835210" /><trkpt lat="19.073181" lon="72.835166" /><trkpt lat="19.073308" lon="72.835121" /><trkpt lat="19.073435" lon="72.835076" /><trkpt lat="19.073563" lon="72.835031" /><trkpt lat="19.073690" lon="72.834986" /><trkpt lat="19.073817" lon="72.834942" /><trkpt lat="19.073944" lon="72.834897" /><trkpt lat="19.074071" lon="72.834852" /><trkpt lat="19.074198" lon="72.834807" /><trkpt lat="19.074325" lon="72.834763" /><trkpt lat="19.074452" lon="72.834718" /><trkpt lat="19.074579" lon="72.834673" /><trkpt lat="19.074706" lon="72.834628" /><trkpt lat="19.074833" lon="72.834583" /><trkpt lat="19.074960" lon="72.834539" /><trkpt lat="19.075088" lon="72.834494" /><trkpt lat="19.075215" lon="72.834449" /><trkpt lat="19.075342" lon="72.834404" /><trkpt lat="19.075469" lon="72.834359" /><trkpt lat="19.075596" lon="72.834315" /><trkpt lat="19.075723" lon="72.834270" /><trkpt lat="19.075850" lon="72.834225" /><trkpt lat="19.075977" lon="72.834180" /><trkpt lat="19.076104" lon="72.834135" /><trkpt lat="19.076231" lon="72.834091" /><trkpt lat="19.076358" lon="72.834046" /><trkpt lat="19.076485" lon="72.834001" /><trkpt lat="19.076612" lon="72.833956" /><trkpt lat="19.076740" lon="72.833911" /><trkpt lat="19.076867" lon="72.833867" /><trkpt lat="19.076994" lon="72.833822" /><trkpt lat="19.077121" lon="72.833777" /><trkpt lat="19.077248" lon="72.833732" /><trkpt lat="19.077375" lon="72.833687" /><trkpt lat="19.077502" lon="72.833643" /><trkpt lat="19.077629" lon="72.833598" /><trkpt lat="19.077756" lon="72.833553" /><trkpt lat="19.077883" lon="72.833508" /><trkpt lat="19.078010" lon="72.833464" /><trkpt lat="19.078138" lon="72.833419" /><trkpt lat="19.078265" lon="72.833374" /><trkpt lat="19.078392" lon="72.833329" /><trkpt lat="19.078519" lon="72.833284" /><trkpt lat="19.078646" lon="72.833240" /><trkpt lat="19.078773" lon="72.833195" /><trkpt lat="19.078900" lon="72.833150" /><trkpt lat="19.079027" lon="72.833105" /><trkpt lat="19.079154" lon="72.833060" /><trkpt lat="19.079281" lon="72.833016" /><trkpt lat="19.079408" lon="72.832971" /><trkpt lat="19.079535" lon="72.832926" /><trkpt lat="19.079663" lon="72.832881" /><trkpt lat="19.079790" lon="72.832836" /><trkpt lat="19.079917" lon="72.832792" /><trkpt lat="19.080044" lon="72.832747" /><trkpt lat="19.080171" lon="72.832702" /><trkpt lat="19.080298" lon="72.832657" /><trkpt lat="19.080425" lon="72.832613" /><trkpt lat="19.080552" lon="72.832568" /><trkpt lat="19.080679" lon="72.832523" /><trkpt lat="19.080806" lon="72.832478" /><trkpt lat="19.080933" lon="72.832433" /><trkpt lat="19.081060" lon="72.832389" /><trkpt lat="19.081188" lon="72.832344" /><trkpt lat="19.081315" lon="72.832299" /><trkpt lat="19.081442" lon="72.832254" /><trkpt lat="19.081569" lon="72.832209" /><trkpt lat="19.081696" lon="72.832165" /><trkpt lat="19.081823" lon="72.832120" /><trkpt lat="19.081950" lon="72.832075" /><trkpt lat="19.082077" lon="72.832030" /><trkpt lat="19.082204" lon="72.831985" /><trkpt lat="19.082331" lon="72.831941" /><trkpt lat="19.082458" lon="72.831896" /><trkpt lat="19.082585" lon="72.831851" /><trkpt lat="19.082712" lon="72.831806" /><trkpt lat="19.082840" lon="72.831761" /><trkpt lat="19.082967" lon="72.831717" /><trkpt lat="19.083094" lon="72.831672" /><trkpt lat="19.083221" lon="72.831627" /><trkpt lat="19.083348" lon="72.831582" /><trkpt lat="19.083475" lon="72.831537" /><trkpt lat="19.083602" lon="72.831493" /><trkpt lat="19.083729" lon="72.831448" /><trkpt lat="19.083856" lon="72.831403" /><trkpt lat="19.083983" lon="72.831358" /><trkpt lat="19.084110" lon="72.831314" /><trkpt lat="19.084238" lon="72.831269" /><trkpt lat="19.084365" lon="72.831224" /><trkpt lat="19.084492" lon="72.831179" /><trkpt lat="19.084619" lon="72.831134" /><trkpt lat="19.084746" lon="72.831090" /><trkpt lat="19.084873" lon="72.831045" /><trkpt lat="19.085000" lon="72.831000" /><trkpt lat="19.085131" lon="72.830970" /><trkpt lat="19.085263" lon="72.830939" /><trkpt lat="19.085394" lon="72.830909" /><trkpt lat="19.085525" lon="72.830879" /><trkpt lat="19.085657" lon="72.830848" /><trkpt lat="19.085788" lon="72.830818" /><trkpt lat="19.085919" lon="72.830788" /><trkpt lat="19.086051" lon="72.830758" /><trkpt lat="19.086182" lon="72.830727" /><trkpt lat="19.086313" lon="72.830697" /><trkpt lat="19.086444" lon="72.830667" /><trkpt lat="19.086576" lon="72.830636" /><trkpt lat="19.086707" lon="72.830606" /><trkpt lat="19.086838" lon="72.830576" /><trkpt lat="19.086970" lon="72.830545" /><trkpt lat="19.087101" lon="72.830515" /><trkpt lat="19.087232" lon="72.830485" /><trkpt lat="19.087364" lon="72.830455" /><trkpt lat="19.087495" lon="72.830424" /><trkpt lat="19.087626" lon="72.830394" /><trkpt lat="19.087758" lon="72.830364" /><trkpt lat="19.087889" lon="72.830333" /><trkpt lat="19.088020" lon="72.830303" /><trkpt lat="19.088152" lon="72.830273" /><trkpt lat="19.088283" lon="72.830242" /><trkpt lat="19.088414" lon="72.830212" /><trkpt lat="19.088545" lon="72.830182" /><trkpt lat="19.088677" lon="72.830152" /><trkpt lat="19.088808" lon="72.830121" /><trkpt lat="19.088939" lon="72.830091" /><trkpt lat="19.089071" lon="72.830061" /><trkpt lat="19.089202" lon="72.830030" /><trkpt lat="19.089333" lon="72.830000" /><trkpt lat="19.089465" lon="72.829970" /><trkpt lat="19.089596" lon="72.829939" /><trkpt lat="19.089727" lon="72.829909" /><trkpt lat="19.089859" lon="72.829879" /><trkpt lat="19.089990" lon="72.829848" /><trkpt lat="19.090121" lon="72.829818" /><trkpt lat="19.090253" lon="72.829788" /><trkpt lat="19.090384" lon="72.829758" /><trkpt lat="19.090515" lon="72.829727" /><trkpt lat="19.090646" lon="72.829697" /><trkpt lat="19.090778" lon="72.829667" /><trkpt lat="19.090909" lon="72.829636" /><trkpt lat="19.091040" lon="72.829606" /><trkpt lat="19.091172" lon="72.829576" /><trkpt lat="19.091303" lon="72.829545" /><trkpt lat="19.091434" lon="72.829515" /><trkpt lat="19.091566" lon="72.829485" /><trkpt lat="19.091697" lon="72.829455" /><trkpt lat="19.091828" lon="72.829424" /><trkpt lat="19.091960" lon="72.829394" /><trkpt lat="19.092091" lon="72.829364" /><trkpt lat="19.092222" lon="72.829333" /><trkpt lat="19.092354" lon="72.829303" /><trkpt lat="19.092485" lon="72.829273" /><trkpt lat="19.092616" lon="72.829242" /><trkpt lat="19.092747" lon="72.829212" /><trkpt lat="19.092879" lon="72.829182" /><trkpt lat="19.093010" lon="72.829152" /><trkpt lat="19.093141" lon="72.829121" /><trkpt lat="19.093273" lon="72.829091" /><trkpt lat="19.093404" lon="72.829061" /><trkpt lat="19.093535" lon="72.829030" /><trkpt lat="19.093667" lon="72.829000" /><trkpt lat="19.093798" lon="72.828970" /><trkpt lat="19.093929" lon="72.828939" /><trkpt lat="19.094061" lon="72.828909" /><trkpt lat="19.094192" lon="72.828879" /><trkpt lat="19.094323" lon="72.828848" /><trkpt lat="19.094455" lon="72.828818" /><trkpt lat="19.094586" lon="72.828788" /><trkpt lat="19.094717" lon="72.828758" /><trkpt lat="19.094848" lon="72.828727" /><trkpt lat="19.094980" lon="72.828697" /><trkpt lat="19.095111" lon="72.828667" /><trkpt lat="19.095242" lon="72.828636" /><trkpt lat="19.095374" lon="72.828606" /><trkpt lat="19.095505" lon="72.828576" /><trkpt lat="19.095636" lon="72.828545" /><trkpt lat="19.095768" lon="72.828515" /><trkpt lat="19.095899" lon="72.828485" /><trkpt lat="19.096030" lon="72.828455" /><trkpt lat="19.096162" lon="72.828424" /><trkpt lat="19.096293" lon="72.828394" /><trkpt lat="19.096424" lon="72.828364" /><trkpt lat="19.096556" lon="72.828333" /><trkpt lat="19.096687" lon="72.828303" /><trkpt lat="19.096818" lon="72.828273" /><trkpt lat="19.096949" lon="72.828242" /><trkpt lat="19.097081" lon="72.828212" /><trkpt lat="19.097212" lon="72.828182" /><trkpt lat="19.097343" lon="72.828152" /><trkpt lat="19.097475" lon="72.828121" /><trkpt lat="19.097606" lon="72.828091" /><trkpt lat="19.097737" lon="72.828061" /><trkpt lat="19.097869" lon="72.828030" /><trkpt lat="19.098000" lon="72.828000" /><trkpt lat="19.098002" lon="72.827822" /><trkpt lat="19.098004" lon="72.827644" /><trkpt lat="19.098007" lon="72.827466" /><trkpt lat="19.098009" lon="72.827288" /><trkpt lat="19.098011" lon="72.827110" /><trkpt lat="19.098013" lon="72.826932" /><trkpt lat="19.098015" lon="72.826754" /><trkpt lat="19.098017" lon="72.826576" /><trkpt lat="19.098020" lon="72.826398" /><trkpt lat="19.098022" lon="72.826220" /><trkpt lat="19.098024" lon="72.826042" /><trkpt lat="19.098197" lon="72.825991" /><trkpt lat="19.098370" lon="72.825941" /><trkpt lat="19.098544" lon="72.825890" /><trkpt lat="19.098717" lon="72.825840" /><trkpt lat="19.098890" lon="72.825789" /><trkpt lat="19.099063" lon="72.825738" /><trkpt lat="19.099236" lon="72.825688" /><trkpt lat="19.099410" lon="72.825637" /><trkpt lat="19.099583" lon="72.825587" /><trkpt lat="19.099756" lon="72.825536" /><trkpt lat="19.099915" lon="72.825483" /><trkpt lat="19.100075" lon="72.825430" /><trkpt lat="19.100234" lon="72.825377" /><trkpt lat="19.100394" lon="72.825324" /><trkpt lat="19.100554" lon="72.825271" /><trkpt lat="19.100713" lon="72.825218" /><trkpt lat="19.100872" lon="72.825164" /><trkpt lat="19.101032" lon="72.825111" /><trkpt lat="19.101191" lon="72.825058" /><trkpt lat="19.101351" lon="72.825005" /><trkpt lat="19.101510" lon="72.824952" /><trkpt lat="19.101670" lon="72.824899" /><trkpt lat="19.101840" lon="72.824867" /><trkpt lat="19.102009" lon="72.824836" /><trkpt lat="19.102179" lon="72.824804" /><trkpt lat="19.102348" lon="72.824772" /><trkpt lat="19.102518" lon="72.824741" /><trkpt lat="19.102687" lon="72.824709" /><trkpt lat="19.102857" lon="72.824677" /><trkpt lat="19.103026" lon="72.824646" /><trkpt lat="19.103196" lon="72.824614" /><trkpt lat="19.103366" lon="72.824582" /><trkpt lat="19.103535" lon="72.824551" /><trkpt lat="19.103705" lon="72.824519" /><trkpt lat="19.103874" lon="72.824487" /><trkpt lat="19.104044" lon="72.824456" /><trkpt lat="19.104213" lon="72.824424" /><trkpt lat="19.104383" lon="72.824392" /><trkpt lat="19.104552" lon="72.824361" /><trkpt lat="19.104722" lon="72.824329" /><trkpt lat="19.104893" lon="72.824291" /><trkpt lat="19.105064" lon="72.824253" /><trkpt lat="19.105235" lon="72.824215" /><trkpt lat="19.105407" lon="72.824177" /><trkpt lat="19.105578" lon="72.824139" /><trkpt lat="19.105749" lon="72.824101" /><trkpt lat="19.105920" lon="72.824063" /><trkpt lat="19.106091" lon="72.824025" /><trkpt lat="19.106254" lon="72.823996" /><trkpt lat="19.106416" lon="72.823967" /><trkpt lat="19.106583" lon="72.823935" /><trkpt lat="19.106750" lon="72.823903" /><trkpt lat="19.106918" lon="72.823871" /><trkpt lat="19.107085" lon="72.823839" /><trkpt lat="19.107252" lon="72.823807" /><trkpt lat="19.107419" lon="72.823776" /><trkpt lat="19.107586" lon="72.823744" /><trkpt lat="19.107753" lon="72.823712" /><trkpt lat="19.107921" lon="72.823680" /><trkpt lat="19.108088" lon="72.823648" /><trkpt lat="19.108255" lon="72.823616" /><trkpt lat="19.108386" lon="72.823591" /><trkpt lat="19.108518" lon="72.823566" /><trkpt lat="19.108649" lon="72.823541" /><trkpt lat="19.108792" lon="72.823525" /><trkpt lat="19.108936" lon="72.823508" /><trkpt lat="19.109079" lon="72.823492" /><trkpt lat="19.109222" lon="72.823470" /><trkpt lat="19.109364" lon="72.823448" /><trkpt lat="19.109507" lon="72.823425" /><trkpt lat="19.109649" lon="72.823403" /><trkpt lat="19.109815" lon="72.823360" /><trkpt lat="19.109980" lon="72.823318" /><trkpt lat="19.110146" lon="72.823275" /><trkpt lat="19.110312" lon="72.823232" /><trkpt lat="19.110478" lon="72.823189" /><trkpt lat="19.110643" lon="72.823147" /><trkpt lat="19.110809" lon="72.823104" /><trkpt lat="19.110869" lon="72.823274" /><trkpt lat="19.110928" lon="72.823444" /><trkpt lat="19.110988" lon="72.823613" /><trkpt lat="19.111047" lon="72.823783" /><trkpt lat="19.111107" lon="72.823953" /><trkpt lat="19.111166" lon="72.824123" /><trkpt lat="19.111226" lon="72.824293" /><trkpt lat="19.111285" lon="72.824462" /><trkpt lat="19.111345" lon="72.824632" /><trkpt lat="19.111404" lon="72.824802" /><trkpt lat="19.111464" lon="72.824972" /><trkpt lat="19.111524" lon="72.825142" /><trkpt lat="19.111583" lon="72.825311" /><trkpt lat="19.111643" lon="72.825481" /><trkpt lat="19.111702" lon="72.825651" /><trkpt lat="19.111762" lon="72.825821" /><trkpt lat="19.111821" lon="72.825991" /><trkpt lat="19.111881" lon="72.826160" /><trkpt lat="19.111940" lon="72.826330" /><trkpt lat="19.112000" lon="72.826500" /><trkpt lat="19.111868" lon="72.826530" /><trkpt lat="19.111737" lon="72.826559" /><trkpt lat="19.111605" lon="72.826589" /><trkpt lat="19.111474" lon="72.826618" /><trkpt lat="19.111342" lon="72.826648" /><trkpt lat="19.111211" lon="72.826677" /><trkpt lat="19.111079" lon="72.826707" /><trkpt lat="19.110948" lon="72.826736" /><trkpt lat="19.110816" lon="72.826766" /><trkpt lat="19.110685" lon="72.826795" /><trkpt lat="19.110553" lon="72.826825" /><trkpt lat="19.110421" lon="72.826854" /><trkpt lat="19.110290" lon="72.826884" /><trkpt lat="19.110158" lon="72.826913" /><trkpt lat="19.110027" lon="72.826943" /><trkpt lat="19.109895" lon="72.826972" /><trkpt lat="19.109764" lon="72.827002" /><trkpt lat="19.109632" lon="72.827032" /><trkpt lat="19.109501" lon="72.827061" /><trkpt lat="19.109369" lon="72.827091" /><trkpt lat="19.109238" lon="72.827120" /><trkpt lat="19.109106" lon="72.827150" /><trkpt lat="19.108974" lon="72.827179" /><trkpt lat="19.108843" lon="72.827209" /><trkpt lat="19.108711" lon="72.827238" /><trkpt lat="19.108580" lon="72.827268" /><trkpt lat="19.108448" lon="72.827297" /><trkpt lat="19.108317" lon="72.827327" /><trkpt lat="19.108185" lon="72.827356" /><trkpt lat="19.108054" lon="72.827386" /><trkpt lat="19.107922" lon="72.827415" /><trkpt lat="19.107791" lon="72.827445" /><trkpt lat="19.107659" lon="72.827474" /><trkpt lat="19.107528" lon="72.827504" /><trkpt lat="19.107396" lon="72.827534" /><trkpt lat="19.107264" lon="72.827563" /><trkpt lat="19.107133" lon="72.827593" /><trkpt lat="19.107001" lon="72.827622" /><trkpt lat="19.106870" lon="72.827652" /><trkpt lat="19.106738" lon="72.827681" /><trkpt lat="19.106607" lon="72.827711" /><trkpt lat="19.106475" lon="72.827740" /><trkpt lat="19.106344" lon="72.827770" /><trkpt lat="19.106212" lon="72.827799" /><trkpt lat="19.106081" lon="72.827829" /><trkpt lat="19.105949" lon="72.827858" /><trkpt lat="19.105817" lon="72.827888" /><trkpt lat="19.105686" lon="72.827917" /><trkpt lat="19.105554" lon="72.827947" /><trkpt lat="19.105423" lon="72.827977" /><trkpt lat="19.105291" lon="72.828006" /><trkpt lat="19.105160" lon="72.828036" /><trkpt lat="19.105028" lon="72.828065" /><trkpt lat="19.104897" lon="72.828095" /><trkpt lat="19.104765" lon="72.828124" /><trkpt lat="19.104634" lon="72.828154" /><trkpt lat="19.104502" lon="72.828183" /><trkpt lat="19.104370" lon="72.828213" /><trkpt lat="19.104239" lon="72.828242" /><trkpt lat="19.104107" lon="72.828272" /><trkpt lat="19.103976" lon="72.828301" /><trkpt lat="19.103844" lon="72.828331" /><trkpt lat="19.103713" lon="72.828360" /><trkpt lat="19.103581" lon="72.828390" /><trkpt lat="19.103450" lon="72.828419" /><trkpt lat="19.103318" lon="72.828449" /><trkpt lat="19.103187" lon="72.828479" /><trkpt lat="19.103055" lon="72.828508" /><trkpt lat="19.102923" lon="72.828538" /><trkpt lat="19.102792" lon="72.828567" /><trkpt lat="19.102660" lon="72.828597" /><trkpt lat="19.102529" lon="72.828626" /><trkpt lat="19.102397" lon="72.828656" /><trkpt lat="19.102266" lon="72.828685" /><trkpt lat="19.102134" lon="72.828715" /><trkpt lat="19.102003" lon="72.828744" /><trkpt lat="19.101871" lon="72.828774" /><trkpt lat="19.101740" lon="72.828803" /><trkpt lat="19.101608" lon="72.828833" /><trkpt lat="19.101477" lon="72.828862" /><trkpt lat="19.101345" lon="72.828892" /><trkpt lat="19.101213" lon="72.828921" /><trkpt lat="19.101082" lon="72.828951" /><trkpt lat="19.100950" lon="72.828981" /><trkpt lat="19.100819" lon="72.829010" /><trkpt lat="19.100687" lon="72.829040" /><trkpt lat="19.100556" lon="72.829069" /><trkpt lat="19.100424" lon="72.829099" /><trkpt lat="19.100293" lon="72.829128" /><trkpt lat="19.100161" lon="72.829158" /><trkpt lat="19.100030" lon="72.829187" /><trkpt lat="19.099898" lon="72.829217" /><trkpt lat="19.099766" lon="72.829246" /><trkpt lat="19.099635" lon="72.829276" /><trkpt lat="19.099503" lon="72.829305" /><trkpt lat="19.099372" lon="72.829335" /><trkpt lat="19.099240" lon="72.829364" /><trkpt lat="19.099109" lon="72.829394" /><trkpt lat="19.098977" lon="72.829423" /><trkpt lat="19.098846" lon="72.829453" /><trkpt lat="19.098714" lon="72.829483" /><trkpt lat="19.098583" lon="72.829512" /><trkpt lat="19.098451" lon="72.829542" /><trkpt lat="19.098319" lon="72.829571" /><trkpt lat="19.098188" lon="72.829601" /><trkpt lat="19.098056" lon="72.829630" /><trkpt lat="19.097925" lon="72.829660" /><trkpt lat="19.097793" lon="72.829689" /><trkpt lat="19.097662" lon="72.829719" /><trkpt lat="19.097530" lon="72.829748" /><trkpt lat="19.097399" lon="72.829778" /><trkpt lat="19.097267" lon="72.829807" /><trkpt lat="19.097136" lon="72.829837" /><trkpt lat="19.097004" lon="72.829866" /><trkpt lat="19.096872" lon="72.829896" /><trkpt lat="19.096741" lon="72.829926" /><trkpt lat="19.096609" lon="72.829955" /><trkpt lat="19.096478" lon="72.829985" /><trkpt lat="19.096346" lon="72.830014" /><trkpt lat="19.096215" lon="72.830044" /><trkpt lat="19.096083" lon="72.830073" /><trkpt lat="19.095952" lon="72.830103" /><trkpt lat="19.095820" lon="72.830132" /><trkpt lat="19.095689" lon="72.830162" /><trkpt lat="19.095557" lon="72.830191" /><trkpt lat="19.095426" lon="72.830221" /><trkpt lat="19.095294" lon="72.830250" /><trkpt lat="19.095162" lon="72.830280" /><trkpt lat="19.095031" lon="72.830309" /><trkpt lat="19.094899" lon="72.830339" /><trkpt lat="19.094768" lon="72.830368" /><trkpt lat="19.094636" lon="72.830398" /><trkpt lat="19.094505" lon="72.830428" /><trkpt lat="19.094373" lon="72.830457" /><trkpt lat="19.094242" lon="72.830487" /><trkpt lat="19.094110" lon="72.830516" /><trkpt lat="19.093979" lon="72.830546" /><trkpt lat="19.093847" lon="72.830575" /><trkpt lat="19.093715" lon="72.830605" /><trkpt lat="19.093584" lon="72.830634" /><trkpt lat="19.093452" lon="72.830664" /><trkpt lat="19.093321" lon="72.830693" /><trkpt lat="19.093189" lon="72.830723" /><trkpt lat="19.093058" lon="72.830752" /><trkpt lat="19.092926" lon="72.830782" /><trkpt lat="19.092795" lon="72.830811" /><trkpt lat="19.092663" lon="72.830841" /><trkpt lat="19.092532" lon="72.830870" /><trkpt lat="19.092400" lon="72.830900" /><trkpt lat="19.092268" lon="72.830930" /><trkpt lat="19.092137" lon="72.830959" /><trkpt lat="19.092005" lon="72.830989" /><trkpt lat="19.091874" lon="72.831018" /><trkpt lat="19.091742" lon="72.831048" /><trkpt lat="19.091611" lon="72.831077" /><trkpt lat="19.091479" lon="72.831107" /><trkpt lat="19.091348" lon="72.831136" /><trkpt lat="19.091216" lon="72.831166" /><trkpt lat="19.091085" lon="72.831195" /><trkpt lat="19.090953" lon="72.831225" /><trkpt lat="19.090821" lon="72.831254" /><trkpt lat="19.090690" lon="72.831284" /><trkpt lat="19.090558" lon="72.831313" /><trkpt lat="19.090427" lon="72.831343" /><trkpt lat="19.090295" lon="72.831372" /><trkpt lat="19.090164" lon="72.831402" /><trkpt lat="19.090032" lon="72.831432" /><trkpt lat="19.089901" lon="72.831461" /><trkpt lat="19.089769" lon="72.831491" /><trkpt lat="19.089638" lon="72.831520" /><trkpt lat="19.089506" lon="72.831550" /><trkpt lat="19.089374" lon="72.831579" /><trkpt lat="19.089243" lon="72.831609" /><trkpt lat="19.089111" lon="72.831638" /><trkpt lat="19.088980" lon="72.831668" /><trkpt lat="19.088848" lon="72.831697" /><trkpt lat="19.088717" lon="72.831727" /><trkpt lat="19.088585" lon="72.831756" /><trkpt lat="19.088454" lon="72.831786" /><trkpt lat="19.088322" lon="72.831815" /><trkpt lat="19.088191" lon="72.831845" /><trkpt lat="19.088059" lon="72.831874" /><trkpt lat="19.087928" lon="72.831904" /><trkpt lat="19.087796" lon="72.831934" /><trkpt lat="19.087664" lon="72.831963" /><trkpt lat="19.087533" lon="72.831993" /><trkpt lat="19.087401" lon="72.832022" /><trkpt lat="19.087270" lon="72.832052" /><trkpt lat="19.087138" lon="72.832081" /><trkpt lat="19.087007" lon="72.832111" /><trkpt lat="19.086875" lon="72.832140" /><trkpt lat="19.086744" lon="72.832170" /><trkpt lat="19.086612" lon="72.832199" /><trkpt lat="19.086481" lon="72.832229" /><trkpt lat="19.086349" lon="72.832258" /><trkpt lat="19.086217" lon="72.832288" /><trkpt lat="19.086086" lon="72.832317" /><trkpt lat="19.085954" lon="72.832347" /><trkpt lat="19.085823" lon="72.832377" /><trkpt lat="19.085691" lon="72.832406" /><trkpt lat="19.085560" lon="72.832436" /><trkpt lat="19.085428" lon="72.832465" /><trkpt lat="19.085297" lon="72.832495" /><trkpt lat="19.085165" lon="72.832524" /><trkpt lat="19.085034" lon="72.832554" /><trkpt lat="19.084902" lon="72.832583" /><trkpt lat="19.084770" lon="72.832613" /><trkpt lat="19.084639" lon="72.832642" /><trkpt lat="19.084507" lon="72.832672" /><trkpt lat="19.084376" lon="72.832701" /><trkpt lat="19.084244" lon="72.832731" /><trkpt lat="19.084113" lon="72.832760" /><trkpt lat="19.083981" lon="72.832790" /><trkpt lat="19.083850" lon="72.832819" /><trkpt lat="19.083718" lon="72.832849" /><trkpt lat="19.083587" lon="72.832879" /><trkpt lat="19.083455" lon="72.832908" /><trkpt lat="19.083323" lon="72.832938" /><trkpt lat="19.083192" lon="72.832967" /><trkpt lat="19.083060" lon="72.832997" /><trkpt lat="19.082929" lon="72.833026" /><trkpt lat="19.082797" lon="72.833056" /><trkpt lat="19.082666" lon="72.833085" /><trkpt lat="19.082534" lon="72.833115" /><trkpt lat="19.082403" lon="72.833144" /><trkpt lat="19.082271" lon="72.833174" /><trkpt lat="19.082140" lon="72.833203" /><trkpt lat="19.082008" lon="72.833233" /><trkpt lat="19.081877" lon="72.833262" /><trkpt lat="19.081745" lon="72.833292" /><trkpt lat="19.081613" lon="72.833321" /><trkpt lat="19.081482" lon="72.833351" /><trkpt lat="19.081350" lon="72.833381" /><trkpt lat="19.081219" lon="72.833410" /><trkpt lat="19.081087" lon="72.833440" /><trkpt lat="19.080956" lon="72.833469" /><trkpt lat="19.080824" lon="72.833499" /><trkpt lat="19.080693" lon="72.833528" /><trkpt lat="19.080561" lon="72.833558" /><trkpt lat="19.080430" lon="72.833587" /><trkpt lat="19.080298" lon="72.833617" /><trkpt lat="19.080166" lon="72.833646" /><trkpt lat="19.080035" lon="72.833676" /><trkpt lat="19.079903" lon="72.833705" /><trkpt lat="19.079772" lon="72.833735" /><trkpt lat="19.079640" lon="72.833764" /><trkpt lat="19.079509" lon="72.833794" /><trkpt lat="19.079377" lon="72.833823" /><trkpt lat="19.079246" lon="72.833853" /><trkpt lat="19.079114" lon="72.833883" /><trkpt lat="19.078983" lon="72.833912" /><trkpt lat="19.078851" lon="72.833942" /><trkpt lat="19.078719" lon="72.833971" /><trkpt lat="19.078588" lon="72.834001" /><trkpt lat="19.078456" lon="72.834030" /><trkpt lat="19.078325" lon="72.834060" /><trkpt lat="19.078193" lon="72.834089" /><trkpt lat="19.078062" lon="72.834119" /><trkpt lat="19.077930" lon="72.834148" /><trkpt lat="19.077799" lon="72.834178" /><trkpt lat="19.077667" lon="72.834207" /><trkpt lat="19.077536" lon="72.834237" /><trkpt lat="19.077404" lon="72.834266" /><trkpt lat="19.077272" lon="72.834296" /><trkpt lat="19.077141" lon="72.834326" /><trkpt lat="19.077009" lon="72.834355" /><trkpt lat="19.076878" lon="72.834385" /><trkpt lat="19.076746" lon="72.834414" /><trkpt lat="19.076615" lon="72.834444" /><trkpt lat="19.076483" lon="72.834473" /><trkpt lat="19.076352" lon="72.834503" /><trkpt lat="19.076220" lon="72.834532" /><trkpt lat="19.076089" lon="72.834562" /><trkpt lat="19.075957" lon="72.834591" /><trkpt lat="19.075826" lon="72.834621" /><trkpt lat="19.075694" lon="72.834650" /><trkpt lat="19.075562" lon="72.834680" /><trkpt lat="19.075431" lon="72.834709" /><trkpt lat="19.075299" lon="72.834739" /><trkpt lat="19.075168" lon="72.834768" /><trkpt lat="19.075036" lon="72.834798" /><trkpt lat="19.074905" lon="72.834828" /><trkpt lat="19.074773" lon="72.834857" /><trkpt lat="19.074642" lon="72.834887" /><trkpt lat="19.074510" lon="72.834916" /><trkpt lat="19.074379" lon="72.834946" /><trkpt lat="19.074247" lon="72.834975" /><trkpt lat="19.074115" lon="72.835005" /><trkpt lat="19.073984" lon="72.835034" /><trkpt lat="19.073852" lon="72.835064" /><trkpt lat="19.073721" lon="72.835093" /><trkpt lat="19.073589" lon="72.835123" /><trkpt lat="19.073458" lon="72.835152" /><trkpt lat="19.073326" lon="72.835182" /><trkpt lat="19.073195" lon="72.835211" /><trkpt lat="19.073063" lon="72.835241" /><trkpt lat="19.072932" lon="72.835270" /><trkpt lat="19.072800" lon="72.835300" /></trkseg></trk></gpx>