<?xml version="1.0" encoding="UTF-8"?>
<gpx version="1.1" creator="greatruns-mapmyrun">
<trk><name>mumbai_palm_beach_navi</name><trkseg>
<trkpt lat="19.047630" lon="73.008420"></trkpt>
<trkpt lat="19.044160" lon="73.008230"></trkpt>
<trkpt lat="19.044000" lon="73.008220"></trkpt>
<trkpt lat="19.043990" lon="73.008500"></trkpt>
<trkpt lat="19.043980" lon="73.008560"></trkpt>
<trkpt lat="19.043920" lon="73.008560"></trkpt>
<trkpt lat="19.042600" lon="73.008450"></trkpt>
<trkpt lat="19.042190" lon="73.008430"></trkpt>
<trkpt lat="19.042190" lon="73.008430"></trkpt>
<trkpt lat="19.032500" lon="73.007870"></trkpt>
<trkpt lat="19.032500" lon="73.007870"></trkpt>
<trkpt lat="19.032140" lon="73.007840"></trkpt>
<trkpt lat="19.032120" lon="73.008570"></trkpt>
<trkpt lat="19.032010" lon="73.008570"></trkpt>
<trkpt lat="19.031990" lon="73.009190"></trkpt>
<trkpt lat="19.031960" lon="73.009940"></trkpt>
<trkpt lat="19.031830" lon="73.009930"></trkpt>
<trkpt lat="19.031520" lon="73.009890"></trkpt>
<trkpt lat="19.031440" lon="73.009850"></trkpt>
<trkpt lat="19.031120" lon="73.009570"></trkpt>
<trkpt lat="19.031090" lon="73.009560"></trkpt>
<trkpt lat="19.031070" lon="73.009510"></trkpt>
<trkpt lat="19.030960" lon="73.009450"></trkpt>
<trkpt lat="19.030850" lon="73.009330"></trkpt>
<trkpt lat="19.030760" lon="73.009230"></trkpt>
<trkpt lat="19.030550" lon="73.009020"></trkpt>
<trkpt lat="19.030340" lon="73.008880"></trkpt>
<trkpt lat="19.030290" lon="73.008800"></trkpt>
<trkpt lat="19.030240" lon="73.008760"></trkpt>
<trkpt lat="19.030180" lon="73.008660"></trkpt>
<trkpt lat="19.030020" lon="73.008460"></trkpt>
<trkpt lat="19.029820" lon="73.008250"></trkpt>
<trkpt lat="19.029620" lon="73.008010"></trkpt>
<trkpt lat="19.029460" lon="73.007850"></trkpt>
<trkpt lat="19.029250" lon="73.007660"></trkpt>
<trkpt lat="19.029170" lon="73.007560"></trkpt>
<trkpt lat="19.029140" lon="73.007450"></trkpt>
<trkpt lat="19.029070" lon="73.007380"></trkpt>
<trkpt lat="19.029070" lon="73.007380"></trkpt>
<trkpt lat="19.028950" lon="73.007340"></trkpt>
<trkpt lat="19.028820" lon="73.007330"></trkpt>
<trkpt lat="19.028560" lon="73.007280"></trkpt>
<trkpt lat="19.028390" lon="73.007260"></trkpt>
<trkpt lat="19.028250" lon="73.007220"></trkpt>
<trkpt lat="19.028090" lon="73.007220"></trkpt>
<trkpt lat="19.027930" lon="73.007190"></trkpt>
<trkpt lat="19.027620" lon="73.007180"></trkpt>
<trkpt lat="19.027310" lon="73.007150"></trkpt>
<trkpt lat="19.027130" lon="73.007120"></trkpt>
<trkpt lat="19.027010" lon="73.007110"></trkpt>
<trkpt lat="19.026850" lon="73.007100"></trkpt>
<trkpt lat="19.026680" lon="73.007100"></trkpt>
<trkpt lat="19.026240" lon="73.007130"></trkpt>
<trkpt lat="19.026050" lon="73.007140"></trkpt>
<trkpt lat="19.025780" lon="73.007190"></trkpt>
<trkpt lat="19.025520" lon="73.007320"></trkpt>
<trkpt lat="19.025270" lon="73.007400"></trkpt>
<trkpt lat="19.024980" lon="73.007510"></trkpt>
<trkpt lat="19.024860" lon="73.007580"></trkpt>
<trkpt lat="19.024740" lon="73.007620"></trkpt>
<trkpt lat="19.024600" lon="73.007670"></trkpt>
<trkpt lat="19.024470" lon="73.007760"></trkpt>
<trkpt lat="19.024230" lon="73.007870"></trkpt>
<trkpt lat="19.024140" lon="73.007900"></trkpt>
<trkpt lat="19.024080" lon="73.007950"></trkpt>
<trkpt lat="19.023930" lon="73.007990"></trkpt>
<trkpt lat="19.023700" lon="73.008080"></trkpt>
<trkpt lat="19.023700" lon="73.008080"></trkpt>
<trkpt lat="19.023650" lon="73.008130"></trkpt>
<trkpt lat="19.023580" lon="73.008140"></trkpt>
<trkpt lat="19.023480" lon="73.008190"></trkpt>
<trkpt lat="19.023250" lon="73.008280"></trkpt>
<trkpt lat="19.023050" lon="73.008350"></trkpt>
<trkpt lat="19.022820" lon="73.008430"></trkpt>
<trkpt lat="19.022730" lon="73.008470"></trkpt>
<trkpt lat="19.022610" lon="73.008510"></trkpt>
<trkpt lat="19.022560" lon="73.008520"></trkpt>
<trkpt lat="19.022560" lon="73.008520"></trkpt>
<trkpt lat="19.022500" lon="73.008550"></trkpt>
<trkpt lat="19.022380" lon="73.008590"></trkpt>
<trkpt lat="19.022340" lon="73.008570"></trkpt>
<trkpt lat="19.022240" lon="73.008560"></trkpt>
<trkpt lat="19.022140" lon="73.008560"></trkpt>
<trkpt lat="19.022140" lon="73.008560"></trkpt>
<trkpt lat="19.018115" lon="73.008151"></trkpt>
<trkpt lat="19.018115" lon="73.008151"></trkpt>
<trkpt lat="19.017750" lon="73.008258"></trkpt>
</trkseg></trk>
</gpx>
