<?xml version='1.0' encoding='utf-8'?>
<gpx version="1.1" creator="RunCast" xmlns="http://www.topografix.com/GPX/1/1"><trk><name>mumbai_shivaji_park</name><trkseg><trkpt lat="19.025800" lon="72.840500" /><trkpt lat="19.025800" lon="72.840320" /><trkpt lat="19.025800" lon="72.840140" /><trkpt lat="19.025800" lon="72.839960" /><trkpt lat="19.025800" lon="72.839780" /><trkpt lat="19.025800" lon="72.839600" /><trkpt lat="19.025800" lon="72.839420" /><trkpt lat="19.025800" lon="72.839240" /><trkpt lat="19.025800" lon="72.839060" /><trkpt lat="19.025800" lon="72.838880" /><trkpt lat="19.025800" lon="72.838700" /><trkpt lat="19.025800" lon="72.838520" /><trkpt lat="19.025800" lon="72.838340" /><trkpt lat="19.025800" lon="72.838160" /><trkpt lat="19.025800" lon="72.837980" /><trkpt lat="19.025800" lon="72.837800" /><trkpt lat="19.025656" lon="72.837700" /><trkpt lat="19.025511" lon="72.837600" /><trkpt lat="19.025367" lon="72.837500" /><trkpt lat="19.025222" lon="72.837400" /><trkpt lat="19.025078" lon="72.837300" /><trkpt lat="19.024933" lon="72.837200" /><trkpt lat="19.024789" lon="72.837100" /><trkpt lat="19.024644" lon="72.837000" /><trkpt lat="19.024500" lon="72.836900" /><trkpt lat="19.024356" lon="72.836800" /><trkpt lat="19.024211" lon="72.836700" /><trkpt lat="19.024067" lon="72.836600" /><trkpt lat="19.023922" lon="72.836500" /><trkpt lat="19.023778" lon="72.836400" /><trkpt lat="19.023633" lon="72.836300" /><trkpt lat="19.023489" lon="72.836200" /><trkpt lat="19.023344" lon="72.836100" /><trkpt lat="19.023200" lon="72.836000" /><trkpt lat="19.023040" lon="72.836067" /><trkpt lat="19.022880" lon="72.836133" /><trkpt lat="19.022720" lon="72.836200" /><trkpt lat="19.022560" lon="72.836267" /><trkpt lat="19.022400" lon="72.836333" /><trkpt lat="19.022240" lon="72.836400" /><trkpt lat="19.022080" lon="72.836467" /><trkpt lat="19.021920" lon="72.836533" /><trkpt lat="19.021760" lon="72.836600" /><trkpt lat="19.021600" lon="72.836667" /><trkpt lat="19.021440" lon="72.836733" /><trkpt lat="19.021280" lon="72.836800" /><trkpt lat="19.021120" lon="72.836867" /><trkpt lat="19.020960" lon="72.836933" /><trkpt lat="19.020800" lon="72.837000" /><trkpt lat="19.020753" lon="72.837176" /><trkpt lat="19.020706" lon="72.837353" /><trkpt lat="19.020659" lon="72.837529" /><trkpt lat="19.020612" lon="72.837706" /><trkpt lat="19.020565" lon="72.837882" /><trkpt lat="19.020518" lon="72.838059" /><trkpt lat="19.020471" lon="72.838235" /><trkpt lat="19.020424" lon="72.838412" /><trkpt lat="19.020376" lon="72.838588" /><trkpt lat="19.020329" lon="72.838765" /><trkpt lat="19.020282" lon="72.838941" /><trkpt lat="19.020235" lon="72.839118" /><trkpt lat="19.020188" lon="72.839294" /><trkpt lat="19.020141" lon="72.839471" /><trkpt lat="19.020094" lon="72.839647" /><trkpt lat="19.020047" lon="72.839824" /><trkpt lat="19.020000" lon="72.840000" /><trkpt lat="19.020059" lon="72.840176" /><trkpt lat="19.020118" lon="72.840353" /><trkpt lat="19.020176" lon="72.840529" /><trkpt lat="19.020235" lon="72.840706" /><trkpt lat="19.020294" lon="72.840882" /><trkpt lat="19.020353" lon="72.841059" /><trkpt lat="19.020412" lon="72.841235" /><trkpt lat="19.020471" lon="72.841412" /><trkpt lat="19.020529" lon="72.841588" /><trkpt lat="19.020588" lon="72.841765" /><trkpt lat="19.020647" lon="72.841941" /><trkpt lat="19.020706" lon="72.842118" /><trkpt lat="19.020765" lon="72.842294" /><trkpt lat="19.020824" lon="72.842471" /><trkpt lat="19.020882" lon="72.842647" /><trkpt lat="19.020941" lon="72.842824" /><trkpt lat="19.021000" lon="72.843000" /><trkpt lat="19.021167" lon="72.843067" /><trkpt lat="19.021333" lon="72.843133" /><trkpt lat="19.021500" lon="72.843200" /><trkpt lat="19.021667" lon="72.843267" /><trkpt lat="19.021833" lon="72.843333" /><trkpt lat="19.022000" lon="72.843400" /><trkpt lat="19.022167" lon="72.843467" /><trkpt lat="19.022333" lon="72.843533" /><trkpt lat="19.022500" lon="72.843600" /><trkpt lat="19.022667" lon="72.843667" /><trkpt lat="19.022833" lon="72.843733" /><trkpt lat="19.023000" lon="72.843800" /><trkpt lat="19.023167" lon="72.843867" /><trkpt lat="19.023333" lon="72.843933" /><trkpt lat="19.023500" lon="72.844000" /><trkpt lat="19.023664" lon="72.843929" /><trkpt lat="19.023829" lon="72.843857" /><trkpt lat="19.023993" lon="72.843786" /><trkpt lat="19.024157" lon="72.843714" /><trkpt lat="19.024321" lon="72.843643" /><trkpt lat="19.024486" lon="72.843571" /><trkpt lat="19.024650" lon="72.843500" /><trkpt lat="19.024814" lon="72.843429" /><trkpt lat="19.024979" lon="72.843357" /><trkpt lat="19.025143" lon="72.843286" /><trkpt lat="19.025307" lon="72.843214" /><trkpt lat="19.025471" lon="72.843143" /><trkpt lat="19.025636" lon="72.843071" /><trkpt lat="19.025800" lon="72.843000" /><trkpt lat="19.025800" lon="72.842821" /><trkpt lat="19.025800" lon="72.842643" /><trkpt lat="19.025800" lon="72.842464" /><trkpt lat="19.025800" lon="72.842286" /><trkpt lat="19.025800" lon="72.842107" /><trkpt lat="19.025800" lon="72.841929" /><trkpt lat="19.025800" lon="72.841750" /><trkpt lat="19.025800" lon="72.841571" /><trkpt lat="19.025800" lon="72.841393" /><trkpt lat="19.025800" lon="72.841214" /><trkpt lat="19.025800" lon="72.841036" /><trkpt lat="19.025800" lon="72.840857" /><trkpt lat="19.025800" lon="72.840679" /><trkpt lat="19.025800" lon="72.840500" /></trkseg></trk></gpx>