<?xml version='1.0' encoding='utf-8'?>
<gpx version="1.1" creator="RunCast" xmlns="http://www.topografix.com/GPX/1/1"><trk><name>mumbai_worli_seaface</name><trkseg><trkpt lat="19.011271" lon="72.816068" /><trkpt lat="19.011134" lon="72.815960" /><trkpt lat="19.010998" lon="72.815853" /><trkpt lat="19.010861" lon="72.815745" /><trkpt lat="19.010724" lon="72.815637" /><trkpt lat="19.010602" lon="72.815541" /><trkpt lat="19.010479" lon="72.815445" /><trkpt lat="19.010357" lon="72.815348" /><trkpt lat="19.010234" lon="72.815252" /><trkpt lat="19.010112" lon="72.815156" /><trkpt lat="19.009996" lon="72.815060" /><trkpt lat="19.009879" lon="72.814965" /><trkpt lat="19.009763" lon="72.814869" /><trkpt lat="19.009638" lon="72.814737" /><trkpt lat="19.009513" lon="72.814604" /><trkpt lat="19.009419" lon="72.814484" /><trkpt lat="19.009325" lon="72.814365" /><trkpt lat="19.009204" lon="72.814234" /><trkpt lat="19.009082" lon="72.814102" /><trkpt lat="19.008961" lon="72.813971" /><trkpt lat="19.008839" lon="72.813840" /><trkpt lat="19.008718" lon="72.813708" /><trkpt lat="19.008596" lon="72.813577" /><trkpt lat="19.008475" lon="72.813446" /><trkpt lat="19.008353" lon="72.813315" /><trkpt lat="19.008232" lon="72.813183" /><trkpt lat="19.008110" lon="72.813052" /><trkpt lat="19.007989" lon="72.812921" /><trkpt lat="19.007867" lon="72.812789" /><trkpt lat="19.007746" lon="72.812658" /><trkpt lat="19.007886" lon="72.812660" /><trkpt lat="19.008027" lon="72.812663" /><trkpt lat="19.008076" lon="72.812657" /><trkpt lat="19.008191" lon="72.812644" /><trkpt lat="19.008306" lon="72.812631" /><trkpt lat="19.008384" lon="72.812616" /><trkpt lat="19.008454" lon="72.812607" /><trkpt lat="19.008584" lon="72.812586" /><trkpt lat="19.008713" lon="72.812565" /><trkpt lat="19.008868" lon="72.812524" /><trkpt lat="19.009022" lon="72.812483" /><trkpt lat="19.009177" lon="72.812442" /><trkpt lat="19.009318" lon="72.812403" /><trkpt lat="19.009458" lon="72.812364" /><trkpt lat="19.009458" lon="72.812364" /><trkpt lat="19.009318" lon="72.812403" /><trkpt lat="19.009177" lon="72.812442" /><trkpt lat="19.009022" lon="72.812483" /><trkpt lat="19.008868" lon="72.812524" /><trkpt lat="19.008713" lon="72.812565" /><trkpt lat="19.008584" lon="72.812586" /><trkpt lat="19.008454" lon="72.812607" /><trkpt lat="19.008384" lon="72.812616" /><trkpt lat="19.008306" lon="72.812631" /><trkpt lat="19.008191" lon="72.812644" /><trkpt lat="19.008076" lon="72.812657" /><trkpt lat="19.008027" lon="72.812663" /><trkpt lat="19.007886" lon="72.812660" /><trkpt lat="19.007746" lon="72.812658" /><trkpt lat="19.007604" lon="72.812658" /><trkpt lat="19.007463" lon="72.812658" /><trkpt lat="19.007322" lon="72.812657" /><trkpt lat="19.007180" lon="72.812657" /><trkpt lat="19.007055" lon="72.812650" /><trkpt lat="19.006930" lon="72.812643" /><trkpt lat="19.006813" lon="72.812619" /><trkpt lat="19.006696" lon="72.812595" /><trkpt lat="19.006560" lon="72.812545" /><trkpt lat="19.006425" lon="72.812496" /><trkpt lat="19.006289" lon="72.812446" /><trkpt lat="19.006153" lon="72.812396" /><trkpt lat="19.006030" lon="72.812361" /><trkpt lat="19.005906" lon="72.812326" /><trkpt lat="19.005837" lon="72.812302" /><trkpt lat="19.005790" lon="72.812241" /><trkpt lat="19.005637" lon="72.812162" /><trkpt lat="19.005483" lon="72.812082" /><trkpt lat="19.005326" lon="72.812005" /><trkpt lat="19.005169" lon="72.811928" /><trkpt lat="19.005012" lon="72.811851" /><trkpt lat="19.004853" lon="72.811779" /><trkpt lat="19.004695" lon="72.811708" /><trkpt lat="19.004536" lon="72.811636" /><trkpt lat="19.004385" lon="72.811571" /><trkpt lat="19.004235" lon="72.811505" /><trkpt lat="19.004084" lon="72.811440" /><trkpt lat="19.003917" lon="72.811373" /><trkpt lat="19.003751" lon="72.811306" /><trkpt lat="19.003584" lon="72.811239" /><trkpt lat="19.003431" lon="72.811169" /><trkpt lat="19.003278" lon="72.811099" /><trkpt lat="19.003125" lon="72.811029" /><trkpt lat="19.002987" lon="72.810968" /><trkpt lat="19.002849" lon="72.810907" /><trkpt lat="19.002711" lon="72.810846" /><trkpt lat="19.002578" lon="72.810803" /><trkpt lat="19.002446" lon="72.810760" /><trkpt lat="19.002313" lon="72.810717" /><trkpt lat="19.002140" lon="72.810682" /><trkpt lat="19.001968" lon="72.810647" /><trkpt lat="19.001795" lon="72.810612" /><trkpt lat="19.001652" lon="72.810583" /><trkpt lat="19.001508" lon="72.810555" /><trkpt lat="19.001365" lon="72.810526" /><trkpt lat="19.001248" lon="72.810489" /><trkpt lat="19.001130" lon="72.810453" /><trkpt lat="19.001013" lon="72.810416" /><trkpt lat="19.000880" lon="72.810385" /><trkpt lat="19.000747" lon="72.810355" /><trkpt lat="19.000622" lon="72.810326" /><trkpt lat="19.000480" lon="72.810307" /><trkpt lat="19.000337" lon="72.810287" /><trkpt lat="19.000195" lon="72.810268" /><trkpt lat="19.000028" lon="72.810268" /><trkpt lat="18.999861" lon="72.810267" /><trkpt lat="18.999694" lon="72.810267" /><trkpt lat="18.999530" lon="72.810270" /><trkpt lat="18.999365" lon="72.810273" /><trkpt lat="18.999201" lon="72.810276" /><trkpt lat="18.999060" lon="72.810285" /><trkpt lat="18.998918" lon="72.810295" /><trkpt lat="18.998777" lon="72.810304" /><trkpt lat="18.998632" lon="72.810320" /><trkpt lat="18.998486" lon="72.810337" /><trkpt lat="18.998341" lon="72.810353" /><trkpt lat="18.998190" lon="72.810394" /><trkpt lat="18.998040" lon="72.810435" /><trkpt lat="18.997904" lon="72.810471" /><trkpt lat="18.997767" lon="72.810506" /><trkpt lat="18.997631" lon="72.810542" /><trkpt lat="18.997492" lon="72.810582" /><trkpt lat="18.997352" lon="72.810621" /><trkpt lat="18.997213" lon="72.810661" /><trkpt lat="18.997074" lon="72.810701" /><trkpt lat="18.996956" lon="72.810732" /><trkpt lat="18.996838" lon="72.810762" /><trkpt lat="18.996720" lon="72.810793" /><trkpt lat="18.996583" lon="72.810843" /><trkpt lat="18.996445" lon="72.810893" /><trkpt lat="18.996308" lon="72.810943" /><trkpt lat="18.996154" lon="72.810995" /><trkpt lat="18.995999" lon="72.811046" /><trkpt lat="18.995845" lon="72.811098" /><trkpt lat="18.995727" lon="72.811112" /><trkpt lat="18.995609" lon="72.811125" /><trkpt lat="18.995453" lon="72.811144" /><trkpt lat="18.995298" lon="72.811163" /><trkpt lat="18.995135" lon="72.811183" /><trkpt lat="18.994979" lon="72.811193" /><trkpt lat="18.994824" lon="72.811203" /><trkpt lat="18.994668" lon="72.811213" /><trkpt lat="18.994513" lon="72.811223" /><trkpt lat="18.994357" lon="72.811233" /><trkpt lat="18.994193" lon="72.811235" /><trkpt lat="18.994028" lon="72.811238" /><trkpt lat="18.993864" lon="72.811240" /><trkpt lat="18.993699" lon="72.811243" /><trkpt lat="18.993535" lon="72.811245" /><trkpt lat="18.993363" lon="72.811235" /><trkpt lat="18.993192" lon="72.811226" /><trkpt lat="18.993020" lon="72.811216" /><trkpt lat="18.992848" lon="72.811206" /><trkpt lat="18.992677" lon="72.811197" /><trkpt lat="18.992505" lon="72.811187" /><trkpt lat="18.992340" lon="72.811151" /><trkpt lat="18.992175" lon="72.811115" /><trkpt lat="18.992010" lon="72.811078" /><trkpt lat="18.991845" lon="72.811042" /><trkpt lat="18.991680" lon="72.811006" /><trkpt lat="18.991524" lon="72.810955" /><trkpt lat="18.991367" lon="72.810905" /><trkpt lat="18.991211" lon="72.810854" /><trkpt lat="18.991055" lon="72.810803" /><trkpt lat="18.990898" lon="72.810753" /><trkpt lat="18.990742" lon="72.810702" /><trkpt lat="18.990594" lon="72.810634" /><trkpt lat="18.990445" lon="72.810567" /><trkpt lat="18.990297" lon="72.810499" /><trkpt lat="18.990149" lon="72.810432" /><trkpt lat="18.990001" lon="72.810364" /><trkpt lat="18.989852" lon="72.810297" /><trkpt lat="18.989704" lon="72.810229" /><trkpt lat="18.989594" lon="72.810179" /><trkpt lat="18.989484" lon="72.810128" /><trkpt lat="18.989393" lon="72.810082" /><trkpt lat="18.989303" lon="72.810037" /><trkpt lat="18.989303" lon="72.810037" /><trkpt lat="18.989139" lon="72.809967" /><trkpt lat="18.988975" lon="72.809898" /><trkpt lat="18.988819" lon="72.809848" /><trkpt lat="18.988670" lon="72.809806" /><trkpt lat="18.988520" lon="72.809764" /><trkpt lat="18.988360" lon="72.809745" /><trkpt lat="18.988200" lon="72.809727" /><trkpt lat="18.988057" lon="72.809744" /><trkpt lat="18.987914" lon="72.809761" /><trkpt lat="18.987764" lon="72.809834" /><trkpt lat="18.987624" lon="72.809927" /><trkpt lat="18.987519" lon="72.810029" /><trkpt lat="18.987415" lon="72.810132" /><trkpt lat="18.987322" lon="72.810267" /><trkpt lat="18.987228" lon="72.810403" /><trkpt lat="18.987067" lon="72.810333" /><trkpt lat="18.986905" lon="72.810263" /><trkpt lat="18.986744" lon="72.810193" /><trkpt lat="18.986582" lon="72.810122" /><trkpt lat="18.986421" lon="72.810052" /><trkpt lat="18.986260" lon="72.809982" /><trkpt lat="18.986098" lon="72.809912" /><trkpt lat="18.985937" lon="72.809842" /><trkpt lat="18.985775" lon="72.809772" /><trkpt lat="18.985614" lon="72.809701" /><trkpt lat="18.985453" lon="72.809631" /><trkpt lat="18.985291" lon="72.809561" /><trkpt lat="18.985130" lon="72.809491" /><trkpt lat="18.984968" lon="72.809421" /><trkpt lat="18.984807" lon="72.809351" /><trkpt lat="18.984646" lon="72.809281" /><trkpt lat="18.984484" lon="72.809210" /><trkpt lat="18.984323" lon="72.809140" /><trkpt lat="18.984161" lon="72.809070" /><trkpt lat="18.984000" lon="72.809000" /><trkpt lat="18.983868" lon="72.808989" /><trkpt lat="18.983737" lon="72.808979" /><trkpt lat="18.983605" lon="72.808968" /><trkpt lat="18.983474" lon="72.808958" /><trkpt lat="18.983342" lon="72.808947" /><trkpt lat="18.983211" lon="72.808937" /><trkpt lat="18.983079" lon="72.808926" /><trkpt lat="18.982947" lon="72.808916" /><trkpt lat="18.982816" lon="72.808905" /><trkpt lat="18.982684" lon="72.808895" /><trkpt lat="18.982553" lon="72.808884" /><trkpt lat="18.982421" lon="72.808874" /><trkpt lat="18.982289" lon="72.808863" /><trkpt lat="18.982158" lon="72.808853" /><trkpt lat="18.982026" lon="72.808842" /><trkpt lat="18.981895" lon="72.808832" /><trkpt lat="18.981763" lon="72.808821" /><trkpt lat="18.981632" lon="72.808811" /><trkpt lat="18.981500" lon="72.808800" /></trkseg></trk></gpx>