<?xml version="1.0" encoding="UTF-8"?>
<gpx version="1.1" creator="greatruns-mapmyrun">
<trk><name>mumbai_rajiv_gandhi_joggers</name><trkseg>
<trkpt lat="19.083400" lon="72.995320"></trkpt>
<trkpt lat="19.082580" lon="72.994580"></trkpt>
<trkpt lat="19.082580" lon="72.994580"></trkpt>
<trkpt lat="19.081220" lon="72.993380"></trkpt>
<trkpt lat="19.081220" lon="72.993380"></trkpt>
<trkpt lat="19.079510" lon="72.991900"></trkpt>
<trkpt lat="19.079510" lon="72.991900"></trkpt>
<trkpt lat="19.078880" lon="72.991360"></trkpt>
<trkpt lat="19.078880" lon="72.991360"></trkpt>
<trkpt lat="19.077470" lon="72.990110"></trkpt>
<trkpt lat="19.077470" lon="72.990110"></trkpt>
<trkpt lat="19.077390" lon="72.990040"></trkpt>
<trkpt lat="19.077490" lon="72.990050"></trkpt>
<trkpt lat="19.077680" lon="72.990080"></trkpt>
<trkpt lat="19.077680" lon="72.990080"></trkpt>
<trkpt lat="19.078670" lon="72.990300"></trkpt>
<trkpt lat="19.079230" lon="72.990470"></trkpt>
<trkpt lat="19.079870" lon="72.990690"></trkpt>
<trkpt lat="19.079870" lon="72.990690"></trkpt>
<trkpt lat="19.080240" lon="72.990820"></trkpt>
<trkpt lat="19.080540" lon="72.990890"></trkpt>
<trkpt lat="19.081080" lon="72.990990"></trkpt>
<trkpt lat="19.081390" lon="72.991080"></trkpt>
<trkpt lat="19.081640" lon="72.991210"></trkpt>
<trkpt lat="19.081960" lon="72.991450"></trkpt>
<trkpt lat="19.081960" lon="72.991450"></trkpt>
<trkpt lat="19.083010" lon="72.992330"></trkpt>
<trkpt lat="19.083010" lon="72.992330"></trkpt>
<trkpt lat="19.083180" lon="72.992400"></trkpt>
<trkpt lat="19.083510" lon="72.992450"></trkpt>
<trkpt lat="19.083990" lon="72.992460"></trkpt>
<trkpt lat="19.084730" lon="72.992430"></trkpt>
<trkpt lat="19.085530" lon="72.992450"></trkpt>
<trkpt lat="19.085530" lon="72.992450"></trkpt>
<trkpt lat="19.085610" lon="72.992460"></trkpt>
<trkpt lat="19.085650" lon="72.992540"></trkpt>
<trkpt lat="19.085640" lon="72.992650"></trkpt>
<trkpt lat="19.085590" lon="72.992760"></trkpt>
<trkpt lat="19.085190" lon="72.993260"></trkpt>
<trkpt lat="19.083710" lon="72.995050"></trkpt>
<trkpt lat="19.083710" lon="72.995050"></trkpt>
<trkpt lat="19.083460" lon="72.995360"></trkpt>
<trkpt lat="19.083470" lon="72.995380"></trkpt>
<trkpt lat="19.083490" lon="72.995390"></trkpt>
<trkpt lat="19.083500" lon="72.995430"></trkpt>
<trkpt lat="19.083490" lon="72.995450"></trkpt>
</trkseg></trk>
</gpx>
