<?xml version='1.0' encoding='utf-8'?>
<gpx version="1.1" creator="RunCast" xmlns="http://www.topografix.com/GPX/1/1"><trk><name>mumbai_powai_lake</name><trkseg><trkpt lat="19.118800" lon="72.905900" /><trkpt lat="19.118869" lon="72.905778" /><trkpt lat="19.118938" lon="72.905656" /><trkpt lat="19.119006" lon="72.905534" /><trkpt lat="19.119075" lon="72.905412" /><trkpt lat="19.119144" lon="72.905291" /><trkpt lat="19.119212" lon="72.905169" /><trkpt lat="19.119281" lon="72.905047" /><trkpt lat="19.119350" lon="72.904925" /><trkpt lat="19.119419" lon="72.904803" /><trkpt lat="19.119487" lon="72.904681" /><trkpt lat="19.119556" lon="72.904559" /><trkpt lat="19.119625" lon="72.904438" /><trkpt lat="19.119694" lon="72.904316" /><trkpt lat="19.119763" lon="72.904194" /><trkpt lat="19.119831" lon="72.904072" /><trkpt lat="19.119900" lon="72.903950" /><trkpt lat="19.119969" lon="72.903828" /><trkpt lat="19.120037" lon="72.903706" /><trkpt lat="19.120106" lon="72.903584" /><trkpt lat="19.120175" lon="72.903463" /><trkpt lat="19.120244" lon="72.903341" /><trkpt lat="19.120313" lon="72.903219" /><trkpt lat="19.120381" lon="72.903097" /><trkpt lat="19.120450" lon="72.902975" /><trkpt lat="19.120519" lon="72.902853" /><trkpt lat="19.120587" lon="72.902731" /><trkpt lat="19.120656" lon="72.902609" /><trkpt lat="19.120725" lon="72.902488" /><trkpt lat="19.120794" lon="72.902366" /><trkpt lat="19.120862" lon="72.902244" /><trkpt lat="19.120931" lon="72.902122" /><trkpt lat="19.121000" lon="72.902000" /><trkpt lat="19.121125" lon="72.901958" /><trkpt lat="19.121250" lon="72.901917" /><trkpt lat="19.121375" lon="72.901875" /><trkpt lat="19.121500" lon="72.901833" /><trkpt lat="19.121625" lon="72.901792" /><trkpt lat="19.121750" lon="72.901750" /><trkpt lat="19.121875" lon="72.901708" /><trkpt lat="19.122000" lon="72.901667" /><trkpt lat="19.122125" lon="72.901625" /><trkpt lat="19.122250" lon="72.901583" /><trkpt lat="19.122375" lon="72.901542" /><trkpt lat="19.122500" lon="72.901500" /><trkpt lat="19.122625" lon="72.901458" /><trkpt lat="19.122750" lon="72.901417" /><trkpt lat="19.122875" lon="72.901375" /><trkpt lat="19.123000" lon="72.901333" /><trkpt lat="19.123125" lon="72.901292" /><trkpt lat="19.123250" lon="72.901250" /><trkpt lat="19.123375" lon="72.901208" /><trkpt lat="19.123500" lon="72.901167" /><trkpt lat="19.123625" lon="72.901125" /><trkpt lat="19.123750" lon="72.901083" /><trkpt lat="19.123875" lon="72.901042" /><trkpt lat="19.124000" lon="72.901000" /><trkpt lat="19.124097" lon="72.901097" /><trkpt lat="19.124194" lon="72.901194" /><trkpt lat="19.124290" lon="72.901290" /><trkpt lat="19.124387" lon="72.901387" /><trkpt lat="19.124484" lon="72.901484" /><trkpt lat="19.124581" lon="72.901581" /><trkpt lat="19.124677" lon="72.901677" /><trkpt lat="19.124774" lon="72.901774" /><trkpt lat="19.124871" lon="72.901871" /><trkpt lat="19.124968" lon="72.901968" /><trkpt lat="19.125065" lon="72.902065" /><trkpt lat="19.125161" lon="72.902161" /><trkpt lat="19.125258" lon="72.902258" /><trkpt lat="19.125355" lon="72.902355" /><trkpt lat="19.125452" lon="72.902452" /><trkpt lat="19.125548" lon="72.902548" /><trkpt lat="19.125645" lon="72.902645" /><trkpt lat="19.125742" lon="72.902742" /><trkpt lat="19.125839" lon="72.902839" /><trkpt lat="19.125935" lon="72.902935" /><trkpt lat="19.126032" lon="72.903032" /><trkpt lat="19.126129" lon="72.903129" /><trkpt lat="19.126226" lon="72.903226" /><trkpt lat="19.126323" lon="72.903323" /><trkpt lat="19.126419" lon="72.903419" /><trkpt lat="19.126516" lon="72.903516" /><trkpt lat="19.126613" lon="72.903613" /><trkpt lat="19.126710" lon="72.903710" /><trkpt lat="19.126806" lon="72.903806" /><trkpt lat="19.126903" lon="72.903903" /><trkpt lat="19.127000" lon="72.904000" /><trkpt lat="19.127000" lon="72.904139" /><trkpt lat="19.127000" lon="72.904278" /><trkpt lat="19.127000" lon="72.904417" /><trkpt lat="19.127000" lon="72.904556" /><trkpt lat="19.127000" lon="72.904694" /><trkpt lat="19.127000" lon="72.904833" /><trkpt lat="19.127000" lon="72.904972" /><trkpt lat="19.127000" lon="72.905111" /><trkpt lat="19.127000" lon="72.905250" /><trkpt lat="19.127000" lon="72.905389" /><trkpt lat="19.127000" lon="72.905528" /><trkpt lat="19.127000" lon="72.905667" /><trkpt lat="19.127000" lon="72.905806" /><trkpt lat="19.127000" lon="72.905944" /><trkpt lat="19.127000" lon="72.906083" /><trkpt lat="19.127000" lon="72.906222" /><trkpt lat="19.127000" lon="72.906361" /><trkpt lat="19.127000" lon="72.906500" /><trkpt lat="19.127000" lon="72.906639" /><trkpt lat="19.127000" lon="72.906778" /><trkpt lat="19.127000" lon="72.906917" /><trkpt lat="19.127000" lon="72.907056" /><trkpt lat="19.127000" lon="72.907194" /><trkpt lat="19.127000" lon="72.907333" /><trkpt lat="19.127000" lon="72.907472" /><trkpt lat="19.127000" lon="72.907611" /><trkpt lat="19.127000" lon="72.907750" /><trkpt lat="19.127000" lon="72.907889" /><trkpt lat="19.127000" lon="72.908028" /><trkpt lat="19.127000" lon="72.908167" /><trkpt lat="19.127000" lon="72.908306" /><trkpt lat="19.127000" lon="72.908444" /><trkpt lat="19.127000" lon="72.908583" /><trkpt lat="19.127000" lon="72.908722" /><trkpt lat="19.127000" lon="72.908861" /><trkpt lat="19.127000" lon="72.909000" /><trkpt lat="19.126949" lon="72.909128" /><trkpt lat="19.126897" lon="72.909256" /><trkpt lat="19.126846" lon="72.909385" /><trkpt lat="19.126795" lon="72.909513" /><trkpt lat="19.126744" lon="72.909641" /><trkpt lat="19.126692" lon="72.909769" /><trkpt lat="19.126641" lon="72.909897" /><trkpt lat="19.126590" lon="72.910026" /><trkpt lat="19.126538" lon="72.910154" /><trkpt lat="19.126487" lon="72.910282" /><trkpt lat="19.126436" lon="72.910410" /><trkpt lat="19.126385" lon="72.910538" /><trkpt lat="19.126333" lon="72.910667" /><trkpt lat="19.126282" lon="72.910795" /><trkpt lat="19.126231" lon="72.910923" /><trkpt lat="19.126179" lon="72.911051" /><trkpt lat="19.126128" lon="72.911179" /><trkpt lat="19.126077" lon="72.911308" /><trkpt lat="19.126026" lon="72.911436" /><trkpt lat="19.125974" lon="72.911564" /><trkpt lat="19.125923" lon="72.911692" /><trkpt lat="19.125872" lon="72.911821" /><trkpt lat="19.125821" lon="72.911949" /><trkpt lat="19.125769" lon="72.912077" /><trkpt lat="19.125718" lon="72.912205" /><trkpt lat="19.125667" lon="72.912333" /><trkpt lat="19.125615" lon="72.912462" /><trkpt lat="19.125564" lon="72.912590" /><trkpt lat="19.125513" lon="72.912718" /><trkpt lat="19.125462" lon="72.912846" /><trkpt lat="19.125410" lon="72.912974" /><trkpt lat="19.125359" lon="72.913103" /><trkpt lat="19.125308" lon="72.913231" /><trkpt lat="19.125256" lon="72.913359" /><trkpt lat="19.125205" lon="72.913487" /><trkpt lat="19.125154" lon="72.913615" /><trkpt lat="19.125103" lon="72.913744" /><trkpt lat="19.125051" lon="72.913872" /><trkpt lat="19.125000" lon="72.914000" /><trkpt lat="19.124871" lon="72.914032" /><trkpt lat="19.124742" lon="72.914065" /><trkpt lat="19.124613" lon="72.914097" /><trkpt lat="19.124484" lon="72.914129" /><trkpt lat="19.124355" lon="72.914161" /><trkpt lat="19.124226" lon="72.914194" /><trkpt lat="19.124097" lon="72.914226" /><trkpt lat="19.123968" lon="72.914258" /><trkpt lat="19.123839" lon="72.914290" /><trkpt lat="19.123710" lon="72.914323" /><trkpt lat="19.123581" lon="72.914355" /><trkpt lat="19.123452" lon="72.914387" /><trkpt lat="19.123323" lon="72.914419" /><trkpt lat="19.123194" lon="72.914452" /><trkpt lat="19.123065" lon="72.914484" /><trkpt lat="19.122935" lon="72.914516" /><trkpt lat="19.122806" lon="72.914548" /><trkpt lat="19.122677" lon="72.914581" /><trkpt lat="19.122548" lon="72.914613" /><trkpt lat="19.122419" lon="72.914645" /><trkpt lat="19.122290" lon="72.914677" /><trkpt lat="19.122161" lon="72.914710" /><trkpt lat="19.122032" lon="72.914742" /><trkpt lat="19.121903" lon="72.914774" /><trkpt lat="19.121774" lon="72.914806" /><trkpt lat="19.121645" lon="72.914839" /><trkpt lat="19.121516" lon="72.914871" /><trkpt lat="19.121387" lon="72.914903" /><trkpt lat="19.121258" lon="72.914935" /><trkpt lat="19.121129" lon="72.914968" /><trkpt lat="19.121000" lon="72.915000" /><trkpt lat="19.120919" lon="72.914889" /><trkpt lat="19.120837" lon="72.914778" /><trkpt lat="19.120756" lon="72.914667" /><trkpt lat="19.120674" lon="72.914556" /><trkpt lat="19.120593" lon="72.914444" /><trkpt lat="19.120511" lon="72.914333" /><trkpt lat="19.120430" lon="72.914222" /><trkpt lat="19.120348" lon="72.914111" /><trkpt lat="19.120267" lon="72.914000" /><trkpt lat="19.120185" lon="72.913889" /><trkpt lat="19.120104" lon="72.913778" /><trkpt lat="19.120022" lon="72.913667" /><trkpt lat="19.119941" lon="72.913556" /><trkpt lat="19.119859" lon="72.913444" /><trkpt lat="19.119778" lon="72.913333" /><trkpt lat="19.119696" lon="72.913222" /><trkpt lat="19.119615" lon="72.913111" /><trkpt lat="19.119533" lon="72.913000" /><trkpt lat="19.119452" lon="72.912889" /><trkpt lat="19.119370" lon="72.912778" /><trkpt lat="19.119289" lon="72.912667" /><trkpt lat="19.119207" lon="72.912556" /><trkpt lat="19.119126" lon="72.912444" /><trkpt lat="19.119044" lon="72.912333" /><trkpt lat="19.118963" lon="72.912222" /><trkpt lat="19.118881" lon="72.912111" /><trkpt lat="19.118800" lon="72.912000" /><trkpt lat="19.118848" lon="72.911827" /><trkpt lat="19.118896" lon="72.911653" /><trkpt lat="19.118945" lon="72.911480" /><trkpt lat="19.118993" lon="72.911306" /><trkpt lat="19.119041" lon="72.911133" /><trkpt lat="19.119089" lon="72.910959" /><trkpt lat="19.119138" lon="72.910786" /><trkpt lat="19.119186" lon="72.910612" /><trkpt lat="19.119234" lon="72.910439" /><trkpt lat="19.119282" lon="72.910266" /><trkpt lat="19.119330" lon="72.910092" /><trkpt lat="19.119379" lon="72.909919" /><trkpt lat="19.119427" lon="72.909745" /><trkpt lat="19.119475" lon="72.909572" /><trkpt lat="19.119523" lon="72.909398" /><trkpt lat="19.119572" lon="72.909225" /><trkpt lat="19.119620" lon="72.909051" /><trkpt lat="19.119668" lon="72.908878" /><trkpt lat="19.119696" lon="72.908762" /><trkpt lat="19.119725" lon="72.908647" /><trkpt lat="19.119765" lon="72.908485" /><trkpt lat="19.119805" lon="72.908324" /><trkpt lat="19.119846" lon="72.908163" /><trkpt lat="19.119886" lon="72.908001" /><trkpt lat="19.119926" lon="72.907840" /><trkpt lat="19.119966" lon="72.907678" /><trkpt lat="19.120013" lon="72.907500" /><trkpt lat="19.120095" lon="72.907381" /><trkpt lat="19.120177" lon="72.907261" /></trkseg></trk></gpx>