<?xml version="1.0" encoding="UTF-8"?>
<gpx version="1.1" creator="coastal-direct"><trk><name>Bandra Waterfront</name><trkseg>
<trkpt lat="19.042500" lon="72.817200"></trkpt>
<trkpt lat="19.042632" lon="72.817242"></trkpt>
<trkpt lat="19.042763" lon="72.817284"></trkpt>
<trkpt lat="19.042895" lon="72.817326"></trkpt>
<trkpt lat="19.043026" lon="72.817368"></trkpt>
<trkpt lat="19.043158" lon="72.817411"></trkpt>
<trkpt lat="19.043289" lon="72.817453"></trkpt>
<trkpt lat="19.043421" lon="72.817495"></trkpt>
<trkpt lat="19.043553" lon="72.817537"></trkpt>
<trkpt lat="19.043684" lon="72.817579"></trkpt>
<trkpt lat="19.043816" lon="72.817621"></trkpt>
<trkpt lat="19.043947" lon="72.817663"></trkpt>
<trkpt lat="19.044079" lon="72.817705"></trkpt>
<trkpt lat="19.044211" lon="72.817747"></trkpt>
<trkpt lat="19.044342" lon="72.817789"></trkpt>
<trkpt lat="19.044474" lon="72.817832"></trkpt>
<trkpt lat="19.044605" lon="72.817874"></trkpt>
<trkpt lat="19.044737" lon="72.817916"></trkpt>
<trkpt lat="19.044868" lon="72.817958"></trkpt>
<trkpt lat="19.045000" lon="72.818000"></trkpt>
<trkpt lat="19.045117" lon="72.818083"></trkpt>
<trkpt lat="19.045233" lon="72.818167"></trkpt>
<trkpt lat="19.045350" lon="72.818250"></trkpt>
<trkpt lat="19.045467" lon="72.818333"></trkpt>
<trkpt lat="19.045583" lon="72.818417"></trkpt>
<trkpt lat="19.045700" lon="72.818500"></trkpt>
<trkpt lat="19.045817" lon="72.818583"></trkpt>
<trkpt lat="19.045933" lon="72.818667"></trkpt>
<trkpt lat="19.046050" lon="72.818750"></trkpt>
<trkpt lat="19.046167" lon="72.818833"></trkpt>
<trkpt lat="19.046283" lon="72.818917"></trkpt>
<trkpt lat="19.046400" lon="72.819000"></trkpt>
<trkpt lat="19.046533" lon="72.819037"></trkpt>
<trkpt lat="19.046667" lon="72.819074"></trkpt>
<trkpt lat="19.046800" lon="72.819111"></trkpt>
<trkpt lat="19.046933" lon="72.819148"></trkpt>
<trkpt lat="19.047067" lon="72.819185"></trkpt>
<trkpt lat="19.047200" lon="72.819222"></trkpt>
<trkpt lat="19.047333" lon="72.819259"></trkpt>
<trkpt lat="19.047467" lon="72.819296"></trkpt>
<trkpt lat="19.047600" lon="72.819333"></trkpt>
<trkpt lat="19.047733" lon="72.819370"></trkpt>
<trkpt lat="19.047867" lon="72.819407"></trkpt>
<trkpt lat="19.048000" lon="72.819444"></trkpt>
<trkpt lat="19.048133" lon="72.819481"></trkpt>
<trkpt lat="19.048267" lon="72.819519"></trkpt>
<trkpt lat="19.048400" lon="72.819556"></trkpt>
<trkpt lat="19.048533" lon="72.819593"></trkpt>
<trkpt lat="19.048667" lon="72.819630"></trkpt>
<trkpt lat="19.048800" lon="72.819667"></trkpt>
<trkpt lat="19.048933" lon="72.819704"></trkpt>
<trkpt lat="19.049067" lon="72.819741"></trkpt>
<trkpt lat="19.049200" lon="72.819778"></trkpt>
<trkpt lat="19.049333" lon="72.819815"></trkpt>
<trkpt lat="19.049467" lon="72.819852"></trkpt>
<trkpt lat="19.049600" lon="72.819889"></trkpt>
<trkpt lat="19.049733" lon="72.819926"></trkpt>
<trkpt lat="19.049867" lon="72.819963"></trkpt>
<trkpt lat="19.050000" lon="72.820000"></trkpt>
<trkpt lat="19.050132" lon="72.820029"></trkpt>
<trkpt lat="19.050265" lon="72.820057"></trkpt>
<trkpt lat="19.050397" lon="72.820086"></trkpt>
<trkpt lat="19.050530" lon="72.820114"></trkpt>
<trkpt lat="19.050662" lon="72.820143"></trkpt>
<trkpt lat="19.050795" lon="72.820171"></trkpt>
<trkpt lat="19.050927" lon="72.820200"></trkpt>
<trkpt lat="19.051060" lon="72.820229"></trkpt>
<trkpt lat="19.051192" lon="72.820257"></trkpt>
<trkpt lat="19.051325" lon="72.820286"></trkpt>
<trkpt lat="19.051457" lon="72.820314"></trkpt>
<trkpt lat="19.051590" lon="72.820343"></trkpt>
<trkpt lat="19.051722" lon="72.820371"></trkpt>
<trkpt lat="19.051855" lon="72.820400"></trkpt>
<trkpt lat="19.051987" lon="72.820429"></trkpt>
<trkpt lat="19.052119" lon="72.820457"></trkpt>
<trkpt lat="19.052252" lon="72.820486"></trkpt>
<trkpt lat="19.052384" lon="72.820514"></trkpt>
<trkpt lat="19.052517" lon="72.820543"></trkpt>
<trkpt lat="19.052649" lon="72.820571"></trkpt>
<trkpt lat="19.052782" lon="72.820600"></trkpt>
<trkpt lat="19.052914" lon="72.820629"></trkpt>
<trkpt lat="19.053047" lon="72.820657"></trkpt>
<trkpt lat="19.053179" lon="72.820686"></trkpt>
<trkpt lat="19.053312" lon="72.820714"></trkpt>
<trkpt lat="19.053444" lon="72.820743"></trkpt>
<trkpt lat="19.053577" lon="72.820771"></trkpt>
<trkpt lat="19.053709" lon="72.820800"></trkpt>
<trkpt lat="19.053842" lon="72.820829"></trkpt>
<trkpt lat="19.053974" lon="72.820857"></trkpt>
<trkpt lat="19.054106" lon="72.820886"></trkpt>
<trkpt lat="19.054239" lon="72.820914"></trkpt>
<trkpt lat="19.054371" lon="72.820943"></trkpt>
<trkpt lat="19.054504" lon="72.820971"></trkpt>
<trkpt lat="19.054636" lon="72.821000"></trkpt>
<trkpt lat="19.054769" lon="72.821029"></trkpt>
<trkpt lat="19.054901" lon="72.821057"></trkpt>
<trkpt lat="19.055034" lon="72.821086"></trkpt>
<trkpt lat="19.055166" lon="72.821114"></trkpt>
<trkpt lat="19.055299" lon="72.821143"></trkpt>
<trkpt lat="19.055431" lon="72.821171"></trkpt>
<trkpt lat="19.055564" lon="72.821200"></trkpt>
<trkpt lat="19.055696" lon="72.821229"></trkpt>
<trkpt lat="19.055829" lon="72.821257"></trkpt>
<trkpt lat="19.055961" lon="72.821286"></trkpt>
<trkpt lat="19.056094" lon="72.821314"></trkpt>
<trkpt lat="19.056226" lon="72.821343"></trkpt>
<trkpt lat="19.056358" lon="72.821371"></trkpt>
<trkpt lat="19.056491" lon="72.821400"></trkpt>
<trkpt lat="19.056623" lon="72.821429"></trkpt>
<trkpt lat="19.056756" lon="72.821457"></trkpt>
<trkpt lat="19.056888" lon="72.821486"></trkpt>
<trkpt lat="19.057021" lon="72.821514"></trkpt>
<trkpt lat="19.057153" lon="72.821543"></trkpt>
<trkpt lat="19.057286" lon="72.821571"></trkpt>
<trkpt lat="19.057418" lon="72.821600"></trkpt>
<trkpt lat="19.057551" lon="72.821629"></trkpt>
<trkpt lat="19.057683" lon="72.821657"></trkpt>
<trkpt lat="19.057816" lon="72.821686"></trkpt>
<trkpt lat="19.057948" lon="72.821714"></trkpt>
<trkpt lat="19.058081" lon="72.821743"></trkpt>
<trkpt lat="19.058213" lon="72.821771"></trkpt>
<trkpt lat="19.058345" lon="72.821800"></trkpt>
<trkpt lat="19.058478" lon="72.821829"></trkpt>
<trkpt lat="19.058610" lon="72.821857"></trkpt>
<trkpt lat="19.058743" lon="72.821886"></trkpt>
<trkpt lat="19.058875" lon="72.821914"></trkpt>
<trkpt lat="19.059008" lon="72.821943"></trkpt>
<trkpt lat="19.059140" lon="72.821971"></trkpt>
<trkpt lat="19.059273" lon="72.822000"></trkpt>
<trkpt lat="19.059405" lon="72.822029"></trkpt>
<trkpt lat="19.059538" lon="72.822057"></trkpt>
<trkpt lat="19.059670" lon="72.822086"></trkpt>
<trkpt lat="19.059803" lon="72.822114"></trkpt>
<trkpt lat="19.059935" lon="72.822143"></trkpt>
<trkpt lat="19.060068" lon="72.822171"></trkpt>
<trkpt lat="19.060200" lon="72.822200"></trkpt>
<trkpt lat="19.060336" lon="72.822213"></trkpt>
<trkpt lat="19.060473" lon="72.822225"></trkpt>
<trkpt lat="19.060609" lon="72.822238"></trkpt>
<trkpt lat="19.060745" lon="72.822251"></trkpt>
<trkpt lat="19.060882" lon="72.822264"></trkpt>
<trkpt lat="19.061018" lon="72.822276"></trkpt>
<trkpt lat="19.061155" lon="72.822289"></trkpt>
<trkpt lat="19.061291" lon="72.822302"></trkpt>
<trkpt lat="19.061427" lon="72.822315"></trkpt>
<trkpt lat="19.061564" lon="72.822327"></trkpt>
<trkpt lat="19.061700" lon="72.822340"></trkpt>
<trkpt lat="19.061836" lon="72.822353"></trkpt>
<trkpt lat="19.061973" lon="72.822365"></trkpt>
<trkpt lat="19.062109" lon="72.822378"></trkpt>
<trkpt lat="19.062245" lon="72.822391"></trkpt>
<trkpt lat="19.062382" lon="72.822404"></trkpt>
<trkpt lat="19.062518" lon="72.822416"></trkpt>
<trkpt lat="19.062655" lon="72.822429"></trkpt>
<trkpt lat="19.062791" lon="72.822442"></trkpt>
<trkpt lat="19.062927" lon="72.822455"></trkpt>
<trkpt lat="19.063064" lon="72.822467"></trkpt>
<trkpt lat="19.063200" lon="72.822480"></trkpt>
<trkpt lat="19.063336" lon="72.822493"></trkpt>
<trkpt lat="19.063473" lon="72.822505"></trkpt>
<trkpt lat="19.063609" lon="72.822518"></trkpt>
<trkpt lat="19.063745" lon="72.822531"></trkpt>
<trkpt lat="19.063882" lon="72.822544"></trkpt>
<trkpt lat="19.064018" lon="72.822556"></trkpt>
<trkpt lat="19.064155" lon="72.822569"></trkpt>
<trkpt lat="19.064291" lon="72.822582"></trkpt>
<trkpt lat="19.064427" lon="72.822595"></trkpt>
<trkpt lat="19.064564" lon="72.822607"></trkpt>
<trkpt lat="19.064700" lon="72.822620"></trkpt>
<trkpt lat="19.064836" lon="72.822633"></trkpt>
<trkpt lat="19.064973" lon="72.822645"></trkpt>
<trkpt lat="19.065109" lon="72.822658"></trkpt>
<trkpt lat="19.065245" lon="72.822671"></trkpt>
<trkpt lat="19.065382" lon="72.822684"></trkpt>
<trkpt lat="19.065518" lon="72.822696"></trkpt>
<trkpt lat="19.065655" lon="72.822709"></trkpt>
<trkpt lat="19.065791" lon="72.822722"></trkpt>
<trkpt lat="19.065927" lon="72.822735"></trkpt>
<trkpt lat="19.066064" lon="72.822747"></trkpt>
<trkpt lat="19.066200" lon="72.822760"></trkpt>
<trkpt lat="19.066336" lon="72.822773"></trkpt>
<trkpt lat="19.066473" lon="72.822785"></trkpt>
<trkpt lat="19.066609" lon="72.822798"></trkpt>
<trkpt lat="19.066745" lon="72.822811"></trkpt>
<trkpt lat="19.066882" lon="72.822824"></trkpt>
<trkpt lat="19.067018" lon="72.822836"></trkpt>
<trkpt lat="19.067155" lon="72.822849"></trkpt>
<trkpt lat="19.067291" lon="72.822862"></trkpt>
<trkpt lat="19.067427" lon="72.822875"></trkpt>
<trkpt lat="19.067564" lon="72.822887"></trkpt>
<trkpt lat="19.067700" lon="72.822900"></trkpt>
<trkpt lat="19.067564" lon="72.822887"></trkpt>
<trkpt lat="19.067427" lon="72.822875"></trkpt>
<trkpt lat="19.067291" lon="72.822862"></trkpt>
<trkpt lat="19.067155" lon="72.822849"></trkpt>
<trkpt lat="19.067018" lon="72.822836"></trkpt>
<trkpt lat="19.066882" lon="72.822824"></trkpt>
<trkpt lat="19.066745" lon="72.822811"></trkpt>
<trkpt lat="19.066609" lon="72.822798"></trkpt>
<trkpt lat="19.066473" lon="72.822785"></trkpt>
<trkpt lat="19.066336" lon="72.822773"></trkpt>
<trkpt lat="19.066200" lon="72.822760"></trkpt>
<trkpt lat="19.066064" lon="72.822747"></trkpt>
<trkpt lat="19.065927" lon="72.822735"></trkpt>
<trkpt lat="19.065791" lon="72.822722"></trkpt>
<trkpt lat="19.065655" lon="72.822709"></trkpt>
<trkpt lat="19.065518" lon="72.822696"></trkpt>
<trkpt lat="19.065382" lon="72.822684"></trkpt>
<trkpt lat="19.065245" lon="72.822671"></trkpt>
<trkpt lat="19.065109" lon="72.822658"></trkpt>
<trkpt lat="19.064973" lon="72.822645"></trkpt>
<trkpt lat="19.064836" lon="72.822633"></trkpt>
<trkpt lat="19.064700" lon="72.822620"></trkpt>
<trkpt lat="19.064564" lon="72.822607"></trkpt>
<trkpt lat="19.064427" lon="72.822595"></trkpt>
<trkpt lat="19.064291" lon="72.822582"></trkpt>
<trkpt lat="19.064155" lon="72.822569"></trkpt>
<trkpt lat="19.064018" lon="72.822556"></trkpt>
<trkpt lat="19.063882" lon="72.822544"></trkpt>
<trkpt lat="19.063745" lon="72.822531"></trkpt>
<trkpt lat="19.063609" lon="72.822518"></trkpt>
<trkpt lat="19.063473" lon="72.822505"></trkpt>
<trkpt lat="19.063336" lon="72.822493"></trkpt>
<trkpt lat="19.063200" lon="72.822480"></trkpt>
<trkpt lat="19.063064" lon="72.822467"></trkpt>
<trkpt lat="19.062927" lon="72.822455"></trkpt>
<trkpt lat="19.062791" lon="72.822442"></trkpt>
<trkpt lat="19.062655" lon="72.822429"></trkpt>
<trkpt lat="19.062518" lon="72.822416"></trkpt>
<trkpt lat="19.062382" lon="72.822404"></trkpt>
<trkpt lat="19.062245" lon="72.822391"></trkpt>
<trkpt lat="19.062109" lon="72.822378"></trkpt>
<trkpt lat="19.061973" lon="72.822365"></trkpt>
<trkpt lat="19.061836" lon="72.822353"></trkpt>
<trkpt lat="19.061700" lon="72.822340"></trkpt>
<trkpt lat="19.061564" lon="72.822327"></trkpt>
<trkpt lat="19.061427" lon="72.822315"></trkpt>
<trkpt lat="19.061291" lon="72.822302"></trkpt>
<trkpt lat="19.061155" lon="72.822289"></trkpt>
<trkpt lat="19.061018" lon="72.822276"></trkpt>
<trkpt lat="19.060882" lon="72.822264"></trkpt>
<trkpt lat="19.060745" lon="72.822251"></trkpt>
<trkpt lat="19.060609" lon="72.822238"></trkpt>
<trkpt lat="19.060473" lon="72.822225"></trkpt>
<trkpt lat="19.060336" lon="72.822213"></trkpt>
<trkpt lat="19.060200" lon="72.822200"></trkpt>
<trkpt lat="19.060068" lon="72.822171"></trkpt>
<trkpt lat="19.059935" lon="72.822143"></trkpt>
<trkpt lat="19.059803" lon="72.822114"></trkpt>
<trkpt lat="19.059670" lon="72.822086"></trkpt>
<trkpt lat="19.059538" lon="72.822057"></trkpt>
<trkpt lat="19.059405" lon="72.822029"></trkpt>
<trkpt lat="19.059273" lon="72.822000"></trkpt>
<trkpt lat="19.059140" lon="72.821971"></trkpt>
<trkpt lat="19.059008" lon="72.821943"></trkpt>
<trkpt lat="19.058875" lon="72.821914"></trkpt>
<trkpt lat="19.058743" lon="72.821886"></trkpt>
<trkpt lat="19.058610" lon="72.821857"></trkpt>
<trkpt lat="19.058478" lon="72.821829"></trkpt>
<trkpt lat="19.058345" lon="72.821800"></trkpt>
<trkpt lat="19.058213" lon="72.821771"></trkpt>
<trkpt lat="19.058081" lon="72.821743"></trkpt>
<trkpt lat="19.057948" lon="72.821714"></trkpt>
<trkpt lat="19.057816" lon="72.821686"></trkpt>
<trkpt lat="19.057683" lon="72.821657"></trkpt>
<trkpt lat="19.057551" lon="72.821629"></trkpt>
<trkpt lat="19.057418" lon="72.821600"></trkpt>
<trkpt lat="19.057286" lon="72.821571"></trkpt>
<trkpt lat="19.057153" lon="72.821543"></trkpt>
<trkpt lat="19.057021" lon="72.821514"></trkpt>
<trkpt lat="19.056888" lon="72.821486"></trkpt>
<trkpt lat="19.056756" lon="72.821457"></trkpt>
<trkpt lat="19.056623" lon="72.821429"></trkpt>
<trkpt lat="19.056491" lon="72.821400"></trkpt>
<trkpt lat="19.056358" lon="72.821371"></trkpt>
<trkpt lat="19.056226" lon="72.821343"></trkpt>
<trkpt lat="19.056094" lon="72.821314"></trkpt>
<trkpt lat="19.055961" lon="72.821286"></trkpt>
<trkpt lat="19.055829" lon="72.821257"></trkpt>
<trkpt lat="19.055696" lon="72.821229"></trkpt>
<trkpt lat="19.055564" lon="72.821200"></trkpt>
<trkpt lat="19.055431" lon="72.821171"></trkpt>
<trkpt lat="19.055299" lon="72.821143"></trkpt>
<trkpt lat="19.055166" lon="72.821114"></trkpt>
<trkpt lat="19.055034" lon="72.821086"></trkpt>
<trkpt lat="19.054901" lon="72.821057"></trkpt>
<trkpt lat="19.054769" lon="72.821029"></trkpt>
<trkpt lat="19.054636" lon="72.821000"></trkpt>
<trkpt lat="19.054504" lon="72.820971"></trkpt>
<trkpt lat="19.054371" lon="72.820943"></trkpt>
<trkpt lat="19.054239" lon="72.820914"></trkpt>
<trkpt lat="19.054106" lon="72.820886"></trkpt>
<trkpt lat="19.053974" lon="72.820857"></trkpt>
<trkpt lat="19.053842" lon="72.820829"></trkpt>
<trkpt lat="19.053709" lon="72.820800"></trkpt>
<trkpt lat="19.053577" lon="72.820771"></trkpt>
<trkpt lat="19.053444" lon="72.820743"></trkpt>
<trkpt lat="19.053312" lon="72.820714"></trkpt>
<trkpt lat="19.053179" lon="72.820686"></trkpt>
<trkpt lat="19.053047" lon="72.820657"></trkpt>
<trkpt lat="19.052914" lon="72.820629"></trkpt>
<trkpt lat="19.052782" lon="72.820600"></trkpt>
<trkpt lat="19.052649" lon="72.820571"></trkpt>
<trkpt lat="19.052517" lon="72.820543"></trkpt>
<trkpt lat="19.052384" lon="72.820514"></trkpt>
<trkpt lat="19.052252" lon="72.820486"></trkpt>
<trkpt lat="19.052119" lon="72.820457"></trkpt>
<trkpt lat="19.051987" lon="72.820429"></trkpt>
<trkpt lat="19.051855" lon="72.820400"></trkpt>
<trkpt lat="19.051722" lon="72.820371"></trkpt>
<trkpt lat="19.051590" lon="72.820343"></trkpt>
<trkpt lat="19.051457" lon="72.820314"></trkpt>
<trkpt lat="19.051325" lon="72.820286"></trkpt>
<trkpt lat="19.051192" lon="72.820257"></trkpt>
<trkpt lat="19.051060" lon="72.820229"></trkpt>
<trkpt lat="19.050927" lon="72.820200"></trkpt>
<trkpt lat="19.050795" lon="72.820171"></trkpt>
<trkpt lat="19.050662" lon="72.820143"></trkpt>
<trkpt lat="19.050530" lon="72.820114"></trkpt>
<trkpt lat="19.050397" lon="72.820086"></trkpt>
<trkpt lat="19.050265" lon="72.820057"></trkpt>
<trkpt lat="19.050132" lon="72.820029"></trkpt>
<trkpt lat="19.050000" lon="72.820000"></trkpt>
<trkpt lat="19.049867" lon="72.819963"></trkpt>
<trkpt lat="19.049733" lon="72.819926"></trkpt>
<trkpt lat="19.049600" lon="72.819889"></trkpt>
<trkpt lat="19.049467" lon="72.819852"></trkpt>
<trkpt lat="19.049333" lon="72.819815"></trkpt>
<trkpt lat="19.049200" lon="72.819778"></trkpt>
<trkpt lat="19.049067" lon="72.819741"></trkpt>
<trkpt lat="19.048933" lon="72.819704"></trkpt>
<trkpt lat="19.048800" lon="72.819667"></trkpt>
<trkpt lat="19.048667" lon="72.819630"></trkpt>
<trkpt lat="19.048533" lon="72.819593"></trkpt>
<trkpt lat="19.048400" lon="72.819556"></trkpt>
<trkpt lat="19.048267" lon="72.819519"></trkpt>
<trkpt lat="19.048133" lon="72.819481"></trkpt>
<trkpt lat="19.048000" lon="72.819444"></trkpt>
<trkpt lat="19.047867" lon="72.819407"></trkpt>
<trkpt lat="19.047733" lon="72.819370"></trkpt>
<trkpt lat="19.047600" lon="72.819333"></trkpt>
<trkpt lat="19.047467" lon="72.819296"></trkpt>
<trkpt lat="19.047333" lon="72.819259"></trkpt>
<trkpt lat="19.047200" lon="72.819222"></trkpt>
<trkpt lat="19.047067" lon="72.819185"></trkpt>
<trkpt lat="19.046933" lon="72.819148"></trkpt>
<trkpt lat="19.046800" lon="72.819111"></trkpt>
<trkpt lat="19.046667" lon="72.819074"></trkpt>
<trkpt lat="19.046533" lon="72.819037"></trkpt>
<trkpt lat="19.046400" lon="72.819000"></trkpt>
<trkpt lat="19.046283" lon="72.818917"></trkpt>
<trkpt lat="19.046167" lon="72.818833"></trkpt>
<trkpt lat="19.046050" lon="72.818750"></trkpt>
<trkpt lat="19.045933" lon="72.818667"></trkpt>
<trkpt lat="19.045817" lon="72.818583"></trkpt>
<trkpt lat="19.045700" lon="72.818500"></trkpt>
<trkpt lat="19.045583" lon="72.818417"></trkpt>
<trkpt lat="19.045467" lon="72.818333"></trkpt>
<trkpt lat="19.045350" lon="72.818250"></trkpt>
<trkpt lat="19.045233" lon="72.818167"></trkpt>
<trkpt lat="19.045117" lon="72.818083"></trkpt>
<trkpt lat="19.045000" lon="72.818000"></trkpt>
<trkpt lat="19.044868" lon="72.817958"></trkpt>
<trkpt lat="19.044737" lon="72.817916"></trkpt>
<trkpt lat="19.044605" lon="72.817874"></trkpt>
<trkpt lat="19.044474" lon="72.817832"></trkpt>
<trkpt lat="19.044342" lon="72.817789"></trkpt>
<trkpt lat="19.044211" lon="72.817747"></trkpt>
<trkpt lat="19.044079" lon="72.817705"></trkpt>
<trkpt lat="19.043947" lon="72.817663"></trkpt>
<trkpt lat="19.043816" lon="72.817621"></trkpt>
<trkpt lat="19.043684" lon="72.817579"></trkpt>
<trkpt lat="19.043553" lon="72.817537"></trkpt>
<trkpt lat="19.043421" lon="72.817495"></trkpt>
<trkpt lat="19.043289" lon="72.817453"></trkpt>
<trkpt lat="19.043158" lon="72.817411"></trkpt>
<trkpt lat="19.043026" lon="72.817368"></trkpt>
<trkpt lat="19.042895" lon="72.817326"></trkpt>
<trkpt lat="19.042763" lon="72.817284"></trkpt>
<trkpt lat="19.042632" lon="72.817242"></trkpt>
<trkpt lat="19.042500" lon="72.817200"></trkpt>
</trkseg></trk></gpx>
