<?xml version="1.0" encoding="UTF-8"?>
<gpx version="1.1" creator="strava-api">
<trk><name>Shivaji Park</name><trkseg>
<trkpt lat="19.025870" lon="72.839410"></trkpt>
<trkpt lat="19.025970" lon="72.839360"></trkpt>
<trkpt lat="19.026040" lon="72.839360"></trkpt>
<trkpt lat="19.026210" lon="72.839510"></trkpt>
<trkpt lat="19.026300" lon="72.839560"></trkpt>
<trkpt lat="19.026870" lon="72.839800"></trkpt>
<trkpt lat="19.027090" lon="72.839840"></trkpt>
<trkpt lat="19.027240" lon="72.839850"></trkpt>
<trkpt lat="19.027550" lon="72.839930"></trkpt>
<trkpt lat="19.027650" lon="72.839930"></trkpt>
<trkpt lat="19.027900" lon="72.839960"></trkpt>
<trkpt lat="19.028040" lon="72.839940"></trkpt>
<trkpt lat="19.028100" lon="72.839890"></trkpt>
<trkpt lat="19.028250" lon="72.839700"></trkpt>
<trkpt lat="19.028290" lon="72.839560"></trkpt>
<trkpt lat="19.028520" lon="72.839220"></trkpt>
<trkpt lat="19.028550" lon="72.839070"></trkpt>
<trkpt lat="19.028600" lon="72.838950"></trkpt>
<trkpt lat="19.028960" lon="72.838350"></trkpt>
<trkpt lat="19.029010" lon="72.838230"></trkpt>
<trkpt lat="19.029180" lon="72.837960"></trkpt>
<trkpt lat="19.029200" lon="72.837930"></trkpt>
<trkpt lat="19.029200" lon="72.837890"></trkpt>
<trkpt lat="19.029140" lon="72.837840"></trkpt>
<trkpt lat="19.028830" lon="72.837730"></trkpt>
<trkpt lat="19.028390" lon="72.837420"></trkpt>
<trkpt lat="19.028220" lon="72.837370"></trkpt>
<trkpt lat="19.028120" lon="72.837320"></trkpt>
<trkpt lat="19.027590" lon="72.837000"></trkpt>
<trkpt lat="19.027380" lon="72.836910"></trkpt>
<trkpt lat="19.027130" lon="72.836730"></trkpt>
<trkpt lat="19.026780" lon="72.836580"></trkpt>
<trkpt lat="19.026390" lon="72.836350"></trkpt>
<trkpt lat="19.026210" lon="72.836300"></trkpt>
<trkpt lat="19.026140" lon="72.836350"></trkpt>
<trkpt lat="19.026090" lon="72.836470"></trkpt>
<trkpt lat="19.026000" lon="72.836610"></trkpt>
<trkpt lat="19.025750" lon="72.836910"></trkpt>
<trkpt lat="19.025710" lon="72.837050"></trkpt>
<trkpt lat="19.025550" lon="72.837280"></trkpt>
<trkpt lat="19.025430" lon="72.837560"></trkpt>
<trkpt lat="19.025430" lon="72.837680"></trkpt>
<trkpt lat="19.025380" lon="72.837870"></trkpt>
<trkpt lat="19.025370" lon="72.838240"></trkpt>
<trkpt lat="19.025420" lon="72.838490"></trkpt>
<trkpt lat="19.025530" lon="72.838670"></trkpt>
<trkpt lat="19.025730" lon="72.839110"></trkpt>
<trkpt lat="19.025950" lon="72.839340"></trkpt>
</trkseg></trk>
</gpx>
