<?xml version='1.0' encoding='utf-8'?>
<gpx version="1.1" creator="RunCast" xmlns="http://www.topografix.com/GPX/1/1"><trk><name>mumbai_bandra_worli_coastal</name><trkseg><trkpt lat="19.011300" lon="72.815500" /><trkpt lat="19.011428" lon="72.815542" /><trkpt lat="19.011556" lon="72.815584" /><trkpt lat="19.011684" lon="72.815626" /><trkpt lat="19.011812" lon="72.815668" /><trkpt lat="19.011940" lon="72.815710" /><trkpt lat="19.012068" lon="72.815752" /><trkpt lat="19.012196" lon="72.815794" /><trkpt lat="19.012324" lon="72.815836" /><trkpt lat="19.012452" lon="72.815879" /><trkpt lat="19.012580" lon="72.815921" /><trkpt lat="19.012708" lon="72.815963" /><trkpt lat="19.012836" lon="72.816005" /><trkpt lat="19.012964" lon="72.816047" /><trkpt lat="19.013093" lon="72.816089" /><trkpt lat="19.013221" lon="72.816131" /><trkpt lat="19.013349" lon="72.816173" /><trkpt lat="19.013477" lon="72.816215" /><trkpt lat="19.013605" lon="72.816257" /><trkpt lat="19.013733" lon="72.816299" /><trkpt lat="19.013861" lon="72.816341" /><trkpt lat="19.013989" lon="72.816383" /><trkpt lat="19.014117" lon="72.816425" /><trkpt lat="19.014245" lon="72.816467" /><trkpt lat="19.014373" lon="72.816509" /><trkpt lat="19.014501" lon="72.816551" /><trkpt lat="19.014629" lon="72.816593" /><trkpt lat="19.014757" lon="72.816636" /><trkpt lat="19.014885" lon="72.816678" /><trkpt lat="19.015013" lon="72.816720" /><trkpt lat="19.015141" lon="72.816762" /><trkpt lat="19.015269" lon="72.816804" /><trkpt lat="19.015397" lon="72.816846" /><trkpt lat="19.015525" lon="72.816888" /><trkpt lat="19.015653" lon="72.816930" /><trkpt lat="19.015781" lon="72.816972" /><trkpt lat="19.015909" lon="72.817014" /><trkpt lat="19.016037" lon="72.817056" /><trkpt lat="19.016165" lon="72.817098" /><trkpt lat="19.016293" lon="72.817140" /><trkpt lat="19.016421" lon="72.817182" /><trkpt lat="19.016550" lon="72.817224" /><trkpt lat="19.016678" lon="72.817266" /><trkpt lat="19.016806" lon="72.817308" /><trkpt lat="19.016934" lon="72.817350" /><trkpt lat="19.017062" lon="72.817393" /><trkpt lat="19.017190" lon="72.817435" /><trkpt lat="19.017318" lon="72.817477" /><trkpt lat="19.017446" lon="72.817519" /><trkpt lat="19.017574" lon="72.817561" /><trkpt lat="19.017702" lon="72.817603" /><trkpt lat="19.017830" lon="72.817645" /><trkpt lat="19.017958" lon="72.817687" /><trkpt lat="19.018086" lon="72.817729" /><trkpt lat="19.018214" lon="72.817771" /><trkpt lat="19.018342" lon="72.817813" /><trkpt lat="19.018470" lon="72.817855" /><trkpt lat="19.018598" lon="72.817897" /><trkpt lat="19.018726" lon="72.817939" /><trkpt lat="19.018854" lon="72.817981" /><trkpt lat="19.018982" lon="72.818023" /><trkpt lat="19.019110" lon="72.818065" /><trkpt lat="19.019238" lon="72.818107" /><trkpt lat="19.019366" lon="72.818150" /><trkpt lat="19.019494" lon="72.818192" /><trkpt lat="19.019622" lon="72.818234" /><trkpt lat="19.019750" lon="72.818276" /><trkpt lat="19.019879" lon="72.818318" /><trkpt lat="19.020007" lon="72.818360" /><trkpt lat="19.020135" lon="72.818402" /><trkpt lat="19.020263" lon="72.818444" /><trkpt lat="19.020391" lon="72.818486" /><trkpt lat="19.020519" lon="72.818528" /><trkpt lat="19.020647" lon="72.818570" /><trkpt lat="19.020775" lon="72.818612" /><trkpt lat="19.020903" lon="72.818654" /><trkpt lat="19.021031" lon="72.818696" /><trkpt lat="19.021159" lon="72.818738" /><trkpt lat="19.021287" lon="72.818780" /><trkpt lat="19.021415" lon="72.818822" /><trkpt lat="19.021543" lon="72.818864" /><trkpt lat="19.021671" lon="72.818907" /><trkpt lat="19.021799" lon="72.818949" /><trkpt lat="19.021927" lon="72.818991" /><trkpt lat="19.022055" lon="72.819033" /><trkpt lat="19.022183" lon="72.819075" /><trkpt lat="19.022311" lon="72.819117" /><trkpt lat="19.022439" lon="72.819159" /><trkpt lat="19.022567" lon="72.819201" /><trkpt lat="19.022695" lon="72.819243" /><trkpt lat="19.022823" lon="72.819285" /><trkpt lat="19.022951" lon="72.819327" /><trkpt lat="19.023079" lon="72.819369" /><trkpt lat="19.023207" lon="72.819411" /><trkpt lat="19.023336" lon="72.819453" /><trkpt lat="19.023464" lon="72.819495" /><trkpt lat="19.023592" lon="72.819537" /><trkpt lat="19.023720" lon="72.819579" /><trkpt lat="19.023848" lon="72.819621" /><trkpt lat="19.023976" lon="72.819664" /><trkpt lat="19.024104" lon="72.819706" /><trkpt lat="19.024232" lon="72.819748" /><trkpt lat="19.024360" lon="72.819790" /><trkpt lat="19.024488" lon="72.819832" /><trkpt lat="19.024616" lon="72.819874" /><trkpt lat="19.024744" lon="72.819916" /><trkpt lat="19.024872" lon="72.819958" /><trkpt lat="19.025000" lon="72.820000" /><trkpt lat="19.025126" lon="72.820052" /><trkpt lat="19.025252" lon="72.820103" /><trkpt lat="19.025377" lon="72.820155" /><trkpt lat="19.025503" lon="72.820206" /><trkpt lat="19.025629" lon="72.820258" /><trkpt lat="19.025755" lon="72.820309" /><trkpt lat="19.025880" lon="72.820361" /><trkpt lat="19.026006" lon="72.820412" /><trkpt lat="19.026132" lon="72.820464" /><trkpt lat="19.026258" lon="72.820515" /><trkpt lat="19.026384" lon="72.820567" /><trkpt lat="19.026509" lon="72.820619" /><trkpt lat="19.026635" lon="72.820670" /><trkpt lat="19.026761" lon="72.820722" /><trkpt lat="19.026887" lon="72.820773" /><trkpt lat="19.027012" lon="72.820825" /><trkpt lat="19.027138" lon="72.820876" /><trkpt lat="19.027264" lon="72.820928" /><trkpt lat="19.027390" lon="72.820979" /><trkpt lat="19.027515" lon="72.821031" /><trkpt lat="19.027641" lon="72.821082" /><trkpt lat="19.027767" lon="72.821134" /><trkpt lat="19.027893" lon="72.821186" /><trkpt lat="19.028019" lon="72.821237" /><trkpt lat="19.028144" lon="72.821289" /><trkpt lat="19.028270" lon="72.821340" /><trkpt lat="19.028396" lon="72.821392" /><trkpt lat="19.028522" lon="72.821443" /><trkpt lat="19.028647" lon="72.821495" /><trkpt lat="19.028773" lon="72.821546" /><trkpt lat="19.028899" lon="72.821598" /><trkpt lat="19.029025" lon="72.821649" /><trkpt lat="19.029151" lon="72.821701" /><trkpt lat="19.029276" lon="72.821753" /><trkpt lat="19.029402" lon="72.821804" /><trkpt lat="19.029528" lon="72.821856" /><trkpt lat="19.029654" lon="72.821907" /><trkpt lat="19.029779" lon="72.821959" /><trkpt lat="19.029905" lon="72.822010" /><trkpt lat="19.030031" lon="72.822062" /><trkpt lat="19.030157" lon="72.822113" /><trkpt lat="19.030282" lon="72.822165" /><trkpt lat="19.030408" lon="72.822216" /><trkpt lat="19.030534" lon="72.822268" /><trkpt lat="19.030660" lon="72.822320" /><trkpt lat="19.030786" lon="72.822371" /><trkpt lat="19.030911" lon="72.822423" /><trkpt lat="19.031037" lon="72.822474" /><trkpt lat="19.031163" lon="72.822526" /><trkpt lat="19.031289" lon="72.822577" /><trkpt lat="19.031414" lon="72.822629" /><trkpt lat="19.031540" lon="72.822680" /><trkpt lat="19.031666" lon="72.822732" /><trkpt lat="19.031792" lon="72.822784" /><trkpt lat="19.031918" lon="72.822835" /><trkpt lat="19.032043" lon="72.822887" /><trkpt lat="19.032169" lon="72.822938" /><trkpt lat="19.032295" lon="72.822990" /><trkpt lat="19.032421" lon="72.823041" /><trkpt lat="19.032546" lon="72.823093" /><trkpt lat="19.032672" lon="72.823144" /><trkpt lat="19.032798" lon="72.823196" /><trkpt lat="19.032924" lon="72.823247" /><trkpt lat="19.033049" lon="72.823299" /><trkpt lat="19.033175" lon="72.823351" /><trkpt lat="19.033301" lon="72.823402" /><trkpt lat="19.033427" lon="72.823454" /><trkpt lat="19.033553" lon="72.823505" /><trkpt lat="19.033678" lon="72.823557" /><trkpt lat="19.033804" lon="72.823608" /><trkpt lat="19.033930" lon="72.823660" /><trkpt lat="19.034056" lon="72.823711" /><trkpt lat="19.034181" lon="72.823763" /><trkpt lat="19.034307" lon="72.823814" /><trkpt lat="19.034433" lon="72.823866" /><trkpt lat="19.034559" lon="72.823918" /><trkpt lat="19.034685" lon="72.823969" /><trkpt lat="19.034810" lon="72.824021" /><trkpt lat="19.034936" lon="72.824072" /><trkpt lat="19.035062" lon="72.824124" /><trkpt lat="19.035188" lon="72.824175" /><trkpt lat="19.035313" lon="72.824227" /><trkpt lat="19.035439" lon="72.824278" /><trkpt lat="19.035565" lon="72.824330" /><trkpt lat="19.035691" lon="72.824381" /><trkpt lat="19.035816" lon="72.824433" /><trkpt lat="19.035942" lon="72.824485" /><trkpt lat="19.036068" lon="72.824536" /><trkpt lat="19.036194" lon="72.824588" /><trkpt lat="19.036320" lon="72.824639" /><trkpt lat="19.036445" lon="72.824691" /><trkpt lat="19.036571" lon="72.824742" /><trkpt lat="19.036697" lon="72.824794" /><trkpt lat="19.036823" lon="72.824845" /><trkpt lat="19.036948" lon="72.824897" /><trkpt lat="19.037074" lon="72.824948" /><trkpt lat="19.037200" lon="72.825000" /><trkpt lat="19.037319" lon="72.825066" /><trkpt lat="19.037438" lon="72.825132" /><trkpt lat="19.037557" lon="72.825198" /><trkpt lat="19.037677" lon="72.825264" /><trkpt lat="19.037796" lon="72.825330" /><trkpt lat="19.037915" lon="72.825396" /><trkpt lat="19.038034" lon="72.825462" /><trkpt lat="19.038153" lon="72.825528" /><trkpt lat="19.038272" lon="72.825594" /><trkpt lat="19.038391" lon="72.825660" /><trkpt lat="19.038511" lon="72.825726" /><trkpt lat="19.038630" lon="72.825791" /><trkpt lat="19.038749" lon="72.825857" /><trkpt lat="19.038868" lon="72.825923" /><trkpt lat="19.038987" lon="72.825989" /><trkpt lat="19.039106" lon="72.826055" /><trkpt lat="19.039226" lon="72.826121" /><trkpt lat="19.039345" lon="72.826187" /><trkpt lat="19.039464" lon="72.826253" /><trkpt lat="19.039583" lon="72.826319" /><trkpt lat="19.039702" lon="72.826385" /><trkpt lat="19.039821" lon="72.826451" /><trkpt lat="19.039940" lon="72.826517" /><trkpt lat="19.040060" lon="72.826583" /><trkpt lat="19.040179" lon="72.826649" /><trkpt lat="19.040298" lon="72.826715" /><trkpt lat="19.040417" lon="72.826781" /><trkpt lat="19.040536" lon="72.826847" /><trkpt lat="19.040655" lon="72.826913" /><trkpt lat="19.040774" lon="72.826979" /><trkpt lat="19.040894" lon="72.827045" /><trkpt lat="19.041013" lon="72.827111" /><trkpt lat="19.041132" lon="72.827177" /><trkpt lat="19.041251" lon="72.827243" /><trkpt lat="19.041370" lon="72.827309" /><trkpt lat="19.041489" lon="72.827374" /><trkpt lat="19.041609" lon="72.827440" /><trkpt lat="19.041728" lon="72.827506" /><trkpt lat="19.041847" lon="72.827572" /><trkpt lat="19.041966" lon="72.827638" /><trkpt lat="19.042085" lon="72.827704" /><trkpt lat="19.042204" lon="72.827770" /><trkpt lat="19.042323" lon="72.827836" /><trkpt lat="19.042443" lon="72.827902" /><trkpt lat="19.042562" lon="72.827968" /><trkpt lat="19.042681" lon="72.828034" /><trkpt lat="19.042800" lon="72.828100" /><trkpt lat="19.042919" lon="72.828166" /><trkpt lat="19.043038" lon="72.828232" /><trkpt lat="19.043157" lon="72.828298" /><trkpt lat="19.043277" lon="72.828364" /><trkpt lat="19.043396" lon="72.828430" /><trkpt lat="19.043515" lon="72.828496" /><trkpt lat="19.043634" lon="72.828562" /><trkpt lat="19.043753" lon="72.828628" /><trkpt lat="19.043872" lon="72.828694" /><trkpt lat="19.043991" lon="72.828760" /><trkpt lat="19.044111" lon="72.828826" /><trkpt lat="19.044230" lon="72.828891" /><trkpt lat="19.044349" lon="72.828957" /><trkpt lat="19.044468" lon="72.829023" /><trkpt lat="19.044587" lon="72.829089" /><trkpt lat="19.044706" lon="72.829155" /><trkpt lat="19.044826" lon="72.829221" /><trkpt lat="19.044945" lon="72.829287" /><trkpt lat="19.045064" lon="72.829353" /><trkpt lat="19.045183" lon="72.829419" /><trkpt lat="19.045302" lon="72.829485" /><trkpt lat="19.045421" lon="72.829551" /><trkpt lat="19.045540" lon="72.829617" /><trkpt lat="19.045660" lon="72.829683" /><trkpt lat="19.045779" lon="72.829749" /><trkpt lat="19.045898" lon="72.829815" /><trkpt lat="19.046017" lon="72.829881" /><trkpt lat="19.046136" lon="72.829947" /><trkpt lat="19.046255" lon="72.830013" /><trkpt lat="19.046374" lon="72.830079" /><trkpt lat="19.046494" lon="72.830145" /><trkpt lat="19.046613" lon="72.830211" /><trkpt lat="19.046732" lon="72.830277" /><trkpt lat="19.046851" lon="72.830343" /><trkpt lat="19.046970" lon="72.830409" /><trkpt lat="19.047089" lon="72.830474" /><trkpt lat="19.047209" lon="72.830540" /><trkpt lat="19.047328" lon="72.830606" /><trkpt lat="19.047447" lon="72.830672" /><trkpt lat="19.047566" lon="72.830738" /><trkpt lat="19.047685" lon="72.830804" /><trkpt lat="19.047804" lon="72.830870" /><trkpt lat="19.047923" lon="72.830936" /><trkpt lat="19.048043" lon="72.831002" /><trkpt lat="19.048162" lon="72.831068" /><trkpt lat="19.048281" lon="72.831134" /><trkpt lat="19.048275" lon="72.831147" /><trkpt lat="19.048150" lon="72.831094" /><trkpt lat="19.048025" lon="72.831041" /><trkpt lat="19.047900" lon="72.830989" /><trkpt lat="19.047775" lon="72.830936" /><trkpt lat="19.047651" lon="72.830883" /><trkpt lat="19.047526" lon="72.830830" /><trkpt lat="19.047401" lon="72.830777" /><trkpt lat="19.047276" lon="72.830724" /><trkpt lat="19.047151" lon="72.830671" /><trkpt lat="19.047026" lon="72.830619" /><trkpt lat="19.046901" lon="72.830566" /><trkpt lat="19.046776" lon="72.830513" /><trkpt lat="19.046651" lon="72.830460" /><trkpt lat="19.046526" lon="72.830407" /><trkpt lat="19.046401" lon="72.830354" /><trkpt lat="19.046276" lon="72.830301" /><trkpt lat="19.046152" lon="72.830248" /><trkpt lat="19.046027" lon="72.830196" /><trkpt lat="19.045902" lon="72.830143" /><trkpt lat="19.045777" lon="72.830090" /><trkpt lat="19.045652" lon="72.830037" /><trkpt lat="19.045527" lon="72.829984" /><trkpt lat="19.045402" lon="72.829931" /><trkpt lat="19.045277" lon="72.829878" /><trkpt lat="19.045152" lon="72.829826" /><trkpt lat="19.045027" lon="72.829773" /><trkpt lat="19.044902" lon="72.829720" /><trkpt lat="19.044777" lon="72.829667" /><trkpt lat="19.044653" lon="72.829614" /><trkpt lat="19.044528" lon="72.829561" /><trkpt lat="19.044403" lon="72.829508" /><trkpt lat="19.044278" lon="72.829456" /><trkpt lat="19.044153" lon="72.829403" /><trkpt lat="19.044028" lon="72.829350" /><trkpt lat="19.043903" lon="72.829297" /><trkpt lat="19.043778" lon="72.829244" /><trkpt lat="19.043653" lon="72.829191" /><trkpt lat="19.043528" lon="72.829138" /><trkpt lat="19.043403" lon="72.829086" /><trkpt lat="19.043278" lon="72.829033" /><trkpt lat="19.043154" lon="72.828980" /><trkpt lat="19.043029" lon="72.828927" /><trkpt lat="19.042904" lon="72.828874" /><trkpt lat="19.042779" lon="72.828821" /><trkpt lat="19.042654" lon="72.828768" /><trkpt lat="19.042529" lon="72.828715" /><trkpt lat="19.042404" lon="72.828663" /><trkpt lat="19.042279" lon="72.828610" /><trkpt lat="19.042154" lon="72.828557" /><trkpt lat="19.042029" lon="72.828504" /><trkpt lat="19.041904" lon="72.828451" /><trkpt lat="19.041779" lon="72.828398" /><trkpt lat="19.041655" lon="72.828345" /><trkpt lat="19.041530" lon="72.828293" /><trkpt lat="19.041405" lon="72.828240" /><trkpt lat="19.041280" lon="72.828187" /><trkpt lat="19.041155" lon="72.828134" /><trkpt lat="19.041030" lon="72.828081" /><trkpt lat="19.040905" lon="72.828028" /><trkpt lat="19.040780" lon="72.827975" /><trkpt lat="19.040655" lon="72.827923" /><trkpt lat="19.040530" lon="72.827870" /><trkpt lat="19.040405" lon="72.827817" /><trkpt lat="19.040280" lon="72.827764" /><trkpt lat="19.040156" lon="72.827711" /><trkpt lat="19.040031" lon="72.827658" /><trkpt lat="19.039906" lon="72.827605" /><trkpt lat="19.039781" lon="72.827553" /><trkpt lat="19.039656" lon="72.827500" /><trkpt lat="19.039531" lon="72.827447" /><trkpt lat="19.039406" lon="72.827394" /><trkpt lat="19.039281" lon="72.827341" /><trkpt lat="19.039156" lon="72.827288" /><trkpt lat="19.039031" lon="72.827235" /><trkpt lat="19.038906" lon="72.827182" /><trkpt lat="19.038781" lon="72.827130" /><trkpt lat="19.038657" lon="72.827077" /><trkpt lat="19.038532" lon="72.827024" /><trkpt lat="19.038407" lon="72.826971" /><trkpt lat="19.038282" lon="72.826918" /><trkpt lat="19.038157" lon="72.826865" /><trkpt lat="19.038032" lon="72.826812" /><trkpt lat="19.037907" lon="72.826760" /><trkpt lat="19.037782" lon="72.826707" /><trkpt lat="19.037657" lon="72.826654" /><trkpt lat="19.037532" lon="72.826601" /><trkpt lat="19.037407" lon="72.826548" /><trkpt lat="19.037282" lon="72.826495" /><trkpt lat="19.037158" lon="72.826442" /><trkpt lat="19.037033" lon="72.826390" /><trkpt lat="19.036908" lon="72.826337" /><trkpt lat="19.036783" lon="72.826284" /><trkpt lat="19.036658" lon="72.826231" /><trkpt lat="19.036533" lon="72.826178" /><trkpt lat="19.036408" lon="72.826125" /><trkpt lat="19.036283" lon="72.826072" /><trkpt lat="19.036158" lon="72.826020" /><trkpt lat="19.036033" lon="72.825967" /><trkpt lat="19.035908" lon="72.825914" /><trkpt lat="19.035784" lon="72.825861" /><trkpt lat="19.035659" lon="72.825808" /><trkpt lat="19.035534" lon="72.825755" /><trkpt lat="19.035409" lon="72.825702" /><trkpt lat="19.035284" lon="72.825649" /><trkpt lat="19.035159" lon="72.825597" /><trkpt lat="19.035034" lon="72.825544" /><trkpt lat="19.034909" lon="72.825491" /><trkpt lat="19.034784" lon="72.825438" /><trkpt lat="19.034659" lon="72.825385" /><trkpt lat="19.034534" lon="72.825332" /><trkpt lat="19.034409" lon="72.825279" /><trkpt lat="19.034285" lon="72.825227" /><trkpt lat="19.034160" lon="72.825174" /><trkpt lat="19.034035" lon="72.825121" /><trkpt lat="19.033910" lon="72.825068" /><trkpt lat="19.033785" lon="72.825015" /><trkpt lat="19.033660" lon="72.824962" /><trkpt lat="19.033535" lon="72.824909" /><trkpt lat="19.033410" lon="72.824857" /><trkpt lat="19.033285" lon="72.824804" /><trkpt lat="19.033160" lon="72.824751" /><trkpt lat="19.033035" lon="72.824698" /><trkpt lat="19.032910" lon="72.824645" /><trkpt lat="19.032786" lon="72.824592" /><trkpt lat="19.032661" lon="72.824539" /><trkpt lat="19.032536" lon="72.824487" /><trkpt lat="19.032411" lon="72.824434" /><trkpt lat="19.032286" lon="72.824381" /><trkpt lat="19.032161" lon="72.824328" /><trkpt lat="19.032036" lon="72.824275" /><trkpt lat="19.031911" lon="72.824222" /><trkpt lat="19.031786" lon="72.824169" /><trkpt lat="19.031661" lon="72.824116" /><trkpt lat="19.031536" lon="72.824064" /><trkpt lat="19.031411" lon="72.824011" /><trkpt lat="19.031287" lon="72.823958" /><trkpt lat="19.031162" lon="72.823905" /><trkpt lat="19.031037" lon="72.823852" /><trkpt lat="19.030912" lon="72.823799" /><trkpt lat="19.030787" lon="72.823746" /><trkpt lat="19.030662" lon="72.823694" /><trkpt lat="19.030537" lon="72.823641" /><trkpt lat="19.030412" lon="72.823588" /><trkpt lat="19.030287" lon="72.823535" /><trkpt lat="19.030162" lon="72.823482" /><trkpt lat="19.030037" lon="72.823429" /><trkpt lat="19.029912" lon="72.823376" /><trkpt lat="19.029788" lon="72.823324" /><trkpt lat="19.029663" lon="72.823271" /><trkpt lat="19.029538" lon="72.823218" /><trkpt lat="19.029413" lon="72.823165" /><trkpt lat="19.029288" lon="72.823112" /><trkpt lat="19.029163" lon="72.823059" /><trkpt lat="19.029038" lon="72.823006" /><trkpt lat="19.028913" lon="72.822954" /><trkpt lat="19.028788" lon="72.822901" /><trkpt lat="19.028663" lon="72.822848" /><trkpt lat="19.028538" lon="72.822795" /><trkpt lat="19.028413" lon="72.822742" /><trkpt lat="19.028289" lon="72.822689" /><trkpt lat="19.028164" lon="72.822636" /><trkpt lat="19.028039" lon="72.822584" /><trkpt lat="19.027914" lon="72.822531" /><trkpt lat="19.027789" lon="72.822478" /><trkpt lat="19.027664" lon="72.822425" /><trkpt lat="19.027539" lon="72.822372" /><trkpt lat="19.027414" lon="72.822319" /><trkpt lat="19.027289" lon="72.822266" /><trkpt lat="19.027164" lon="72.822213" /><trkpt lat="19.027039" lon="72.822161" /><trkpt lat="19.026914" lon="72.822108" /><trkpt lat="19.026790" lon="72.822055" /><trkpt lat="19.026665" lon="72.822002" /><trkpt lat="19.026540" lon="72.821949" /><trkpt lat="19.026415" lon="72.821896" /><trkpt lat="19.026290" lon="72.821843" /><trkpt lat="19.026165" lon="72.821791" /><trkpt lat="19.026040" lon="72.821738" /><trkpt lat="19.025915" lon="72.821685" /><trkpt lat="19.025790" lon="72.821632" /><trkpt lat="19.025665" lon="72.821579" /><trkpt lat="19.025540" lon="72.821526" /><trkpt lat="19.025415" lon="72.821473" /><trkpt lat="19.025291" lon="72.821421" /><trkpt lat="19.025166" lon="72.821368" /><trkpt lat="19.025041" lon="72.821315" /><trkpt lat="19.024916" lon="72.821262" /><trkpt lat="19.024791" lon="72.821209" /><trkpt lat="19.024666" lon="72.821156" /><trkpt lat="19.024541" lon="72.821103" /><trkpt lat="19.024416" lon="72.821051" /><trkpt lat="19.024291" lon="72.820998" /><trkpt lat="19.024166" lon="72.820945" /><trkpt lat="19.024041" lon="72.820892" /><trkpt lat="19.023916" lon="72.820839" /><trkpt lat="19.023792" lon="72.820786" /><trkpt lat="19.023667" lon="72.820733" /><trkpt lat="19.023542" lon="72.820680" /><trkpt lat="19.023417" lon="72.820628" /><trkpt lat="19.023292" lon="72.820575" /><trkpt lat="19.023167" lon="72.820522" /><trkpt lat="19.023042" lon="72.820469" /><trkpt lat="19.022917" lon="72.820416" /><trkpt lat="19.022792" lon="72.820363" /><trkpt lat="19.022667" lon="72.820310" /><trkpt lat="19.022542" lon="72.820258" /><trkpt lat="19.022418" lon="72.820205" /><trkpt lat="19.022293" lon="72.820152" /><trkpt lat="19.022168" lon="72.820099" /><trkpt lat="19.022043" lon="72.820046" /><trkpt lat="19.021918" lon="72.819993" /><trkpt lat="19.021793" lon="72.819940" /><trkpt lat="19.021668" lon="72.819888" /><trkpt lat="19.021543" lon="72.819835" /><trkpt lat="19.021418" lon="72.819782" /><trkpt lat="19.021293" lon="72.819729" /><trkpt lat="19.021168" lon="72.819676" /><trkpt lat="19.021043" lon="72.819623" /><trkpt lat="19.020919" lon="72.819570" /><trkpt lat="19.020794" lon="72.819518" /><trkpt lat="19.020669" lon="72.819465" /><trkpt lat="19.020544" lon="72.819412" /><trkpt lat="19.020419" lon="72.819359" /><trkpt lat="19.020294" lon="72.819306" /><trkpt lat="19.020169" lon="72.819253" /><trkpt lat="19.020044" lon="72.819200" /><trkpt lat="19.019919" lon="72.819147" /><trkpt lat="19.019794" lon="72.819095" /><trkpt lat="19.019669" lon="72.819042" /><trkpt lat="19.019544" lon="72.818989" /><trkpt lat="19.019420" lon="72.818936" /><trkpt lat="19.019295" lon="72.818883" /><trkpt lat="19.019170" lon="72.818830" /><trkpt lat="19.019045" lon="72.818777" /><trkpt lat="19.018920" lon="72.818725" /><trkpt lat="19.018795" lon="72.818672" /><trkpt lat="19.018670" lon="72.818619" /><trkpt lat="19.018545" lon="72.818566" /><trkpt lat="19.018420" lon="72.818513" /><trkpt lat="19.018295" lon="72.818460" /><trkpt lat="19.018170" lon="72.818407" /><trkpt lat="19.018045" lon="72.818355" /><trkpt lat="19.017921" lon="72.818302" /><trkpt lat="19.017796" lon="72.818249" /><trkpt lat="19.017671" lon="72.818196" /><trkpt lat="19.017546" lon="72.818143" /><trkpt lat="19.017421" lon="72.818090" /><trkpt lat="19.017296" lon="72.818037" /><trkpt lat="19.017171" lon="72.817985" /><trkpt lat="19.017046" lon="72.817932" /><trkpt lat="19.016921" lon="72.817879" /><trkpt lat="19.016796" lon="72.817826" /><trkpt lat="19.016671" lon="72.817773" /><trkpt lat="19.016546" lon="72.817720" /><trkpt lat="19.016422" lon="72.817667" /><trkpt lat="19.016297" lon="72.817614" /><trkpt lat="19.016172" lon="72.817562" /><trkpt lat="19.016047" lon="72.817509" /><trkpt lat="19.015922" lon="72.817456" /><trkpt lat="19.015797" lon="72.817403" /><trkpt lat="19.015672" lon="72.817350" /><trkpt lat="19.015547" lon="72.817297" /><trkpt lat="19.015422" lon="72.817244" /><trkpt lat="19.015297" lon="72.817192" /><trkpt lat="19.015172" lon="72.817139" /><trkpt lat="19.015047" lon="72.817086" /><trkpt lat="19.014923" lon="72.817033" /><trkpt lat="19.014798" lon="72.816980" /><trkpt lat="19.014673" lon="72.816927" /><trkpt lat="19.014548" lon="72.816874" /><trkpt lat="19.014423" lon="72.816822" /><trkpt lat="19.014298" lon="72.816769" /><trkpt lat="19.014173" lon="72.816716" /><trkpt lat="19.014048" lon="72.816663" /><trkpt lat="19.013923" lon="72.816610" /><trkpt lat="19.013798" lon="72.816557" /><trkpt lat="19.013673" lon="72.816504" /><trkpt lat="19.013548" lon="72.816452" /><trkpt lat="19.013424" lon="72.816399" /><trkpt lat="19.013299" lon="72.816346" /><trkpt lat="19.013174" lon="72.816293" /><trkpt lat="19.013049" lon="72.816240" /><trkpt lat="19.012924" lon="72.816187" /><trkpt lat="19.012799" lon="72.816134" /><trkpt lat="19.012674" lon="72.816081" /><trkpt lat="19.012549" lon="72.816029" /><trkpt lat="19.012424" lon="72.815976" /><trkpt lat="19.012299" lon="72.815923" /><trkpt lat="19.012174" lon="72.815870" /><trkpt lat="19.012049" lon="72.815817" /><trkpt lat="19.011925" lon="72.815764" /><trkpt lat="19.011800" lon="72.815711" /><trkpt lat="19.011675" lon="72.815659" /><trkpt lat="19.011550" lon="72.815606" /><trkpt lat="19.011425" lon="72.815553" /><trkpt lat="19.011300" lon="72.815500" /></trkseg></trk></gpx>