<?xml version="1.0" encoding="UTF-8"?>
<gpx version="1.1" creator="coastal-curved">
<trk><name>Mumbai Coastal Promenade</name><trkseg>
<trkpt lat="18.962200" lon="72.803500"></trkpt>
<trkpt lat="18.962338" lon="72.803531"></trkpt>
<trkpt lat="18.962477" lon="72.803562"></trkpt>
<trkpt lat="18.962615" lon="72.803592"></trkpt>
<trkpt lat="18.962754" lon="72.803623"></trkpt>
<trkpt lat="18.962892" lon="72.803654"></trkpt>
<trkpt lat="18.963031" lon="72.803685"></trkpt>
<trkpt lat="18.963169" lon="72.803715"></trkpt>
<trkpt lat="18.963308" lon="72.803746"></trkpt>
<trkpt lat="18.963446" lon="72.803777"></trkpt>
<trkpt lat="18.963585" lon="72.803808"></trkpt>
<trkpt lat="18.963723" lon="72.803838"></trkpt>
<trkpt lat="18.963862" lon="72.803869"></trkpt>
<trkpt lat="18.964000" lon="72.803900"></trkpt>
<trkpt lat="18.964138" lon="72.803931"></trkpt>
<trkpt lat="18.964277" lon="72.803962"></trkpt>
<trkpt lat="18.964415" lon="72.803992"></trkpt>
<trkpt lat="18.964554" lon="72.804023"></trkpt>
<trkpt lat="18.964692" lon="72.804054"></trkpt>
<trkpt lat="18.964831" lon="72.804085"></trkpt>
<trkpt lat="18.964969" lon="72.804115"></trkpt>
<trkpt lat="18.965108" lon="72.804146"></trkpt>
<trkpt lat="18.965246" lon="72.804177"></trkpt>
<trkpt lat="18.965385" lon="72.804208"></trkpt>
<trkpt lat="18.965523" lon="72.804238"></trkpt>
<trkpt lat="18.965662" lon="72.804269"></trkpt>
<trkpt lat="18.965800" lon="72.804300"></trkpt>
<trkpt lat="18.965938" lon="72.804338"></trkpt>
<trkpt lat="18.966077" lon="72.804377"></trkpt>
<trkpt lat="18.966215" lon="72.804415"></trkpt>
<trkpt lat="18.966354" lon="72.804454"></trkpt>
<trkpt lat="18.966492" lon="72.804492"></trkpt>
<trkpt lat="18.966631" lon="72.804531"></trkpt>
<trkpt lat="18.966769" lon="72.804569"></trkpt>
<trkpt lat="18.966908" lon="72.804608"></trkpt>
<trkpt lat="18.967046" lon="72.804646"></trkpt>
<trkpt lat="18.967185" lon="72.804685"></trkpt>
<trkpt lat="18.967323" lon="72.804723"></trkpt>
<trkpt lat="18.967462" lon="72.804762"></trkpt>
<trkpt lat="18.967600" lon="72.804800"></trkpt>
<trkpt lat="18.967733" lon="72.804850"></trkpt>
<trkpt lat="18.967867" lon="72.804900"></trkpt>
<trkpt lat="18.968000" lon="72.804950"></trkpt>
<trkpt lat="18.968133" lon="72.805000"></trkpt>
<trkpt lat="18.968267" lon="72.805050"></trkpt>
<trkpt lat="18.968400" lon="72.805100"></trkpt>
<trkpt lat="18.968533" lon="72.805150"></trkpt>
<trkpt lat="18.968667" lon="72.805200"></trkpt>
<trkpt lat="18.968800" lon="72.805250"></trkpt>
<trkpt lat="18.968933" lon="72.805300"></trkpt>
<trkpt lat="18.969067" lon="72.805350"></trkpt>
<trkpt lat="18.969200" lon="72.805400"></trkpt>
<trkpt lat="18.969329" lon="72.805450"></trkpt>
<trkpt lat="18.969457" lon="72.805500"></trkpt>
<trkpt lat="18.969586" lon="72.805550"></trkpt>
<trkpt lat="18.969714" lon="72.805600"></trkpt>
<trkpt lat="18.969843" lon="72.805650"></trkpt>
<trkpt lat="18.969971" lon="72.805700"></trkpt>
<trkpt lat="18.970100" lon="72.805750"></trkpt>
<trkpt lat="18.970229" lon="72.805800"></trkpt>
<trkpt lat="18.970357" lon="72.805850"></trkpt>
<trkpt lat="18.970486" lon="72.805900"></trkpt>
<trkpt lat="18.970614" lon="72.805950"></trkpt>
<trkpt lat="18.970743" lon="72.806000"></trkpt>
<trkpt lat="18.970871" lon="72.806050"></trkpt>
<trkpt lat="18.971000" lon="72.806100"></trkpt>
<trkpt lat="18.971129" lon="72.806150"></trkpt>
<trkpt lat="18.971257" lon="72.806200"></trkpt>
<trkpt lat="18.971386" lon="72.806250"></trkpt>
<trkpt lat="18.971514" lon="72.806300"></trkpt>
<trkpt lat="18.971643" lon="72.806350"></trkpt>
<trkpt lat="18.971771" lon="72.806400"></trkpt>
<trkpt lat="18.971900" lon="72.806450"></trkpt>
<trkpt lat="18.972029" lon="72.806500"></trkpt>
<trkpt lat="18.972157" lon="72.806550"></trkpt>
<trkpt lat="18.972286" lon="72.806600"></trkpt>
<trkpt lat="18.972414" lon="72.806650"></trkpt>
<trkpt lat="18.972543" lon="72.806700"></trkpt>
<trkpt lat="18.972671" lon="72.806750"></trkpt>
<trkpt lat="18.972800" lon="72.806800"></trkpt>
<trkpt lat="18.972933" lon="72.806840"></trkpt>
<trkpt lat="18.973067" lon="72.806880"></trkpt>
<trkpt lat="18.973200" lon="72.806920"></trkpt>
<trkpt lat="18.973333" lon="72.806960"></trkpt>
<trkpt lat="18.973467" lon="72.807000"></trkpt>
<trkpt lat="18.973600" lon="72.807040"></trkpt>
<trkpt lat="18.973733" lon="72.807080"></trkpt>
<trkpt lat="18.973867" lon="72.807120"></trkpt>
<trkpt lat="18.974000" lon="72.807160"></trkpt>
<trkpt lat="18.974133" lon="72.807200"></trkpt>
<trkpt lat="18.974267" lon="72.807240"></trkpt>
<trkpt lat="18.974400" lon="72.807280"></trkpt>
<trkpt lat="18.974533" lon="72.807320"></trkpt>
<trkpt lat="18.974667" lon="72.807360"></trkpt>
<trkpt lat="18.974800" lon="72.807400"></trkpt>
<trkpt lat="18.974933" lon="72.807433"></trkpt>
<trkpt lat="18.975067" lon="72.807467"></trkpt>
<trkpt lat="18.975200" lon="72.807500"></trkpt>
<trkpt lat="18.975333" lon="72.807533"></trkpt>
<trkpt lat="18.975467" lon="72.807567"></trkpt>
<trkpt lat="18.975600" lon="72.807600"></trkpt>
<trkpt lat="18.975733" lon="72.807633"></trkpt>
<trkpt lat="18.975867" lon="72.807667"></trkpt>
<trkpt lat="18.976000" lon="72.807700"></trkpt>
<trkpt lat="18.976133" lon="72.807733"></trkpt>
<trkpt lat="18.976267" lon="72.807767"></trkpt>
<trkpt lat="18.976400" lon="72.807800"></trkpt>
<trkpt lat="18.976533" lon="72.807833"></trkpt>
<trkpt lat="18.976667" lon="72.807867"></trkpt>
<trkpt lat="18.976800" lon="72.807900"></trkpt>
<trkpt lat="18.976933" lon="72.807927"></trkpt>
<trkpt lat="18.977067" lon="72.807953"></trkpt>
<trkpt lat="18.977200" lon="72.807980"></trkpt>
<trkpt lat="18.977333" lon="72.808007"></trkpt>
<trkpt lat="18.977467" lon="72.808033"></trkpt>
<trkpt lat="18.977600" lon="72.808060"></trkpt>
<trkpt lat="18.977733" lon="72.808087"></trkpt>
<trkpt lat="18.977867" lon="72.808113"></trkpt>
<trkpt lat="18.978000" lon="72.808140"></trkpt>
<trkpt lat="18.978133" lon="72.808167"></trkpt>
<trkpt lat="18.978267" lon="72.808193"></trkpt>
<trkpt lat="18.978400" lon="72.808220"></trkpt>
<trkpt lat="18.978533" lon="72.808247"></trkpt>
<trkpt lat="18.978667" lon="72.808273"></trkpt>
<trkpt lat="18.978800" lon="72.808300"></trkpt>
<trkpt lat="18.978942" lon="72.808325"></trkpt>
<trkpt lat="18.979083" lon="72.808350"></trkpt>
<trkpt lat="18.979225" lon="72.808375"></trkpt>
<trkpt lat="18.979367" lon="72.808400"></trkpt>
<trkpt lat="18.979508" lon="72.808425"></trkpt>
<trkpt lat="18.979650" lon="72.808450"></trkpt>
<trkpt lat="18.979792" lon="72.808475"></trkpt>
<trkpt lat="18.979933" lon="72.808500"></trkpt>
<trkpt lat="18.980075" lon="72.808525"></trkpt>
<trkpt lat="18.980217" lon="72.808550"></trkpt>
<trkpt lat="18.980358" lon="72.808575"></trkpt>
<trkpt lat="18.980500" lon="72.808600"></trkpt>
<trkpt lat="18.980636" lon="72.808618"></trkpt>
<trkpt lat="18.980773" lon="72.808636"></trkpt>
<trkpt lat="18.980909" lon="72.808655"></trkpt>
<trkpt lat="18.981045" lon="72.808673"></trkpt>
<trkpt lat="18.981182" lon="72.808691"></trkpt>
<trkpt lat="18.981318" lon="72.808709"></trkpt>
<trkpt lat="18.981455" lon="72.808727"></trkpt>
<trkpt lat="18.981591" lon="72.808745"></trkpt>
<trkpt lat="18.981727" lon="72.808764"></trkpt>
<trkpt lat="18.981864" lon="72.808782"></trkpt>
<trkpt lat="18.982000" lon="72.808800"></trkpt>
<trkpt lat="18.982136" lon="72.808809"></trkpt>
<trkpt lat="18.982273" lon="72.808818"></trkpt>
<trkpt lat="18.982409" lon="72.808827"></trkpt>
<trkpt lat="18.982545" lon="72.808836"></trkpt>
<trkpt lat="18.982682" lon="72.808845"></trkpt>
<trkpt lat="18.982818" lon="72.808855"></trkpt>
<trkpt lat="18.982955" lon="72.808864"></trkpt>
<trkpt lat="18.983091" lon="72.808873"></trkpt>
<trkpt lat="18.983227" lon="72.808882"></trkpt>
<trkpt lat="18.983364" lon="72.808891"></trkpt>
<trkpt lat="18.983500" lon="72.808900"></trkpt>
<trkpt lat="18.983642" lon="72.808925"></trkpt>
<trkpt lat="18.983783" lon="72.808950"></trkpt>
<trkpt lat="18.983925" lon="72.808975"></trkpt>
<trkpt lat="18.984067" lon="72.809000"></trkpt>
<trkpt lat="18.984208" lon="72.809025"></trkpt>
<trkpt lat="18.984350" lon="72.809050"></trkpt>
<trkpt lat="18.984492" lon="72.809075"></trkpt>
<trkpt lat="18.984633" lon="72.809100"></trkpt>
<trkpt lat="18.984775" lon="72.809125"></trkpt>
<trkpt lat="18.984917" lon="72.809150"></trkpt>
<trkpt lat="18.985058" lon="72.809175"></trkpt>
<trkpt lat="18.985200" lon="72.809200"></trkpt>
<trkpt lat="18.985333" lon="72.809240"></trkpt>
<trkpt lat="18.985467" lon="72.809280"></trkpt>
<trkpt lat="18.985600" lon="72.809320"></trkpt>
<trkpt lat="18.985733" lon="72.809360"></trkpt>
<trkpt lat="18.985867" lon="72.809400"></trkpt>
<trkpt lat="18.986000" lon="72.809440"></trkpt>
<trkpt lat="18.986133" lon="72.809480"></trkpt>
<trkpt lat="18.986267" lon="72.809520"></trkpt>
<trkpt lat="18.986400" lon="72.809560"></trkpt>
<trkpt lat="18.986533" lon="72.809600"></trkpt>
<trkpt lat="18.986667" lon="72.809640"></trkpt>
<trkpt lat="18.986800" lon="72.809680"></trkpt>
<trkpt lat="18.986933" lon="72.809720"></trkpt>
<trkpt lat="18.987067" lon="72.809760"></trkpt>
<trkpt lat="18.987200" lon="72.809800"></trkpt>
<trkpt lat="18.987333" lon="72.809840"></trkpt>
<trkpt lat="18.987467" lon="72.809880"></trkpt>
<trkpt lat="18.987600" lon="72.809920"></trkpt>
<trkpt lat="18.987733" lon="72.809960"></trkpt>
<trkpt lat="18.987867" lon="72.810000"></trkpt>
<trkpt lat="18.988000" lon="72.810040"></trkpt>
<trkpt lat="18.988133" lon="72.810080"></trkpt>
<trkpt lat="18.988267" lon="72.810120"></trkpt>
<trkpt lat="18.988400" lon="72.810160"></trkpt>
<trkpt lat="18.988533" lon="72.810200"></trkpt>
<trkpt lat="18.988667" lon="72.810240"></trkpt>
<trkpt lat="18.988800" lon="72.810280"></trkpt>
<trkpt lat="18.988933" lon="72.810320"></trkpt>
<trkpt lat="18.989067" lon="72.810360"></trkpt>
<trkpt lat="18.989200" lon="72.810400"></trkpt>
<trkpt lat="18.989338" lon="72.810446"></trkpt>
<trkpt lat="18.989477" lon="72.810492"></trkpt>
<trkpt lat="18.989615" lon="72.810538"></trkpt>
<trkpt lat="18.989754" lon="72.810585"></trkpt>
<trkpt lat="18.989892" lon="72.810631"></trkpt>
<trkpt lat="18.990031" lon="72.810677"></trkpt>
<trkpt lat="18.990169" lon="72.810723"></trkpt>
<trkpt lat="18.990308" lon="72.810769"></trkpt>
<trkpt lat="18.990446" lon="72.810815"></trkpt>
<trkpt lat="18.990585" lon="72.810862"></trkpt>
<trkpt lat="18.990723" lon="72.810908"></trkpt>
<trkpt lat="18.990862" lon="72.810954"></trkpt>
<trkpt lat="18.991000" lon="72.811000"></trkpt>
<trkpt lat="18.991138" lon="72.811038"></trkpt>
<trkpt lat="18.991277" lon="72.811077"></trkpt>
<trkpt lat="18.991415" lon="72.811115"></trkpt>
<trkpt lat="18.991554" lon="72.811154"></trkpt>
<trkpt lat="18.991692" lon="72.811192"></trkpt>
<trkpt lat="18.991831" lon="72.811231"></trkpt>
<trkpt lat="18.991969" lon="72.811269"></trkpt>
<trkpt lat="18.992108" lon="72.811308"></trkpt>
<trkpt lat="18.992246" lon="72.811346"></trkpt>
<trkpt lat="18.992385" lon="72.811385"></trkpt>
<trkpt lat="18.992523" lon="72.811423"></trkpt>
<trkpt lat="18.992662" lon="72.811462"></trkpt>
<trkpt lat="18.992800" lon="72.811500"></trkpt>
<trkpt lat="18.992938" lon="72.811531"></trkpt>
<trkpt lat="18.993077" lon="72.811562"></trkpt>
<trkpt lat="18.993215" lon="72.811592"></trkpt>
<trkpt lat="18.993354" lon="72.811623"></trkpt>
<trkpt lat="18.993492" lon="72.811654"></trkpt>
<trkpt lat="18.993631" lon="72.811685"></trkpt>
<trkpt lat="18.993769" lon="72.811715"></trkpt>
<trkpt lat="18.993908" lon="72.811746"></trkpt>
<trkpt lat="18.994046" lon="72.811777"></trkpt>
<trkpt lat="18.994185" lon="72.811808"></trkpt>
<trkpt lat="18.994323" lon="72.811838"></trkpt>
<trkpt lat="18.994462" lon="72.811869"></trkpt>
<trkpt lat="18.994600" lon="72.811900"></trkpt>
<trkpt lat="18.994738" lon="72.811923"></trkpt>
<trkpt lat="18.994877" lon="72.811946"></trkpt>
<trkpt lat="18.995015" lon="72.811969"></trkpt>
<trkpt lat="18.995154" lon="72.811992"></trkpt>
<trkpt lat="18.995292" lon="72.812015"></trkpt>
<trkpt lat="18.995431" lon="72.812038"></trkpt>
<trkpt lat="18.995569" lon="72.812062"></trkpt>
<trkpt lat="18.995708" lon="72.812085"></trkpt>
<trkpt lat="18.995846" lon="72.812108"></trkpt>
<trkpt lat="18.995985" lon="72.812131"></trkpt>
<trkpt lat="18.996123" lon="72.812154"></trkpt>
<trkpt lat="18.996262" lon="72.812177"></trkpt>
<trkpt lat="18.996400" lon="72.812200"></trkpt>
<trkpt lat="18.996533" lon="72.812233"></trkpt>
<trkpt lat="18.996667" lon="72.812267"></trkpt>
<trkpt lat="18.996800" lon="72.812300"></trkpt>
<trkpt lat="18.996933" lon="72.812333"></trkpt>
<trkpt lat="18.997067" lon="72.812367"></trkpt>
<trkpt lat="18.997200" lon="72.812400"></trkpt>
<trkpt lat="18.997333" lon="72.812433"></trkpt>
<trkpt lat="18.997467" lon="72.812467"></trkpt>
<trkpt lat="18.997600" lon="72.812500"></trkpt>
<trkpt lat="18.997733" lon="72.812533"></trkpt>
<trkpt lat="18.997867" lon="72.812567"></trkpt>
<trkpt lat="18.998000" lon="72.812600"></trkpt>
<trkpt lat="18.998133" lon="72.812633"></trkpt>
<trkpt lat="18.998267" lon="72.812667"></trkpt>
<trkpt lat="18.998400" lon="72.812700"></trkpt>
<trkpt lat="18.998533" lon="72.812733"></trkpt>
<trkpt lat="18.998667" lon="72.812767"></trkpt>
<trkpt lat="18.998800" lon="72.812800"></trkpt>
<trkpt lat="18.998933" lon="72.812833"></trkpt>
<trkpt lat="18.999067" lon="72.812867"></trkpt>
<trkpt lat="18.999200" lon="72.812900"></trkpt>
<trkpt lat="18.999333" lon="72.812933"></trkpt>
<trkpt lat="18.999467" lon="72.812967"></trkpt>
<trkpt lat="18.999600" lon="72.813000"></trkpt>
<trkpt lat="18.999733" lon="72.813042"></trkpt>
<trkpt lat="18.999867" lon="72.813083"></trkpt>
<trkpt lat="19.000000" lon="72.813125"></trkpt>
<trkpt lat="19.000133" lon="72.813167"></trkpt>
<trkpt lat="19.000267" lon="72.813208"></trkpt>
<trkpt lat="19.000400" lon="72.813250"></trkpt>
<trkpt lat="19.000533" lon="72.813292"></trkpt>
<trkpt lat="19.000667" lon="72.813333"></trkpt>
<trkpt lat="19.000800" lon="72.813375"></trkpt>
<trkpt lat="19.000933" lon="72.813417"></trkpt>
<trkpt lat="19.001067" lon="72.813458"></trkpt>
<trkpt lat="19.001200" lon="72.813500"></trkpt>
<trkpt lat="19.001333" lon="72.813533"></trkpt>
<trkpt lat="19.001467" lon="72.813567"></trkpt>
<trkpt lat="19.001600" lon="72.813600"></trkpt>
<trkpt lat="19.001733" lon="72.813633"></trkpt>
<trkpt lat="19.001867" lon="72.813667"></trkpt>
<trkpt lat="19.002000" lon="72.813700"></trkpt>
<trkpt lat="19.002133" lon="72.813733"></trkpt>
<trkpt lat="19.002267" lon="72.813767"></trkpt>
<trkpt lat="19.002400" lon="72.813800"></trkpt>
<trkpt lat="19.002533" lon="72.813833"></trkpt>
<trkpt lat="19.002667" lon="72.813867"></trkpt>
<trkpt lat="19.002800" lon="72.813900"></trkpt>
<trkpt lat="19.002933" lon="72.813925"></trkpt>
<trkpt lat="19.003067" lon="72.813950"></trkpt>
<trkpt lat="19.003200" lon="72.813975"></trkpt>
<trkpt lat="19.003333" lon="72.814000"></trkpt>
<trkpt lat="19.003467" lon="72.814025"></trkpt>
<trkpt lat="19.003600" lon="72.814050"></trkpt>
<trkpt lat="19.003733" lon="72.814075"></trkpt>
<trkpt lat="19.003867" lon="72.814100"></trkpt>
<trkpt lat="19.004000" lon="72.814125"></trkpt>
<trkpt lat="19.004133" lon="72.814150"></trkpt>
<trkpt lat="19.004267" lon="72.814175"></trkpt>
<trkpt lat="19.004400" lon="72.814200"></trkpt>
<trkpt lat="19.004533" lon="72.814225"></trkpt>
<trkpt lat="19.004667" lon="72.814250"></trkpt>
<trkpt lat="19.004800" lon="72.814275"></trkpt>
<trkpt lat="19.004933" lon="72.814300"></trkpt>
<trkpt lat="19.005067" lon="72.814325"></trkpt>
<trkpt lat="19.005200" lon="72.814350"></trkpt>
<trkpt lat="19.005333" lon="72.814375"></trkpt>
<trkpt lat="19.005467" lon="72.814400"></trkpt>
<trkpt lat="19.005600" lon="72.814425"></trkpt>
<trkpt lat="19.005733" lon="72.814450"></trkpt>
<trkpt lat="19.005867" lon="72.814475"></trkpt>
<trkpt lat="19.006000" lon="72.814500"></trkpt>
<trkpt lat="19.006133" lon="72.814525"></trkpt>
<trkpt lat="19.006267" lon="72.814550"></trkpt>
<trkpt lat="19.006400" lon="72.814575"></trkpt>
<trkpt lat="19.006533" lon="72.814600"></trkpt>
<trkpt lat="19.006667" lon="72.814625"></trkpt>
<trkpt lat="19.006800" lon="72.814650"></trkpt>
<trkpt lat="19.006933" lon="72.814675"></trkpt>
<trkpt lat="19.007067" lon="72.814700"></trkpt>
<trkpt lat="19.007200" lon="72.814725"></trkpt>
<trkpt lat="19.007333" lon="72.814750"></trkpt>
<trkpt lat="19.007467" lon="72.814775"></trkpt>
<trkpt lat="19.007600" lon="72.814800"></trkpt>
<trkpt lat="19.007745" lon="72.814818"></trkpt>
<trkpt lat="19.007891" lon="72.814836"></trkpt>
<trkpt lat="19.008036" lon="72.814855"></trkpt>
<trkpt lat="19.008182" lon="72.814873"></trkpt>
<trkpt lat="19.008327" lon="72.814891"></trkpt>
<trkpt lat="19.008473" lon="72.814909"></trkpt>
<trkpt lat="19.008618" lon="72.814927"></trkpt>
<trkpt lat="19.008764" lon="72.814945"></trkpt>
<trkpt lat="19.008909" lon="72.814964"></trkpt>
<trkpt lat="19.009055" lon="72.814982"></trkpt>
<trkpt lat="19.009200" lon="72.815000"></trkpt>
<trkpt lat="19.009344" lon="72.815011"></trkpt>
<trkpt lat="19.009489" lon="72.815022"></trkpt>
<trkpt lat="19.009633" lon="72.815033"></trkpt>
<trkpt lat="19.009778" lon="72.815044"></trkpt>
<trkpt lat="19.009922" lon="72.815056"></trkpt>
<trkpt lat="19.010067" lon="72.815067"></trkpt>
<trkpt lat="19.010211" lon="72.815078"></trkpt>
<trkpt lat="19.010356" lon="72.815089"></trkpt>
<trkpt lat="19.010500" lon="72.815100"></trkpt>
<trkpt lat="19.010650" lon="72.815117"></trkpt>
<trkpt lat="19.010800" lon="72.815133"></trkpt>
<trkpt lat="19.010950" lon="72.815150"></trkpt>
<trkpt lat="19.011100" lon="72.815167"></trkpt>
<trkpt lat="19.011250" lon="72.815183"></trkpt>
<trkpt lat="19.011400" lon="72.815200"></trkpt>
<trkpt lat="19.011550" lon="72.815217"></trkpt>
<trkpt lat="19.011700" lon="72.815233"></trkpt>
<trkpt lat="19.011850" lon="72.815250"></trkpt>
<trkpt lat="19.012000" lon="72.815267"></trkpt>
<trkpt lat="19.012150" lon="72.815283"></trkpt>
<trkpt lat="19.012300" lon="72.815300"></trkpt>
<trkpt lat="19.012150" lon="72.815283"></trkpt>
<trkpt lat="19.012000" lon="72.815267"></trkpt>
<trkpt lat="19.011850" lon="72.815250"></trkpt>
<trkpt lat="19.011700" lon="72.815233"></trkpt>
<trkpt lat="19.011550" lon="72.815217"></trkpt>
<trkpt lat="19.011400" lon="72.815200"></trkpt>
<trkpt lat="19.011250" lon="72.815183"></trkpt>
<trkpt lat="19.011100" lon="72.815167"></trkpt>
<trkpt lat="19.010950" lon="72.815150"></trkpt>
<trkpt lat="19.010800" lon="72.815133"></trkpt>
<trkpt lat="19.010650" lon="72.815117"></trkpt>
<trkpt lat="19.010500" lon="72.815100"></trkpt>
<trkpt lat="19.010356" lon="72.815089"></trkpt>
<trkpt lat="19.010211" lon="72.815078"></trkpt>
<trkpt lat="19.010067" lon="72.815067"></trkpt>
<trkpt lat="19.009922" lon="72.815056"></trkpt>
<trkpt lat="19.009778" lon="72.815044"></trkpt>
<trkpt lat="19.009633" lon="72.815033"></trkpt>
<trkpt lat="19.009489" lon="72.815022"></trkpt>
<trkpt lat="19.009344" lon="72.815011"></trkpt>
<trkpt lat="19.009200" lon="72.815000"></trkpt>
<trkpt lat="19.009055" lon="72.814982"></trkpt>
<trkpt lat="19.008909" lon="72.814964"></trkpt>
<trkpt lat="19.008764" lon="72.814945"></trkpt>
<trkpt lat="19.008618" lon="72.814927"></trkpt>
<trkpt lat="19.008473" lon="72.814909"></trkpt>
<trkpt lat="19.008327" lon="72.814891"></trkpt>
<trkpt lat="19.008182" lon="72.814873"></trkpt>
<trkpt lat="19.008036" lon="72.814855"></trkpt>
<trkpt lat="19.007891" lon="72.814836"></trkpt>
<trkpt lat="19.007745" lon="72.814818"></trkpt>
<trkpt lat="19.007600" lon="72.814800"></trkpt>
<trkpt lat="19.007467" lon="72.814775"></trkpt>
<trkpt lat="19.007333" lon="72.814750"></trkpt>
<trkpt lat="19.007200" lon="72.814725"></trkpt>
<trkpt lat="19.007067" lon="72.814700"></trkpt>
<trkpt lat="19.006933" lon="72.814675"></trkpt>
<trkpt lat="19.006800" lon="72.814650"></trkpt>
<trkpt lat="19.006667" lon="72.814625"></trkpt>
<trkpt lat="19.006533" lon="72.814600"></trkpt>
<trkpt lat="19.006400" lon="72.814575"></trkpt>
<trkpt lat="19.006267" lon="72.814550"></trkpt>
<trkpt lat="19.006133" lon="72.814525"></trkpt>
<trkpt lat="19.006000" lon="72.814500"></trkpt>
<trkpt lat="19.005867" lon="72.814475"></trkpt>
<trkpt lat="19.005733" lon="72.814450"></trkpt>
<trkpt lat="19.005600" lon="72.814425"></trkpt>
<trkpt lat="19.005467" lon="72.814400"></trkpt>
<trkpt lat="19.005333" lon="72.814375"></trkpt>
<trkpt lat="19.005200" lon="72.814350"></trkpt>
<trkpt lat="19.005067" lon="72.814325"></trkpt>
<trkpt lat="19.004933" lon="72.814300"></trkpt>
<trkpt lat="19.004800" lon="72.814275"></trkpt>
<trkpt lat="19.004667" lon="72.814250"></trkpt>
<trkpt lat="19.004533" lon="72.814225"></trkpt>
<trkpt lat="19.004400" lon="72.814200"></trkpt>
<trkpt lat="19.004267" lon="72.814175"></trkpt>
<trkpt lat="19.004133" lon="72.814150"></trkpt>
<trkpt lat="19.004000" lon="72.814125"></trkpt>
<trkpt lat="19.003867" lon="72.814100"></trkpt>
<trkpt lat="19.003733" lon="72.814075"></trkpt>
<trkpt lat="19.003600" lon="72.814050"></trkpt>
<trkpt lat="19.003467" lon="72.814025"></trkpt>
<trkpt lat="19.003333" lon="72.814000"></trkpt>
<trkpt lat="19.003200" lon="72.813975"></trkpt>
<trkpt lat="19.003067" lon="72.813950"></trkpt>
<trkpt lat="19.002933" lon="72.813925"></trkpt>
<trkpt lat="19.002800" lon="72.813900"></trkpt>
<trkpt lat="19.002667" lon="72.813867"></trkpt>
<trkpt lat="19.002533" lon="72.813833"></trkpt>
<trkpt lat="19.002400" lon="72.813800"></trkpt>
<trkpt lat="19.002267" lon="72.813767"></trkpt>
<trkpt lat="19.002133" lon="72.813733"></trkpt>
<trkpt lat="19.002000" lon="72.813700"></trkpt>
<trkpt lat="19.001867" lon="72.813667"></trkpt>
<trkpt lat="19.001733" lon="72.813633"></trkpt>
<trkpt lat="19.001600" lon="72.813600"></trkpt>
<trkpt lat="19.001467" lon="72.813567"></trkpt>
<trkpt lat="19.001333" lon="72.813533"></trkpt>
<trkpt lat="19.001200" lon="72.813500"></trkpt>
<trkpt lat="19.001067" lon="72.813458"></trkpt>
<trkpt lat="19.000933" lon="72.813417"></trkpt>
<trkpt lat="19.000800" lon="72.813375"></trkpt>
<trkpt lat="19.000667" lon="72.813333"></trkpt>
<trkpt lat="19.000533" lon="72.813292"></trkpt>
<trkpt lat="19.000400" lon="72.813250"></trkpt>
<trkpt lat="19.000267" lon="72.813208"></trkpt>
<trkpt lat="19.000133" lon="72.813167"></trkpt>
<trkpt lat="19.000000" lon="72.813125"></trkpt>
<trkpt lat="18.999867" lon="72.813083"></trkpt>
<trkpt lat="18.999733" lon="72.813042"></trkpt>
<trkpt lat="18.999600" lon="72.813000"></trkpt>
<trkpt lat="18.999467" lon="72.812967"></trkpt>
<trkpt lat="18.999333" lon="72.812933"></trkpt>
<trkpt lat="18.999200" lon="72.812900"></trkpt>
<trkpt lat="18.999067" lon="72.812867"></trkpt>
<trkpt lat="18.998933" lon="72.812833"></trkpt>
<trkpt lat="18.998800" lon="72.812800"></trkpt>
<trkpt lat="18.998667" lon="72.812767"></trkpt>
<trkpt lat="18.998533" lon="72.812733"></trkpt>
<trkpt lat="18.998400" lon="72.812700"></trkpt>
<trkpt lat="18.998267" lon="72.812667"></trkpt>
<trkpt lat="18.998133" lon="72.812633"></trkpt>
<trkpt lat="18.998000" lon="72.812600"></trkpt>
<trkpt lat="18.997867" lon="72.812567"></trkpt>
<trkpt lat="18.997733" lon="72.812533"></trkpt>
<trkpt lat="18.997600" lon="72.812500"></trkpt>
<trkpt lat="18.997467" lon="72.812467"></trkpt>
<trkpt lat="18.997333" lon="72.812433"></trkpt>
<trkpt lat="18.997200" lon="72.812400"></trkpt>
<trkpt lat="18.997067" lon="72.812367"></trkpt>
<trkpt lat="18.996933" lon="72.812333"></trkpt>
<trkpt lat="18.996800" lon="72.812300"></trkpt>
<trkpt lat="18.996667" lon="72.812267"></trkpt>
<trkpt lat="18.996533" lon="72.812233"></trkpt>
<trkpt lat="18.996400" lon="72.812200"></trkpt>
<trkpt lat="18.996262" lon="72.812177"></trkpt>
<trkpt lat="18.996123" lon="72.812154"></trkpt>
<trkpt lat="18.995985" lon="72.812131"></trkpt>
<trkpt lat="18.995846" lon="72.812108"></trkpt>
<trkpt lat="18.995708" lon="72.812085"></trkpt>
<trkpt lat="18.995569" lon="72.812062"></trkpt>
<trkpt lat="18.995431" lon="72.812038"></trkpt>
<trkpt lat="18.995292" lon="72.812015"></trkpt>
<trkpt lat="18.995154" lon="72.811992"></trkpt>
<trkpt lat="18.995015" lon="72.811969"></trkpt>
<trkpt lat="18.994877" lon="72.811946"></trkpt>
<trkpt lat="18.994738" lon="72.811923"></trkpt>
<trkpt lat="18.994600" lon="72.811900"></trkpt>
<trkpt lat="18.994462" lon="72.811869"></trkpt>
<trkpt lat="18.994323" lon="72.811838"></trkpt>
<trkpt lat="18.994185" lon="72.811808"></trkpt>
<trkpt lat="18.994046" lon="72.811777"></trkpt>
<trkpt lat="18.993908" lon="72.811746"></trkpt>
<trkpt lat="18.993769" lon="72.811715"></trkpt>
<trkpt lat="18.993631" lon="72.811685"></trkpt>
<trkpt lat="18.993492" lon="72.811654"></trkpt>
<trkpt lat="18.993354" lon="72.811623"></trkpt>
<trkpt lat="18.993215" lon="72.811592"></trkpt>
<trkpt lat="18.993077" lon="72.811562"></trkpt>
<trkpt lat="18.992938" lon="72.811531"></trkpt>
<trkpt lat="18.992800" lon="72.811500"></trkpt>
<trkpt lat="18.992662" lon="72.811462"></trkpt>
<trkpt lat="18.992523" lon="72.811423"></trkpt>
<trkpt lat="18.992385" lon="72.811385"></trkpt>
<trkpt lat="18.992246" lon="72.811346"></trkpt>
<trkpt lat="18.992108" lon="72.811308"></trkpt>
<trkpt lat="18.991969" lon="72.811269"></trkpt>
<trkpt lat="18.991831" lon="72.811231"></trkpt>
<trkpt lat="18.991692" lon="72.811192"></trkpt>
<trkpt lat="18.991554" lon="72.811154"></trkpt>
<trkpt lat="18.991415" lon="72.811115"></trkpt>
<trkpt lat="18.991277" lon="72.811077"></trkpt>
<trkpt lat="18.991138" lon="72.811038"></trkpt>
<trkpt lat="18.991000" lon="72.811000"></trkpt>
<trkpt lat="18.990862" lon="72.810954"></trkpt>
<trkpt lat="18.990723" lon="72.810908"></trkpt>
<trkpt lat="18.990585" lon="72.810862"></trkpt>
<trkpt lat="18.990446" lon="72.810815"></trkpt>
<trkpt lat="18.990308" lon="72.810769"></trkpt>
<trkpt lat="18.990169" lon="72.810723"></trkpt>
<trkpt lat="18.990031" lon="72.810677"></trkpt>
<trkpt lat="18.989892" lon="72.810631"></trkpt>
<trkpt lat="18.989754" lon="72.810585"></trkpt>
<trkpt lat="18.989615" lon="72.810538"></trkpt>
<trkpt lat="18.989477" lon="72.810492"></trkpt>
<trkpt lat="18.989338" lon="72.810446"></trkpt>
<trkpt lat="18.989200" lon="72.810400"></trkpt>
<trkpt lat="18.989067" lon="72.810360"></trkpt>
<trkpt lat="18.988933" lon="72.810320"></trkpt>
<trkpt lat="18.988800" lon="72.810280"></trkpt>
<trkpt lat="18.988667" lon="72.810240"></trkpt>
<trkpt lat="18.988533" lon="72.810200"></trkpt>
<trkpt lat="18.988400" lon="72.810160"></trkpt>
<trkpt lat="18.988267" lon="72.810120"></trkpt>
<trkpt lat="18.988133" lon="72.810080"></trkpt>
<trkpt lat="18.988000" lon="72.810040"></trkpt>
<trkpt lat="18.987867" lon="72.810000"></trkpt>
<trkpt lat="18.987733" lon="72.809960"></trkpt>
<trkpt lat="18.987600" lon="72.809920"></trkpt>
<trkpt lat="18.987467" lon="72.809880"></trkpt>
<trkpt lat="18.987333" lon="72.809840"></trkpt>
<trkpt lat="18.987200" lon="72.809800"></trkpt>
<trkpt lat="18.987067" lon="72.809760"></trkpt>
<trkpt lat="18.986933" lon="72.809720"></trkpt>
<trkpt lat="18.986800" lon="72.809680"></trkpt>
<trkpt lat="18.986667" lon="72.809640"></trkpt>
<trkpt lat="18.986533" lon="72.809600"></trkpt>
<trkpt lat="18.986400" lon="72.809560"></trkpt>
<trkpt lat="18.986267" lon="72.809520"></trkpt>
<trkpt lat="18.986133" lon="72.809480"></trkpt>
<trkpt lat="18.986000" lon="72.809440"></trkpt>
<trkpt lat="18.985867" lon="72.809400"></trkpt>
<trkpt lat="18.985733" lon="72.809360"></trkpt>
<trkpt lat="18.985600" lon="72.809320"></trkpt>
<trkpt lat="18.985467" lon="72.809280"></trkpt>
<trkpt lat="18.985333" lon="72.809240"></trkpt>
<trkpt lat="18.985200" lon="72.809200"></trkpt>
<trkpt lat="18.985058" lon="72.809175"></trkpt>
<trkpt lat="18.984917" lon="72.809150"></trkpt>
<trkpt lat="18.984775" lon="72.809125"></trkpt>
<trkpt lat="18.984633" lon="72.809100"></trkpt>
<trkpt lat="18.984492" lon="72.809075"></trkpt>
<trkpt lat="18.984350" lon="72.809050"></trkpt>
<trkpt lat="18.984208" lon="72.809025"></trkpt>
<trkpt lat="18.984067" lon="72.809000"></trkpt>
<trkpt lat="18.983925" lon="72.808975"></trkpt>
<trkpt lat="18.983783" lon="72.808950"></trkpt>
<trkpt lat="18.983642" lon="72.808925"></trkpt>
<trkpt lat="18.983500" lon="72.808900"></trkpt>
<trkpt lat="18.983364" lon="72.808891"></trkpt>
<trkpt lat="18.983227" lon="72.808882"></trkpt>
<trkpt lat="18.983091" lon="72.808873"></trkpt>
<trkpt lat="18.982955" lon="72.808864"></trkpt>
<trkpt lat="18.982818" lon="72.808855"></trkpt>
<trkpt lat="18.982682" lon="72.808845"></trkpt>
<trkpt lat="18.982545" lon="72.808836"></trkpt>
<trkpt lat="18.982409" lon="72.808827"></trkpt>
<trkpt lat="18.982273" lon="72.808818"></trkpt>
<trkpt lat="18.982136" lon="72.808809"></trkpt>
<trkpt lat="18.982000" lon="72.808800"></trkpt>
<trkpt lat="18.981864" lon="72.808782"></trkpt>
<trkpt lat="18.981727" lon="72.808764"></trkpt>
<trkpt lat="18.981591" lon="72.808745"></trkpt>
<trkpt lat="18.981455" lon="72.808727"></trkpt>
<trkpt lat="18.981318" lon="72.808709"></trkpt>
<trkpt lat="18.981182" lon="72.808691"></trkpt>
<trkpt lat="18.981045" lon="72.808673"></trkpt>
<trkpt lat="18.980909" lon="72.808655"></trkpt>
<trkpt lat="18.980773" lon="72.808636"></trkpt>
<trkpt lat="18.980636" lon="72.808618"></trkpt>
<trkpt lat="18.980500" lon="72.808600"></trkpt>
<trkpt lat="18.980358" lon="72.808575"></trkpt>
<trkpt lat="18.980217" lon="72.808550"></trkpt>
<trkpt lat="18.980075" lon="72.808525"></trkpt>
<trkpt lat="18.979933" lon="72.808500"></trkpt>
<trkpt lat="18.979792" lon="72.808475"></trkpt>
<trkpt lat="18.979650" lon="72.808450"></trkpt>
<trkpt lat="18.979508" lon="72.808425"></trkpt>
<trkpt lat="18.979367" lon="72.808400"></trkpt>
<trkpt lat="18.979225" lon="72.808375"></trkpt>
<trkpt lat="18.979083" lon="72.808350"></trkpt>
<trkpt lat="18.978942" lon="72.808325"></trkpt>
<trkpt lat="18.978800" lon="72.808300"></trkpt>
<trkpt lat="18.978667" lon="72.808273"></trkpt>
<trkpt lat="18.978533" lon="72.808247"></trkpt>
<trkpt lat="18.978400" lon="72.808220"></trkpt>
<trkpt lat="18.978267" lon="72.808193"></trkpt>
<trkpt lat="18.978133" lon="72.808167"></trkpt>
<trkpt lat="18.978000" lon="72.808140"></trkpt>
<trkpt lat="18.977867" lon="72.808113"></trkpt>
<trkpt lat="18.977733" lon="72.808087"></trkpt>
<trkpt lat="18.977600" lon="72.808060"></trkpt>
<trkpt lat="18.977467" lon="72.808033"></trkpt>
<trkpt lat="18.977333" lon="72.808007"></trkpt>
<trkpt lat="18.977200" lon="72.807980"></trkpt>
<trkpt lat="18.977067" lon="72.807953"></trkpt>
<trkpt lat="18.976933" lon="72.807927"></trkpt>
<trkpt lat="18.976800" lon="72.807900"></trkpt>
<trkpt lat="18.976667" lon="72.807867"></trkpt>
<trkpt lat="18.976533" lon="72.807833"></trkpt>
<trkpt lat="18.976400" lon="72.807800"></trkpt>
<trkpt lat="18.976267" lon="72.807767"></trkpt>
<trkpt lat="18.976133" lon="72.807733"></trkpt>
<trkpt lat="18.976000" lon="72.807700"></trkpt>
<trkpt lat="18.975867" lon="72.807667"></trkpt>
<trkpt lat="18.975733" lon="72.807633"></trkpt>
<trkpt lat="18.975600" lon="72.807600"></trkpt>
<trkpt lat="18.975467" lon="72.807567"></trkpt>
<trkpt lat="18.975333" lon="72.807533"></trkpt>
<trkpt lat="18.975200" lon="72.807500"></trkpt>
<trkpt lat="18.975067" lon="72.807467"></trkpt>
<trkpt lat="18.974933" lon="72.807433"></trkpt>
<trkpt lat="18.974800" lon="72.807400"></trkpt>
<trkpt lat="18.974667" lon="72.807360"></trkpt>
<trkpt lat="18.974533" lon="72.807320"></trkpt>
<trkpt lat="18.974400" lon="72.807280"></trkpt>
<trkpt lat="18.974267" lon="72.807240"></trkpt>
<trkpt lat="18.974133" lon="72.807200"></trkpt>
<trkpt lat="18.974000" lon="72.807160"></trkpt>
<trkpt lat="18.973867" lon="72.807120"></trkpt>
<trkpt lat="18.973733" lon="72.807080"></trkpt>
<trkpt lat="18.973600" lon="72.807040"></trkpt>
<trkpt lat="18.973467" lon="72.807000"></trkpt>
<trkpt lat="18.973333" lon="72.806960"></trkpt>
<trkpt lat="18.973200" lon="72.806920"></trkpt>
<trkpt lat="18.973067" lon="72.806880"></trkpt>
<trkpt lat="18.972933" lon="72.806840"></trkpt>
<trkpt lat="18.972800" lon="72.806800"></trkpt>
<trkpt lat="18.972671" lon="72.806750"></trkpt>
<trkpt lat="18.972543" lon="72.806700"></trkpt>
<trkpt lat="18.972414" lon="72.806650"></trkpt>
<trkpt lat="18.972286" lon="72.806600"></trkpt>
<trkpt lat="18.972157" lon="72.806550"></trkpt>
<trkpt lat="18.972029" lon="72.806500"></trkpt>
<trkpt lat="18.971900" lon="72.806450"></trkpt>
<trkpt lat="18.971771" lon="72.806400"></trkpt>
<trkpt lat="18.971643" lon="72.806350"></trkpt>
<trkpt lat="18.971514" lon="72.806300"></trkpt>
<trkpt lat="18.971386" lon="72.806250"></trkpt>
<trkpt lat="18.971257" lon="72.806200"></trkpt>
<trkpt lat="18.971129" lon="72.806150"></trkpt>
<trkpt lat="18.971000" lon="72.806100"></trkpt>
<trkpt lat="18.970871" lon="72.806050"></trkpt>
<trkpt lat="18.970743" lon="72.806000"></trkpt>
<trkpt lat="18.970614" lon="72.805950"></trkpt>
<trkpt lat="18.970486" lon="72.805900"></trkpt>
<trkpt lat="18.970357" lon="72.805850"></trkpt>
<trkpt lat="18.970229" lon="72.805800"></trkpt>
<trkpt lat="18.970100" lon="72.805750"></trkpt>
<trkpt lat="18.969971" lon="72.805700"></trkpt>
<trkpt lat="18.969843" lon="72.805650"></trkpt>
<trkpt lat="18.969714" lon="72.805600"></trkpt>
<trkpt lat="18.969586" lon="72.805550"></trkpt>
<trkpt lat="18.969457" lon="72.805500"></trkpt>
<trkpt lat="18.969329" lon="72.805450"></trkpt>
<trkpt lat="18.969200" lon="72.805400"></trkpt>
<trkpt lat="18.969067" lon="72.805350"></trkpt>
<trkpt lat="18.968933" lon="72.805300"></trkpt>
<trkpt lat="18.968800" lon="72.805250"></trkpt>
<trkpt lat="18.968667" lon="72.805200"></trkpt>
<trkpt lat="18.968533" lon="72.805150"></trkpt>
<trkpt lat="18.968400" lon="72.805100"></trkpt>
<trkpt lat="18.968267" lon="72.805050"></trkpt>
<trkpt lat="18.968133" lon="72.805000"></trkpt>
<trkpt lat="18.968000" lon="72.804950"></trkpt>
<trkpt lat="18.967867" lon="72.804900"></trkpt>
<trkpt lat="18.967733" lon="72.804850"></trkpt>
<trkpt lat="18.967600" lon="72.804800"></trkpt>
<trkpt lat="18.967462" lon="72.804762"></trkpt>
<trkpt lat="18.967323" lon="72.804723"></trkpt>
<trkpt lat="18.967185" lon="72.804685"></trkpt>
<trkpt lat="18.967046" lon="72.804646"></trkpt>
<trkpt lat="18.966908" lon="72.804608"></trkpt>
<trkpt lat="18.966769" lon="72.804569"></trkpt>
<trkpt lat="18.966631" lon="72.804531"></trkpt>
<trkpt lat="18.966492" lon="72.804492"></trkpt>
<trkpt lat="18.966354" lon="72.804454"></trkpt>
<trkpt lat="18.966215" lon="72.804415"></trkpt>
<trkpt lat="18.966077" lon="72.804377"></trkpt>
<trkpt lat="18.965938" lon="72.804338"></trkpt>
<trkpt lat="18.965800" lon="72.804300"></trkpt>
<trkpt lat="18.965662" lon="72.804269"></trkpt>
<trkpt lat="18.965523" lon="72.804238"></trkpt>
<trkpt lat="18.965385" lon="72.804208"></trkpt>
<trkpt lat="18.965246" lon="72.804177"></trkpt>
<trkpt lat="18.965108" lon="72.804146"></trkpt>
<trkpt lat="18.964969" lon="72.804115"></trkpt>
<trkpt lat="18.964831" lon="72.804085"></trkpt>
<trkpt lat="18.964692" lon="72.804054"></trkpt>
<trkpt lat="18.964554" lon="72.804023"></trkpt>
<trkpt lat="18.964415" lon="72.803992"></trkpt>
<trkpt lat="18.964277" lon="72.803962"></trkpt>
<trkpt lat="18.964138" lon="72.803931"></trkpt>
<trkpt lat="18.964000" lon="72.803900"></trkpt>
<trkpt lat="18.963862" lon="72.803869"></trkpt>
<trkpt lat="18.963723" lon="72.803838"></trkpt>
<trkpt lat="18.963585" lon="72.803808"></trkpt>
<trkpt lat="18.963446" lon="72.803777"></trkpt>
<trkpt lat="18.963308" lon="72.803746"></trkpt>
<trkpt lat="18.963169" lon="72.803715"></trkpt>
<trkpt lat="18.963031" lon="72.803685"></trkpt>
<trkpt lat="18.962892" lon="72.803654"></trkpt>
<trkpt lat="18.962754" lon="72.803623"></trkpt>
<trkpt lat="18.962615" lon="72.803592"></trkpt>
<trkpt lat="18.962477" lon="72.803562"></trkpt>
<trkpt lat="18.962338" lon="72.803531"></trkpt>
<trkpt lat="18.962200" lon="72.803500"></trkpt>
</trkseg></trk>
</gpx>
