<?xml version="1.0" encoding="UTF-8"?>
<gpx version="1.1" creator="google-directions">
<trk><name>mumbai_danda_versova</name><trkseg>
<trkpt lat="19.099740" lon="72.826100"></trkpt>
<trkpt lat="19.099740" lon="72.826120"></trkpt>
<trkpt lat="19.099840" lon="72.826490"></trkpt>
<trkpt lat="19.099800" lon="72.826500"></trkpt>
<trkpt lat="19.099760" lon="72.826580"></trkpt>
<trkpt lat="19.099860" lon="72.827070"></trkpt>
<trkpt lat="19.099860" lon="72.827100"></trkpt>
<trkpt lat="19.099930" lon="72.827090"></trkpt>
<trkpt lat="19.099990" lon="72.827450"></trkpt>
<trkpt lat="19.100900" lon="72.827250"></trkpt>
<trkpt lat="19.100930" lon="72.827240"></trkpt>
<trkpt lat="19.101000" lon="72.827220"></trkpt>
<trkpt lat="19.101120" lon="72.827200"></trkpt>
<trkpt lat="19.101170" lon="72.827190"></trkpt>
<trkpt lat="19.101240" lon="72.827170"></trkpt>
<trkpt lat="19.101380" lon="72.827150"></trkpt>
<trkpt lat="19.101530" lon="72.827120"></trkpt>
<trkpt lat="19.101740" lon="72.827080"></trkpt>
<trkpt lat="19.101810" lon="72.827060"></trkpt>
<trkpt lat="19.102120" lon="72.827000"></trkpt>
<trkpt lat="19.102140" lon="72.827000"></trkpt>
<trkpt lat="19.102210" lon="72.826980"></trkpt>
<trkpt lat="19.102450" lon="72.826940"></trkpt>
<trkpt lat="19.103070" lon="72.826870"></trkpt>
<trkpt lat="19.103150" lon="72.826860"></trkpt>
<trkpt lat="19.103220" lon="72.826850"></trkpt>
<trkpt lat="19.103320" lon="72.826850"></trkpt>
<trkpt lat="19.103390" lon="72.826840"></trkpt>
<trkpt lat="19.103480" lon="72.826840"></trkpt>
<trkpt lat="19.103560" lon="72.826830"></trkpt>
<trkpt lat="19.103740" lon="72.826820"></trkpt>
<trkpt lat="19.103820" lon="72.826810"></trkpt>
<trkpt lat="19.103870" lon="72.826810"></trkpt>
<trkpt lat="19.104060" lon="72.826790"></trkpt>
<trkpt lat="19.104130" lon="72.826780"></trkpt>
<trkpt lat="19.104810" lon="72.826650"></trkpt>
<trkpt lat="19.104870" lon="72.826640"></trkpt>
<trkpt lat="19.104940" lon="72.826610"></trkpt>
<trkpt lat="19.104960" lon="72.826690"></trkpt>
<trkpt lat="19.105090" lon="72.826650"></trkpt>
<trkpt lat="19.105450" lon="72.826580"></trkpt>
<trkpt lat="19.105500" lon="72.826590"></trkpt>
<trkpt lat="19.105870" lon="72.826530"></trkpt>
<trkpt lat="19.106290" lon="72.826480"></trkpt>
<trkpt lat="19.106760" lon="72.826430"></trkpt>
<trkpt lat="19.106770" lon="72.826430"></trkpt>
<trkpt lat="19.106840" lon="72.826420"></trkpt>
<trkpt lat="19.107080" lon="72.826410"></trkpt>
<trkpt lat="19.107170" lon="72.826410"></trkpt>
<trkpt lat="19.107410" lon="72.826430"></trkpt>
<trkpt lat="19.107420" lon="72.826360"></trkpt>
<trkpt lat="19.107460" lon="72.826090"></trkpt>
<trkpt lat="19.107460" lon="72.826060"></trkpt>
<trkpt lat="19.107470" lon="72.825820"></trkpt>
<trkpt lat="19.107470" lon="72.825790"></trkpt>
<trkpt lat="19.107490" lon="72.825750"></trkpt>
<trkpt lat="19.107510" lon="72.825740"></trkpt>
<trkpt lat="19.107520" lon="72.825730"></trkpt>
<trkpt lat="19.107530" lon="72.825720"></trkpt>
<trkpt lat="19.107560" lon="72.825700"></trkpt>
<trkpt lat="19.107580" lon="72.825690"></trkpt>
<trkpt lat="19.107610" lon="72.825680"></trkpt>
<trkpt lat="19.107640" lon="72.825670"></trkpt>
<trkpt lat="19.107700" lon="72.825660"></trkpt>
<trkpt lat="19.107860" lon="72.825640"></trkpt>
<trkpt lat="19.107920" lon="72.825630"></trkpt>
<trkpt lat="19.107990" lon="72.825620"></trkpt>
<trkpt lat="19.108280" lon="72.825610"></trkpt>
<trkpt lat="19.108360" lon="72.825600"></trkpt>
<trkpt lat="19.108460" lon="72.825590"></trkpt>
<trkpt lat="19.108480" lon="72.825480"></trkpt>
<trkpt lat="19.108410" lon="72.824910"></trkpt>
<trkpt lat="19.108310" lon="72.824240"></trkpt>
<trkpt lat="19.108330" lon="72.824150"></trkpt>
<trkpt lat="19.108300" lon="72.823940"></trkpt>
<trkpt lat="19.108260" lon="72.823650"></trkpt>
<trkpt lat="19.108340" lon="72.823630"></trkpt>
<trkpt lat="19.108790" lon="72.823550"></trkpt>
<trkpt lat="19.109150" lon="72.823500"></trkpt>
<trkpt lat="19.109320" lon="72.823470"></trkpt>
<trkpt lat="19.109380" lon="72.823460"></trkpt>
<trkpt lat="19.109500" lon="72.823440"></trkpt>
<trkpt lat="19.109680" lon="72.823400"></trkpt>
<trkpt lat="19.109860" lon="72.823370"></trkpt>
<trkpt lat="19.110130" lon="72.823330"></trkpt>
<trkpt lat="19.110380" lon="72.823260"></trkpt>
<trkpt lat="19.110460" lon="72.823240"></trkpt>
<trkpt lat="19.110560" lon="72.823220"></trkpt>
<trkpt lat="19.111080" lon="72.823070"></trkpt>
<trkpt lat="19.111620" lon="72.822900"></trkpt>
<trkpt lat="19.111740" lon="72.822870"></trkpt>
<trkpt lat="19.112200" lon="72.822720"></trkpt>
<trkpt lat="19.112270" lon="72.822710"></trkpt>
<trkpt lat="19.112290" lon="72.822710"></trkpt>
<trkpt lat="19.112320" lon="72.822730"></trkpt>
<trkpt lat="19.112360" lon="72.822830"></trkpt>
<trkpt lat="19.112390" lon="72.823020"></trkpt>
<trkpt lat="19.112420" lon="72.823190"></trkpt>
<trkpt lat="19.112420" lon="72.823200"></trkpt>
<trkpt lat="19.112450" lon="72.823380"></trkpt>
<trkpt lat="19.112500" lon="72.823610"></trkpt>
<trkpt lat="19.112470" lon="72.823690"></trkpt>
<trkpt lat="19.112650" lon="72.824550"></trkpt>
<trkpt lat="19.112640" lon="72.824700"></trkpt>
<trkpt lat="19.112630" lon="72.824780"></trkpt>
<trkpt lat="19.112630" lon="72.824820"></trkpt>
<trkpt lat="19.112640" lon="72.825090"></trkpt>
<trkpt lat="19.112640" lon="72.825370"></trkpt>
<trkpt lat="19.112650" lon="72.825440"></trkpt>
<trkpt lat="19.112660" lon="72.825630"></trkpt>
<trkpt lat="19.112660" lon="72.825700"></trkpt>
<trkpt lat="19.112670" lon="72.825820"></trkpt>
<trkpt lat="19.112690" lon="72.825940"></trkpt>
<trkpt lat="19.112710" lon="72.826010"></trkpt>
<trkpt lat="19.112730" lon="72.826090"></trkpt>
<trkpt lat="19.112780" lon="72.826220"></trkpt>
<trkpt lat="19.112620" lon="72.826300"></trkpt>
<trkpt lat="19.112550" lon="72.826320"></trkpt>
<trkpt lat="19.112380" lon="72.826380"></trkpt>
<trkpt lat="19.112310" lon="72.826390"></trkpt>
<trkpt lat="19.112220" lon="72.826400"></trkpt>
<trkpt lat="19.112170" lon="72.826420"></trkpt>
<trkpt lat="19.112100" lon="72.826460"></trkpt>
<trkpt lat="19.112030" lon="72.826490"></trkpt>
<trkpt lat="19.111950" lon="72.826560"></trkpt>
<trkpt lat="19.111900" lon="72.826590"></trkpt>
<trkpt lat="19.111790" lon="72.826650"></trkpt>
<trkpt lat="19.111730" lon="72.826670"></trkpt>
<trkpt lat="19.111660" lon="72.826690"></trkpt>
<trkpt lat="19.111640" lon="72.826690"></trkpt>
<trkpt lat="19.111620" lon="72.826690"></trkpt>
<trkpt lat="19.111570" lon="72.826690"></trkpt>
<trkpt lat="19.111480" lon="72.826700"></trkpt>
<trkpt lat="19.111480" lon="72.826770"></trkpt>
<trkpt lat="19.111470" lon="72.826830"></trkpt>
<trkpt lat="19.111450" lon="72.826890"></trkpt>
<trkpt lat="19.111440" lon="72.826910"></trkpt>
<trkpt lat="19.111440" lon="72.826930"></trkpt>
<trkpt lat="19.111430" lon="72.826980"></trkpt>
<trkpt lat="19.111430" lon="72.827010"></trkpt>
<trkpt lat="19.111440" lon="72.827050"></trkpt>
<trkpt lat="19.111450" lon="72.827170"></trkpt>
<trkpt lat="19.111470" lon="72.827300"></trkpt>
<trkpt lat="19.111480" lon="72.827420"></trkpt>
<trkpt lat="19.111470" lon="72.827580"></trkpt>
<trkpt lat="19.111460" lon="72.827740"></trkpt>
<trkpt lat="19.111460" lon="72.827910"></trkpt>
<trkpt lat="19.111450" lon="72.827990"></trkpt>
<trkpt lat="19.111450" lon="72.828030"></trkpt>
<trkpt lat="19.111440" lon="72.828410"></trkpt>
<trkpt lat="19.111590" lon="72.828520"></trkpt>
<trkpt lat="19.111760" lon="72.828660"></trkpt>
<trkpt lat="19.111910" lon="72.828770"></trkpt>
<trkpt lat="19.112050" lon="72.828870"></trkpt>
<trkpt lat="19.112100" lon="72.828910"></trkpt>
<trkpt lat="19.112160" lon="72.828950"></trkpt>
<trkpt lat="19.112180" lon="72.828960"></trkpt>
<trkpt lat="19.112250" lon="72.829000"></trkpt>
<trkpt lat="19.112230" lon="72.829040"></trkpt>
<trkpt lat="19.112190" lon="72.829120"></trkpt>
<trkpt lat="19.112100" lon="72.829190"></trkpt>
<trkpt lat="19.111930" lon="72.829530"></trkpt>
<trkpt lat="19.111900" lon="72.829620"></trkpt>
<trkpt lat="19.111890" lon="72.829660"></trkpt>
<trkpt lat="19.111880" lon="72.829700"></trkpt>
<trkpt lat="19.111850" lon="72.829810"></trkpt>
<trkpt lat="19.111840" lon="72.829890"></trkpt>
<trkpt lat="19.112120" lon="72.829870"></trkpt>
<trkpt lat="19.112370" lon="72.829870"></trkpt>
<trkpt lat="19.112420" lon="72.829870"></trkpt>
<trkpt lat="19.112440" lon="72.829870"></trkpt>
<trkpt lat="19.112510" lon="72.829870"></trkpt>
<trkpt lat="19.112890" lon="72.829880"></trkpt>
<trkpt lat="19.112970" lon="72.829880"></trkpt>
<trkpt lat="19.112990" lon="72.829890"></trkpt>
<trkpt lat="19.113260" lon="72.829890"></trkpt>
<trkpt lat="19.113340" lon="72.829890"></trkpt>
<trkpt lat="19.113990" lon="72.829880"></trkpt>
<trkpt lat="19.114060" lon="72.829880"></trkpt>
<trkpt lat="19.114580" lon="72.829880"></trkpt>
<trkpt lat="19.114690" lon="72.829880"></trkpt>
<trkpt lat="19.114760" lon="72.829880"></trkpt>
<trkpt lat="19.115240" lon="72.829880"></trkpt>
<trkpt lat="19.115310" lon="72.829880"></trkpt>
<trkpt lat="19.115630" lon="72.829880"></trkpt>
<trkpt lat="19.115750" lon="72.829870"></trkpt>
<trkpt lat="19.116000" lon="72.829860"></trkpt>
<trkpt lat="19.116070" lon="72.829860"></trkpt>
<trkpt lat="19.116160" lon="72.829840"></trkpt>
<trkpt lat="19.116230" lon="72.829830"></trkpt>
<trkpt lat="19.116400" lon="72.829800"></trkpt>
<trkpt lat="19.116500" lon="72.829780"></trkpt>
<trkpt lat="19.116760" lon="72.829780"></trkpt>
<trkpt lat="19.117130" lon="72.829770"></trkpt>
<trkpt lat="19.117220" lon="72.829780"></trkpt>
<trkpt lat="19.117280" lon="72.829780"></trkpt>
<trkpt lat="19.117380" lon="72.829780"></trkpt>
<trkpt lat="19.117510" lon="72.829660"></trkpt>
<trkpt lat="19.117590" lon="72.829580"></trkpt>
<trkpt lat="19.117970" lon="72.829220"></trkpt>
<trkpt lat="19.118400" lon="72.828810"></trkpt>
<trkpt lat="19.118440" lon="72.828780"></trkpt>
<trkpt lat="19.119570" lon="72.827760"></trkpt>
<trkpt lat="19.120130" lon="72.827260"></trkpt>
<trkpt lat="19.120540" lon="72.826890"></trkpt>
<trkpt lat="19.120800" lon="72.826660"></trkpt>
<trkpt lat="19.120860" lon="72.826610"></trkpt>
<trkpt lat="19.121220" lon="72.826330"></trkpt>
<trkpt lat="19.121330" lon="72.826240"></trkpt>
<trkpt lat="19.121420" lon="72.826160"></trkpt>
<trkpt lat="19.121840" lon="72.825760"></trkpt>
<trkpt lat="19.122430" lon="72.825260"></trkpt>
<trkpt lat="19.122770" lon="72.824890"></trkpt>
<trkpt lat="19.122820" lon="72.824840"></trkpt>
<trkpt lat="19.122770" lon="72.824780"></trkpt>
<trkpt lat="19.122760" lon="72.824770"></trkpt>
<trkpt lat="19.122710" lon="72.824710"></trkpt>
<trkpt lat="19.123250" lon="72.824220"></trkpt>
<trkpt lat="19.123390" lon="72.824100"></trkpt>
<trkpt lat="19.123670" lon="72.823830"></trkpt>
<trkpt lat="19.123730" lon="72.823760"></trkpt>
<trkpt lat="19.123790" lon="72.823710"></trkpt>
<trkpt lat="19.123850" lon="72.823650"></trkpt>
<trkpt lat="19.124420" lon="72.823150"></trkpt>
<trkpt lat="19.124470" lon="72.823100"></trkpt>
<trkpt lat="19.124760" lon="72.822860"></trkpt>
<trkpt lat="19.124820" lon="72.822820"></trkpt>
<trkpt lat="19.125000" lon="72.822690"></trkpt>
<trkpt lat="19.125060" lon="72.822650"></trkpt>
<trkpt lat="19.125130" lon="72.822590"></trkpt>
<trkpt lat="19.125250" lon="72.822510"></trkpt>
<trkpt lat="19.125370" lon="72.822450"></trkpt>
<trkpt lat="19.125480" lon="72.822380"></trkpt>
<trkpt lat="19.125590" lon="72.822320"></trkpt>
<trkpt lat="19.125620" lon="72.822300"></trkpt>
<trkpt lat="19.125680" lon="72.822270"></trkpt>
<trkpt lat="19.125850" lon="72.822200"></trkpt>
<trkpt lat="19.125920" lon="72.822170"></trkpt>
<trkpt lat="19.126000" lon="72.822130"></trkpt>
<trkpt lat="19.126080" lon="72.822140"></trkpt>
<trkpt lat="19.126160" lon="72.822100"></trkpt>
<trkpt lat="19.126210" lon="72.822040"></trkpt>
<trkpt lat="19.126370" lon="72.821970"></trkpt>
<trkpt lat="19.126340" lon="72.821860"></trkpt>
<trkpt lat="19.126330" lon="72.821730"></trkpt>
<trkpt lat="19.126310" lon="72.821630"></trkpt>
<trkpt lat="19.126300" lon="72.821540"></trkpt>
<trkpt lat="19.126280" lon="72.821480"></trkpt>
<trkpt lat="19.126250" lon="72.821430"></trkpt>
<trkpt lat="19.126190" lon="72.821300"></trkpt>
<trkpt lat="19.126100" lon="72.821110"></trkpt>
<trkpt lat="19.126070" lon="72.821040"></trkpt>
<trkpt lat="19.126050" lon="72.821000"></trkpt>
<trkpt lat="19.126110" lon="72.820960"></trkpt>
<trkpt lat="19.126140" lon="72.820940"></trkpt>
<trkpt lat="19.126190" lon="72.820880"></trkpt>
<trkpt lat="19.126270" lon="72.820790"></trkpt>
<trkpt lat="19.126330" lon="72.820730"></trkpt>
<trkpt lat="19.126310" lon="72.820610"></trkpt>
<trkpt lat="19.126300" lon="72.820570"></trkpt>
<trkpt lat="19.126300" lon="72.820500"></trkpt>
<trkpt lat="19.126310" lon="72.820440"></trkpt>
<trkpt lat="19.126320" lon="72.820400"></trkpt>
<trkpt lat="19.126330" lon="72.820340"></trkpt>
<trkpt lat="19.126350" lon="72.820280"></trkpt>
<trkpt lat="19.126380" lon="72.820200"></trkpt>
<trkpt lat="19.126400" lon="72.820130"></trkpt>
<trkpt lat="19.126410" lon="72.820100"></trkpt>
<trkpt lat="19.126350" lon="72.820070"></trkpt>
<trkpt lat="19.126370" lon="72.820020"></trkpt>
<trkpt lat="19.126400" lon="72.819980"></trkpt>
<trkpt lat="19.126440" lon="72.819930"></trkpt>
<trkpt lat="19.126500" lon="72.819880"></trkpt>
<trkpt lat="19.126540" lon="72.819840"></trkpt>
<trkpt lat="19.126600" lon="72.819800"></trkpt>
<trkpt lat="19.126620" lon="72.819790"></trkpt>
<trkpt lat="19.126520" lon="72.819600"></trkpt>
<trkpt lat="19.126520" lon="72.819570"></trkpt>
<trkpt lat="19.126500" lon="72.819480"></trkpt>
<trkpt lat="19.126500" lon="72.819440"></trkpt>
<trkpt lat="19.126500" lon="72.819410"></trkpt>
<trkpt lat="19.126510" lon="72.819390"></trkpt>
<trkpt lat="19.126530" lon="72.819360"></trkpt>
<trkpt lat="19.126550" lon="72.819340"></trkpt>
<trkpt lat="19.126600" lon="72.819300"></trkpt>
<trkpt lat="19.126700" lon="72.819240"></trkpt>
<trkpt lat="19.126870" lon="72.819150"></trkpt>
<trkpt lat="19.127030" lon="72.819060"></trkpt>
<trkpt lat="19.127230" lon="72.818950"></trkpt>
<trkpt lat="19.127510" lon="72.818780"></trkpt>
<trkpt lat="19.127730" lon="72.818610"></trkpt>
<trkpt lat="19.127850" lon="72.818460"></trkpt>
<trkpt lat="19.128000" lon="72.818350"></trkpt>
<trkpt lat="19.128050" lon="72.818310"></trkpt>
<trkpt lat="19.128180" lon="72.818210"></trkpt>
<trkpt lat="19.128230" lon="72.818170"></trkpt>
<trkpt lat="19.128410" lon="72.818020"></trkpt>
<trkpt lat="19.128510" lon="72.817930"></trkpt>
<trkpt lat="19.128680" lon="72.817780"></trkpt>
<trkpt lat="19.128800" lon="72.817680"></trkpt>
<trkpt lat="19.128860" lon="72.817630"></trkpt>
<trkpt lat="19.128800" lon="72.817660"></trkpt>
<trkpt lat="19.128900" lon="72.817600"></trkpt>
<trkpt lat="19.128880" lon="72.817510"></trkpt>
<trkpt lat="19.128910" lon="72.817490"></trkpt>
<trkpt lat="19.129020" lon="72.817460"></trkpt>
<trkpt lat="19.129080" lon="72.817430"></trkpt>
<trkpt lat="19.129210" lon="72.817370"></trkpt>
<trkpt lat="19.129300" lon="72.817340"></trkpt>
<trkpt lat="19.129340" lon="72.817330"></trkpt>
<trkpt lat="19.129380" lon="72.817320"></trkpt>
<trkpt lat="19.129400" lon="72.817310"></trkpt>
<trkpt lat="19.129440" lon="72.817300"></trkpt>
<trkpt lat="19.129570" lon="72.817310"></trkpt>
<trkpt lat="19.129560" lon="72.817230"></trkpt>
<trkpt lat="19.129570" lon="72.817110"></trkpt>
<trkpt lat="19.129590" lon="72.817070"></trkpt>
<trkpt lat="19.129600" lon="72.817040"></trkpt>
<trkpt lat="19.129650" lon="72.816980"></trkpt>
<trkpt lat="19.129690" lon="72.816930"></trkpt>
<trkpt lat="19.129740" lon="72.816870"></trkpt>
<trkpt lat="19.129760" lon="72.816850"></trkpt>
<trkpt lat="19.129860" lon="72.816740"></trkpt>
<trkpt lat="19.129880" lon="72.816710"></trkpt>
<trkpt lat="19.129930" lon="72.816660"></trkpt>
<trkpt lat="19.130040" lon="72.816540"></trkpt>
<trkpt lat="19.130100" lon="72.816470"></trkpt>
<trkpt lat="19.130360" lon="72.816180"></trkpt>
<trkpt lat="19.130410" lon="72.816120"></trkpt>
<trkpt lat="19.130650" lon="72.815870"></trkpt>
<trkpt lat="19.130700" lon="72.815810"></trkpt>
<trkpt lat="19.130810" lon="72.815680"></trkpt>
<trkpt lat="19.131380" lon="72.815130"></trkpt>
<trkpt lat="19.131450" lon="72.815050"></trkpt>
<trkpt lat="19.131480" lon="72.815020"></trkpt>
<trkpt lat="19.131640" lon="72.814860"></trkpt>
<trkpt lat="19.131480" lon="72.815020"></trkpt>
<trkpt lat="19.131450" lon="72.815050"></trkpt>
<trkpt lat="19.131380" lon="72.815130"></trkpt>
<trkpt lat="19.130810" lon="72.815680"></trkpt>
<trkpt lat="19.130700" lon="72.815810"></trkpt>
<trkpt lat="19.130650" lon="72.815870"></trkpt>
<trkpt lat="19.130410" lon="72.816120"></trkpt>
<trkpt lat="19.130360" lon="72.816180"></trkpt>
<trkpt lat="19.130100" lon="72.816470"></trkpt>
<trkpt lat="19.130040" lon="72.816540"></trkpt>
<trkpt lat="19.129930" lon="72.816660"></trkpt>
<trkpt lat="19.129910" lon="72.816680"></trkpt>
<trkpt lat="19.129860" lon="72.816740"></trkpt>
<trkpt lat="19.129760" lon="72.816850"></trkpt>
<trkpt lat="19.129740" lon="72.816870"></trkpt>
<trkpt lat="19.129790" lon="72.816920"></trkpt>
<trkpt lat="19.129760" lon="72.816960"></trkpt>
<trkpt lat="19.129670" lon="72.817070"></trkpt>
<trkpt lat="19.129650" lon="72.817100"></trkpt>
<trkpt lat="19.129640" lon="72.817140"></trkpt>
<trkpt lat="19.129630" lon="72.817180"></trkpt>
<trkpt lat="19.129630" lon="72.817220"></trkpt>
<trkpt lat="19.129640" lon="72.817290"></trkpt>
<trkpt lat="19.129640" lon="72.817330"></trkpt>
<trkpt lat="19.129620" lon="72.817420"></trkpt>
<trkpt lat="19.129560" lon="72.817480"></trkpt>
<trkpt lat="19.129440" lon="72.817470"></trkpt>
<trkpt lat="19.129360" lon="72.817500"></trkpt>
<trkpt lat="19.129330" lon="72.817520"></trkpt>
<trkpt lat="19.129260" lon="72.817550"></trkpt>
<trkpt lat="19.129240" lon="72.817560"></trkpt>
<trkpt lat="19.129170" lon="72.817580"></trkpt>
<trkpt lat="19.128970" lon="72.817660"></trkpt>
<trkpt lat="19.128900" lon="72.817700"></trkpt>
<trkpt lat="19.128800" lon="72.817660"></trkpt>
<trkpt lat="19.128800" lon="72.817680"></trkpt>
<trkpt lat="19.128680" lon="72.817780"></trkpt>
<trkpt lat="19.128510" lon="72.817930"></trkpt>
<trkpt lat="19.128410" lon="72.818020"></trkpt>
<trkpt lat="19.128230" lon="72.818170"></trkpt>
<trkpt lat="19.128180" lon="72.818210"></trkpt>
<trkpt lat="19.128050" lon="72.818310"></trkpt>
<trkpt lat="19.128000" lon="72.818350"></trkpt>
<trkpt lat="19.127850" lon="72.818460"></trkpt>
<trkpt lat="19.127730" lon="72.818610"></trkpt>
<trkpt lat="19.127510" lon="72.818780"></trkpt>
<trkpt lat="19.127230" lon="72.818950"></trkpt>
<trkpt lat="19.127030" lon="72.819060"></trkpt>
<trkpt lat="19.126870" lon="72.819150"></trkpt>
<trkpt lat="19.126700" lon="72.819240"></trkpt>
<trkpt lat="19.126600" lon="72.819300"></trkpt>
<trkpt lat="19.126550" lon="72.819340"></trkpt>
<trkpt lat="19.126530" lon="72.819360"></trkpt>
<trkpt lat="19.126510" lon="72.819390"></trkpt>
<trkpt lat="19.126500" lon="72.819410"></trkpt>
<trkpt lat="19.126490" lon="72.819460"></trkpt>
<trkpt lat="19.126500" lon="72.819500"></trkpt>
<trkpt lat="19.126520" lon="72.819570"></trkpt>
<trkpt lat="19.126520" lon="72.819600"></trkpt>
<trkpt lat="19.126620" lon="72.819790"></trkpt>
<trkpt lat="19.126600" lon="72.819800"></trkpt>
<trkpt lat="19.126540" lon="72.819840"></trkpt>
<trkpt lat="19.126500" lon="72.819880"></trkpt>
<trkpt lat="19.126440" lon="72.819930"></trkpt>
<trkpt lat="19.126400" lon="72.819980"></trkpt>
<trkpt lat="19.126370" lon="72.820020"></trkpt>
<trkpt lat="19.126350" lon="72.820070"></trkpt>
<trkpt lat="19.126410" lon="72.820100"></trkpt>
<trkpt lat="19.126400" lon="72.820130"></trkpt>
<trkpt lat="19.126380" lon="72.820200"></trkpt>
<trkpt lat="19.126350" lon="72.820280"></trkpt>
<trkpt lat="19.126330" lon="72.820340"></trkpt>
<trkpt lat="19.126320" lon="72.820400"></trkpt>
<trkpt lat="19.126310" lon="72.820440"></trkpt>
<trkpt lat="19.126300" lon="72.820500"></trkpt>
<trkpt lat="19.126300" lon="72.820570"></trkpt>
<trkpt lat="19.126310" lon="72.820610"></trkpt>
<trkpt lat="19.126330" lon="72.820730"></trkpt>
<trkpt lat="19.126270" lon="72.820790"></trkpt>
<trkpt lat="19.126190" lon="72.820880"></trkpt>
<trkpt lat="19.126140" lon="72.820940"></trkpt>
<trkpt lat="19.126110" lon="72.820960"></trkpt>
<trkpt lat="19.126050" lon="72.821000"></trkpt>
<trkpt lat="19.126070" lon="72.821040"></trkpt>
<trkpt lat="19.126100" lon="72.821110"></trkpt>
<trkpt lat="19.126190" lon="72.821300"></trkpt>
<trkpt lat="19.126250" lon="72.821430"></trkpt>
<trkpt lat="19.126280" lon="72.821480"></trkpt>
<trkpt lat="19.126300" lon="72.821540"></trkpt>
<trkpt lat="19.126310" lon="72.821630"></trkpt>
<trkpt lat="19.126330" lon="72.821730"></trkpt>
<trkpt lat="19.126340" lon="72.821860"></trkpt>
<trkpt lat="19.126370" lon="72.821970"></trkpt>
<trkpt lat="19.126210" lon="72.822040"></trkpt>
<trkpt lat="19.126160" lon="72.822100"></trkpt>
<trkpt lat="19.126080" lon="72.822140"></trkpt>
<trkpt lat="19.126000" lon="72.822130"></trkpt>
<trkpt lat="19.125920" lon="72.822170"></trkpt>
<trkpt lat="19.125850" lon="72.822200"></trkpt>
<trkpt lat="19.125680" lon="72.822270"></trkpt>
<trkpt lat="19.125620" lon="72.822300"></trkpt>
<trkpt lat="19.125590" lon="72.822320"></trkpt>
<trkpt lat="19.125480" lon="72.822380"></trkpt>
<trkpt lat="19.125370" lon="72.822450"></trkpt>
<trkpt lat="19.125250" lon="72.822510"></trkpt>
<trkpt lat="19.125130" lon="72.822590"></trkpt>
<trkpt lat="19.125060" lon="72.822650"></trkpt>
<trkpt lat="19.125000" lon="72.822690"></trkpt>
<trkpt lat="19.124820" lon="72.822820"></trkpt>
<trkpt lat="19.124760" lon="72.822860"></trkpt>
<trkpt lat="19.124470" lon="72.823100"></trkpt>
<trkpt lat="19.124420" lon="72.823150"></trkpt>
<trkpt lat="19.123850" lon="72.823650"></trkpt>
<trkpt lat="19.123800" lon="72.823690"></trkpt>
<trkpt lat="19.123730" lon="72.823760"></trkpt>
<trkpt lat="19.123670" lon="72.823830"></trkpt>
<trkpt lat="19.123390" lon="72.824100"></trkpt>
<trkpt lat="19.123250" lon="72.824220"></trkpt>
<trkpt lat="19.122710" lon="72.824710"></trkpt>
<trkpt lat="19.122760" lon="72.824770"></trkpt>
<trkpt lat="19.122770" lon="72.824780"></trkpt>
<trkpt lat="19.122820" lon="72.824840"></trkpt>
<trkpt lat="19.122770" lon="72.824890"></trkpt>
<trkpt lat="19.122430" lon="72.825260"></trkpt>
<trkpt lat="19.121840" lon="72.825760"></trkpt>
<trkpt lat="19.121420" lon="72.826160"></trkpt>
<trkpt lat="19.121330" lon="72.826240"></trkpt>
<trkpt lat="19.121220" lon="72.826330"></trkpt>
<trkpt lat="19.120860" lon="72.826610"></trkpt>
<trkpt lat="19.120800" lon="72.826660"></trkpt>
<trkpt lat="19.120540" lon="72.826890"></trkpt>
<trkpt lat="19.120130" lon="72.827260"></trkpt>
<trkpt lat="19.119570" lon="72.827760"></trkpt>
<trkpt lat="19.118440" lon="72.828780"></trkpt>
<trkpt lat="19.118400" lon="72.828810"></trkpt>
<trkpt lat="19.117970" lon="72.829220"></trkpt>
<trkpt lat="19.117590" lon="72.829580"></trkpt>
<trkpt lat="19.117510" lon="72.829660"></trkpt>
<trkpt lat="19.117380" lon="72.829780"></trkpt>
<trkpt lat="19.117280" lon="72.829780"></trkpt>
<trkpt lat="19.117220" lon="72.829780"></trkpt>
<trkpt lat="19.117130" lon="72.829770"></trkpt>
<trkpt lat="19.116760" lon="72.829780"></trkpt>
<trkpt lat="19.116500" lon="72.829780"></trkpt>
<trkpt lat="19.116400" lon="72.829800"></trkpt>
<trkpt lat="19.116230" lon="72.829830"></trkpt>
<trkpt lat="19.116160" lon="72.829840"></trkpt>
<trkpt lat="19.116070" lon="72.829860"></trkpt>
<trkpt lat="19.116000" lon="72.829860"></trkpt>
<trkpt lat="19.115750" lon="72.829870"></trkpt>
<trkpt lat="19.115630" lon="72.829880"></trkpt>
<trkpt lat="19.115310" lon="72.829880"></trkpt>
<trkpt lat="19.115240" lon="72.829880"></trkpt>
<trkpt lat="19.114760" lon="72.829880"></trkpt>
<trkpt lat="19.114690" lon="72.829880"></trkpt>
<trkpt lat="19.114580" lon="72.829880"></trkpt>
<trkpt lat="19.114060" lon="72.829880"></trkpt>
<trkpt lat="19.113990" lon="72.829880"></trkpt>
<trkpt lat="19.113340" lon="72.829890"></trkpt>
<trkpt lat="19.113260" lon="72.829890"></trkpt>
<trkpt lat="19.112990" lon="72.829890"></trkpt>
<trkpt lat="19.112970" lon="72.829880"></trkpt>
<trkpt lat="19.112890" lon="72.829880"></trkpt>
<trkpt lat="19.112510" lon="72.829870"></trkpt>
<trkpt lat="19.112440" lon="72.829870"></trkpt>
<trkpt lat="19.112420" lon="72.829870"></trkpt>
<trkpt lat="19.112370" lon="72.829870"></trkpt>
<trkpt lat="19.112120" lon="72.829870"></trkpt>
<trkpt lat="19.111840" lon="72.829890"></trkpt>
<trkpt lat="19.111850" lon="72.829810"></trkpt>
<trkpt lat="19.111880" lon="72.829700"></trkpt>
<trkpt lat="19.111890" lon="72.829660"></trkpt>
<trkpt lat="19.111900" lon="72.829620"></trkpt>
<trkpt lat="19.111930" lon="72.829530"></trkpt>
<trkpt lat="19.112100" lon="72.829190"></trkpt>
<trkpt lat="19.112190" lon="72.829120"></trkpt>
<trkpt lat="19.112230" lon="72.829040"></trkpt>
<trkpt lat="19.112250" lon="72.829000"></trkpt>
<trkpt lat="19.112180" lon="72.828960"></trkpt>
<trkpt lat="19.112160" lon="72.828950"></trkpt>
<trkpt lat="19.112100" lon="72.828910"></trkpt>
<trkpt lat="19.112050" lon="72.828870"></trkpt>
<trkpt lat="19.111910" lon="72.828770"></trkpt>
<trkpt lat="19.111760" lon="72.828660"></trkpt>
<trkpt lat="19.111590" lon="72.828520"></trkpt>
<trkpt lat="19.111440" lon="72.828410"></trkpt>
<trkpt lat="19.111450" lon="72.828030"></trkpt>
<trkpt lat="19.111450" lon="72.827990"></trkpt>
<trkpt lat="19.111460" lon="72.827910"></trkpt>
<trkpt lat="19.111460" lon="72.827740"></trkpt>
<trkpt lat="19.111470" lon="72.827580"></trkpt>
<trkpt lat="19.111480" lon="72.827420"></trkpt>
<trkpt lat="19.111470" lon="72.827300"></trkpt>
<trkpt lat="19.111450" lon="72.827170"></trkpt>
<trkpt lat="19.111440" lon="72.827050"></trkpt>
<trkpt lat="19.111430" lon="72.827010"></trkpt>
<trkpt lat="19.111430" lon="72.826980"></trkpt>
<trkpt lat="19.111440" lon="72.826930"></trkpt>
<trkpt lat="19.111440" lon="72.826910"></trkpt>
<trkpt lat="19.111450" lon="72.826890"></trkpt>
<trkpt lat="19.111470" lon="72.826830"></trkpt>
<trkpt lat="19.111480" lon="72.826770"></trkpt>
<trkpt lat="19.111480" lon="72.826700"></trkpt>
<trkpt lat="19.111570" lon="72.826690"></trkpt>
<trkpt lat="19.111620" lon="72.826690"></trkpt>
<trkpt lat="19.111640" lon="72.826690"></trkpt>
<trkpt lat="19.111660" lon="72.826690"></trkpt>
<trkpt lat="19.111730" lon="72.826670"></trkpt>
<trkpt lat="19.111790" lon="72.826650"></trkpt>
<trkpt lat="19.111900" lon="72.826590"></trkpt>
<trkpt lat="19.111950" lon="72.826560"></trkpt>
<trkpt lat="19.112030" lon="72.826490"></trkpt>
<trkpt lat="19.112100" lon="72.826460"></trkpt>
<trkpt lat="19.112170" lon="72.826420"></trkpt>
<trkpt lat="19.112220" lon="72.826400"></trkpt>
<trkpt lat="19.112310" lon="72.826390"></trkpt>
<trkpt lat="19.112380" lon="72.826380"></trkpt>
<trkpt lat="19.112550" lon="72.826320"></trkpt>
<trkpt lat="19.112620" lon="72.826300"></trkpt>
<trkpt lat="19.112780" lon="72.826220"></trkpt>
<trkpt lat="19.112730" lon="72.826090"></trkpt>
<trkpt lat="19.112710" lon="72.826010"></trkpt>
<trkpt lat="19.112690" lon="72.825940"></trkpt>
<trkpt lat="19.112670" lon="72.825820"></trkpt>
<trkpt lat="19.112660" lon="72.825700"></trkpt>
<trkpt lat="19.112660" lon="72.825630"></trkpt>
<trkpt lat="19.112650" lon="72.825440"></trkpt>
<trkpt lat="19.112640" lon="72.825370"></trkpt>
<trkpt lat="19.112640" lon="72.825090"></trkpt>
<trkpt lat="19.112630" lon="72.824820"></trkpt>
<trkpt lat="19.112630" lon="72.824780"></trkpt>
<trkpt lat="19.112640" lon="72.824700"></trkpt>
<trkpt lat="19.112650" lon="72.824550"></trkpt>
<trkpt lat="19.112470" lon="72.823690"></trkpt>
<trkpt lat="19.112500" lon="72.823610"></trkpt>
<trkpt lat="19.112450" lon="72.823380"></trkpt>
<trkpt lat="19.112420" lon="72.823200"></trkpt>
<trkpt lat="19.112420" lon="72.823190"></trkpt>
<trkpt lat="19.112390" lon="72.823020"></trkpt>
<trkpt lat="19.112360" lon="72.822830"></trkpt>
<trkpt lat="19.112320" lon="72.822730"></trkpt>
<trkpt lat="19.112290" lon="72.822710"></trkpt>
<trkpt lat="19.112270" lon="72.822710"></trkpt>
<trkpt lat="19.112200" lon="72.822720"></trkpt>
<trkpt lat="19.111740" lon="72.822870"></trkpt>
<trkpt lat="19.111620" lon="72.822900"></trkpt>
<trkpt lat="19.111080" lon="72.823070"></trkpt>
<trkpt lat="19.110560" lon="72.823220"></trkpt>
<trkpt lat="19.110460" lon="72.823240"></trkpt>
<trkpt lat="19.110380" lon="72.823260"></trkpt>
<trkpt lat="19.110130" lon="72.823330"></trkpt>
<trkpt lat="19.109860" lon="72.823370"></trkpt>
<trkpt lat="19.109680" lon="72.823400"></trkpt>
<trkpt lat="19.109500" lon="72.823440"></trkpt>
<trkpt lat="19.109380" lon="72.823460"></trkpt>
<trkpt lat="19.109320" lon="72.823470"></trkpt>
<trkpt lat="19.109150" lon="72.823500"></trkpt>
<trkpt lat="19.108790" lon="72.823550"></trkpt>
<trkpt lat="19.108340" lon="72.823630"></trkpt>
<trkpt lat="19.108260" lon="72.823650"></trkpt>
<trkpt lat="19.107650" lon="72.823770"></trkpt>
<trkpt lat="19.107590" lon="72.823780"></trkpt>
<trkpt lat="19.107470" lon="72.823800"></trkpt>
<trkpt lat="19.107190" lon="72.823850"></trkpt>
<trkpt lat="19.107080" lon="72.823870"></trkpt>
<trkpt lat="19.106940" lon="72.823890"></trkpt>
<trkpt lat="19.106780" lon="72.823920"></trkpt>
<trkpt lat="19.106500" lon="72.823990"></trkpt>
<trkpt lat="19.106450" lon="72.824010"></trkpt>
<trkpt lat="19.106270" lon="72.824070"></trkpt>
<trkpt lat="19.106140" lon="72.824090"></trkpt>
<trkpt lat="19.106130" lon="72.824090"></trkpt>
<trkpt lat="19.106100" lon="72.824100"></trkpt>
<trkpt lat="19.105600" lon="72.824200"></trkpt>
<trkpt lat="19.105400" lon="72.824250"></trkpt>
<trkpt lat="19.105220" lon="72.824280"></trkpt>
<trkpt lat="19.105030" lon="72.824320"></trkpt>
<trkpt lat="19.104690" lon="72.824380"></trkpt>
<trkpt lat="19.104150" lon="72.824510"></trkpt>
<trkpt lat="19.103990" lon="72.824540"></trkpt>
<trkpt lat="19.103840" lon="72.824570"></trkpt>
<trkpt lat="19.103810" lon="72.824570"></trkpt>
<trkpt lat="19.103660" lon="72.824600"></trkpt>
<trkpt lat="19.103630" lon="72.824600"></trkpt>
<trkpt lat="19.103460" lon="72.824640"></trkpt>
<trkpt lat="19.103040" lon="72.824720"></trkpt>
<trkpt lat="19.103010" lon="72.824720"></trkpt>
<trkpt lat="19.103000" lon="72.824830"></trkpt>
<trkpt lat="19.103000" lon="72.824870"></trkpt>
<trkpt lat="19.103000" lon="72.825010"></trkpt>
<trkpt lat="19.103000" lon="72.825100"></trkpt>
<trkpt lat="19.103000" lon="72.825170"></trkpt>
<trkpt lat="19.103010" lon="72.825300"></trkpt>
<trkpt lat="19.103030" lon="72.825480"></trkpt>
<trkpt lat="19.103030" lon="72.825520"></trkpt>
<trkpt lat="19.103040" lon="72.825670"></trkpt>
<trkpt lat="19.103050" lon="72.825820"></trkpt>
<trkpt lat="19.103070" lon="72.825970"></trkpt>
<trkpt lat="19.103050" lon="72.826050"></trkpt>
<trkpt lat="19.103100" lon="72.826500"></trkpt>
<trkpt lat="19.103120" lon="72.826690"></trkpt>
<trkpt lat="19.103130" lon="72.826730"></trkpt>
<trkpt lat="19.103150" lon="72.826860"></trkpt>
<trkpt lat="19.103070" lon="72.826870"></trkpt>
<trkpt lat="19.102450" lon="72.826940"></trkpt>
<trkpt lat="19.102210" lon="72.826980"></trkpt>
<trkpt lat="19.102140" lon="72.827000"></trkpt>
<trkpt lat="19.102120" lon="72.827000"></trkpt>
<trkpt lat="19.101810" lon="72.827060"></trkpt>
<trkpt lat="19.101740" lon="72.827080"></trkpt>
<trkpt lat="19.101530" lon="72.827120"></trkpt>
<trkpt lat="19.101380" lon="72.827150"></trkpt>
<trkpt lat="19.101240" lon="72.827170"></trkpt>
<trkpt lat="19.101190" lon="72.827180"></trkpt>
<trkpt lat="19.101120" lon="72.827200"></trkpt>
<trkpt lat="19.101000" lon="72.827220"></trkpt>
<trkpt lat="19.100930" lon="72.827240"></trkpt>
<trkpt lat="19.100900" lon="72.827250"></trkpt>
<trkpt lat="19.099990" lon="72.827450"></trkpt>
<trkpt lat="19.099930" lon="72.827090"></trkpt>
<trkpt lat="19.099860" lon="72.827100"></trkpt>
<trkpt lat="19.099860" lon="72.827070"></trkpt>
<trkpt lat="19.099760" lon="72.826580"></trkpt>
<trkpt lat="19.099800" lon="72.826500"></trkpt>
<trkpt lat="19.099840" lon="72.826490"></trkpt>
<trkpt lat="19.099740" lon="72.826120"></trkpt>
<trkpt lat="19.099740" lon="72.826100"></trkpt>
</trkseg></trk>
</gpx>
