<?xml version="1.0" encoding="UTF-8"?>
<gpx version="1.1" creator="greatruns-mapmyrun">
<trk><name>sf_angel_island</name><trkseg>
<trkpt lat="37.868570" lon="-122.435080"></trkpt>
<trkpt lat="37.868550" lon="-122.435050"></trkpt>
<trkpt lat="37.868480" lon="-122.434600"></trkpt>
<trkpt lat="37.868610" lon="-122.434560"></trkpt>
<trkpt lat="37.868760" lon="-122.434430"></trkpt>
<trkpt lat="37.868900" lon="-122.434280"></trkpt>
<trkpt lat="37.869030" lon="-122.434200"></trkpt>
<trkpt lat="37.869280" lon="-122.434110"></trkpt>
<trkpt lat="37.869450" lon="-122.434070"></trkpt>
<trkpt lat="37.869480" lon="-122.434030"></trkpt>
<trkpt lat="37.869470" lon="-122.433880"></trkpt>
<trkpt lat="37.869540" lon="-122.433670"></trkpt>
<trkpt lat="37.869530" lon="-122.433550"></trkpt>
<trkpt lat="37.869450" lon="-122.433330"></trkpt>
<trkpt lat="37.869340" lon="-122.433300"></trkpt>
<trkpt lat="37.869180" lon="-122.433180"></trkpt>
<trkpt lat="37.869290" lon="-122.433120"></trkpt>
<trkpt lat="37.869410" lon="-122.432990"></trkpt>
<trkpt lat="37.869520" lon="-122.432730"></trkpt>
<trkpt lat="37.869560" lon="-122.432530"></trkpt>
<trkpt lat="37.869550" lon="-122.432370"></trkpt>
<trkpt lat="37.869510" lon="-122.432200"></trkpt>
<trkpt lat="37.869450" lon="-122.431910"></trkpt>
<trkpt lat="37.869490" lon="-122.431280"></trkpt>
<trkpt lat="37.869550" lon="-122.431100"></trkpt>
<trkpt lat="37.869650" lon="-122.431010"></trkpt>
<trkpt lat="37.869720" lon="-122.430980"></trkpt>
<trkpt lat="37.869790" lon="-122.430970"></trkpt>
<trkpt lat="37.870130" lon="-122.431070"></trkpt>
<trkpt lat="37.870700" lon="-122.431140"></trkpt>
<trkpt lat="37.871220" lon="-122.431040"></trkpt>
<trkpt lat="37.871420" lon="-122.430990"></trkpt>
<trkpt lat="37.871500" lon="-122.430890"></trkpt>
<trkpt lat="37.871570" lon="-122.430720"></trkpt>
<trkpt lat="37.871600" lon="-122.430470"></trkpt>
<trkpt lat="37.871580" lon="-122.430310"></trkpt>
<trkpt lat="37.871510" lon="-122.430150"></trkpt>
<trkpt lat="37.871300" lon="-122.429840"></trkpt>
<trkpt lat="37.871120" lon="-122.429450"></trkpt>
<trkpt lat="37.871000" lon="-122.429350"></trkpt>
<trkpt lat="37.870880" lon="-122.429280"></trkpt>
<trkpt lat="37.870740" lon="-122.429170"></trkpt>
<trkpt lat="37.870660" lon="-122.429040"></trkpt>
<trkpt lat="37.870640" lon="-122.428880"></trkpt>
<trkpt lat="37.870690" lon="-122.428650"></trkpt>
<trkpt lat="37.870690" lon="-122.428430"></trkpt>
<trkpt lat="37.870630" lon="-122.428260"></trkpt>
<trkpt lat="37.870390" lon="-122.427970"></trkpt>
<trkpt lat="37.870330" lon="-122.427940"></trkpt>
<trkpt lat="37.870170" lon="-122.427890"></trkpt>
<trkpt lat="37.869980" lon="-122.427880"></trkpt>
<trkpt lat="37.869790" lon="-122.427850"></trkpt>
<trkpt lat="37.869680" lon="-122.427770"></trkpt>
<trkpt lat="37.869440" lon="-122.427520"></trkpt>
<trkpt lat="37.868830" lon="-122.426940"></trkpt>
<trkpt lat="37.868770" lon="-122.426870"></trkpt>
<trkpt lat="37.868650" lon="-122.426670"></trkpt>
<trkpt lat="37.868460" lon="-122.426190"></trkpt>
<trkpt lat="37.868400" lon="-122.426070"></trkpt>
<trkpt lat="37.868320" lon="-122.426010"></trkpt>
<trkpt lat="37.868140" lon="-122.425930"></trkpt>
<trkpt lat="37.867940" lon="-122.425870"></trkpt>
<trkpt lat="37.867770" lon="-122.425760"></trkpt>
<trkpt lat="37.867650" lon="-122.425630"></trkpt>
<trkpt lat="37.867550" lon="-122.425390"></trkpt>
<trkpt lat="37.867520" lon="-122.425280"></trkpt>
<trkpt lat="37.867520" lon="-122.425220"></trkpt>
<trkpt lat="37.867650" lon="-122.425210"></trkpt>
<trkpt lat="37.868090" lon="-122.425210"></trkpt>
<trkpt lat="37.868380" lon="-122.425210"></trkpt>
<trkpt lat="37.868830" lon="-122.425270"></trkpt>
<trkpt lat="37.869090" lon="-122.425400"></trkpt>
<trkpt lat="37.869210" lon="-122.425510"></trkpt>
<trkpt lat="37.869250" lon="-122.425550"></trkpt>
<trkpt lat="37.869330" lon="-122.425770"></trkpt>
<trkpt lat="37.869350" lon="-122.425930"></trkpt>
<trkpt lat="37.869350" lon="-122.425930"></trkpt>
<trkpt lat="37.869330" lon="-122.425770"></trkpt>
<trkpt lat="37.869250" lon="-122.425550"></trkpt>
<trkpt lat="37.869210" lon="-122.425510"></trkpt>
<trkpt lat="37.869090" lon="-122.425400"></trkpt>
<trkpt lat="37.868950" lon="-122.425320"></trkpt>
<trkpt lat="37.868710" lon="-122.425250"></trkpt>
<trkpt lat="37.868380" lon="-122.425210"></trkpt>
<trkpt lat="37.868090" lon="-122.425210"></trkpt>
<trkpt lat="37.867650" lon="-122.425210"></trkpt>
<trkpt lat="37.867520" lon="-122.425220"></trkpt>
<trkpt lat="37.867530" lon="-122.425150"></trkpt>
<trkpt lat="37.867580" lon="-122.424960"></trkpt>
<trkpt lat="37.867610" lon="-122.424890"></trkpt>
<trkpt lat="37.867710" lon="-122.424700"></trkpt>
<trkpt lat="37.867760" lon="-122.424510"></trkpt>
<trkpt lat="37.867740" lon="-122.424330"></trkpt>
<trkpt lat="37.867680" lon="-122.424220"></trkpt>
<trkpt lat="37.867590" lon="-122.424130"></trkpt>
<trkpt lat="37.867320" lon="-122.423990"></trkpt>
<trkpt lat="37.867010" lon="-122.423860"></trkpt>
<trkpt lat="37.866730" lon="-122.423800"></trkpt>
<trkpt lat="37.866590" lon="-122.423730"></trkpt>
<trkpt lat="37.866410" lon="-122.423510"></trkpt>
<trkpt lat="37.866300" lon="-122.423400"></trkpt>
<trkpt lat="37.866170" lon="-122.423340"></trkpt>
<trkpt lat="37.865770" lon="-122.423280"></trkpt>
<trkpt lat="37.865610" lon="-122.423250"></trkpt>
<trkpt lat="37.865450" lon="-122.423190"></trkpt>
<trkpt lat="37.865170" lon="-122.423020"></trkpt>
<trkpt lat="37.865070" lon="-122.422960"></trkpt>
<trkpt lat="37.864990" lon="-122.422940"></trkpt>
<trkpt lat="37.864810" lon="-122.422960"></trkpt>
<trkpt lat="37.864520" lon="-122.423010"></trkpt>
<trkpt lat="37.864370" lon="-122.423020"></trkpt>
<trkpt lat="37.864040" lon="-122.422910"></trkpt>
<trkpt lat="37.863880" lon="-122.422810"></trkpt>
<trkpt lat="37.863710" lon="-122.422650"></trkpt>
<trkpt lat="37.863630" lon="-122.422610"></trkpt>
<trkpt lat="37.863550" lon="-122.422590"></trkpt>
<trkpt lat="37.863210" lon="-122.422550"></trkpt>
<trkpt lat="37.863110" lon="-122.422510"></trkpt>
<trkpt lat="37.862940" lon="-122.422320"></trkpt>
<trkpt lat="37.862780" lon="-122.422120"></trkpt>
<trkpt lat="37.862570" lon="-122.421790"></trkpt>
<trkpt lat="37.862500" lon="-122.421690"></trkpt>
<trkpt lat="37.862380" lon="-122.421550"></trkpt>
<trkpt lat="37.862240" lon="-122.421390"></trkpt>
<trkpt lat="37.862140" lon="-122.421290"></trkpt>
<trkpt lat="37.862220" lon="-122.421210"></trkpt>
<trkpt lat="37.862310" lon="-122.421160"></trkpt>
<trkpt lat="37.862390" lon="-122.421130"></trkpt>
<trkpt lat="37.862240" lon="-122.420890"></trkpt>
<trkpt lat="37.861910" lon="-122.420320"></trkpt>
<trkpt lat="37.861810" lon="-122.420120"></trkpt>
<trkpt lat="37.861730" lon="-122.419870"></trkpt>
<trkpt lat="37.861700" lon="-122.419710"></trkpt>
<trkpt lat="37.861700" lon="-122.419620"></trkpt>
<trkpt lat="37.861690" lon="-122.419550"></trkpt>
<trkpt lat="37.861640" lon="-122.419470"></trkpt>
<trkpt lat="37.861560" lon="-122.419350"></trkpt>
<trkpt lat="37.861540" lon="-122.419250"></trkpt>
<trkpt lat="37.861600" lon="-122.419080"></trkpt>
<trkpt lat="37.861630" lon="-122.419030"></trkpt>
<trkpt lat="37.861630" lon="-122.419040"></trkpt>
<trkpt lat="37.861540" lon="-122.419220"></trkpt>
<trkpt lat="37.861550" lon="-122.419320"></trkpt>
<trkpt lat="37.861610" lon="-122.419430"></trkpt>
<trkpt lat="37.861670" lon="-122.419510"></trkpt>
<trkpt lat="37.861690" lon="-122.419580"></trkpt>
<trkpt lat="37.861700" lon="-122.419770"></trkpt>
<trkpt lat="37.861840" lon="-122.420190"></trkpt>
<trkpt lat="37.862180" lon="-122.420780"></trkpt>
<trkpt lat="37.862350" lon="-122.421060"></trkpt>
<trkpt lat="37.862390" lon="-122.421130"></trkpt>
<trkpt lat="37.862340" lon="-122.421140"></trkpt>
<trkpt lat="37.862270" lon="-122.421180"></trkpt>
<trkpt lat="37.862140" lon="-122.421290"></trkpt>
<trkpt lat="37.862300" lon="-122.421460"></trkpt>
<trkpt lat="37.862440" lon="-122.421620"></trkpt>
<trkpt lat="37.862530" lon="-122.421750"></trkpt>
<trkpt lat="37.862720" lon="-122.422040"></trkpt>
<trkpt lat="37.862830" lon="-122.422200"></trkpt>
<trkpt lat="37.863080" lon="-122.422470"></trkpt>
<trkpt lat="37.863160" lon="-122.422530"></trkpt>
<trkpt lat="37.863210" lon="-122.422550"></trkpt>
<trkpt lat="37.863060" lon="-122.422610"></trkpt>
<trkpt lat="37.862970" lon="-122.422620"></trkpt>
<trkpt lat="37.862880" lon="-122.422570"></trkpt>
<trkpt lat="37.862540" lon="-122.422260"></trkpt>
<trkpt lat="37.862270" lon="-122.422150"></trkpt>
<trkpt lat="37.862020" lon="-122.422120"></trkpt>
<trkpt lat="37.861800" lon="-122.422170"></trkpt>
<trkpt lat="37.861620" lon="-122.422270"></trkpt>
<trkpt lat="37.861400" lon="-122.422370"></trkpt>
<trkpt lat="37.861210" lon="-122.422410"></trkpt>
<trkpt lat="37.861040" lon="-122.422370"></trkpt>
<trkpt lat="37.860730" lon="-122.422070"></trkpt>
<trkpt lat="37.860210" lon="-122.421620"></trkpt>
<trkpt lat="37.860120" lon="-122.421590"></trkpt>
<trkpt lat="37.860040" lon="-122.421590"></trkpt>
<trkpt lat="37.859790" lon="-122.421720"></trkpt>
<trkpt lat="37.859540" lon="-122.421840"></trkpt>
<trkpt lat="37.859390" lon="-122.421870"></trkpt>
<trkpt lat="37.858530" lon="-122.421830"></trkpt>
<trkpt lat="37.858390" lon="-122.421810"></trkpt>
<trkpt lat="37.858180" lon="-122.421740"></trkpt>
<trkpt lat="37.857960" lon="-122.421670"></trkpt>
<trkpt lat="37.857780" lon="-122.421630"></trkpt>
<trkpt lat="37.857640" lon="-122.421600"></trkpt>
<trkpt lat="37.857520" lon="-122.421530"></trkpt>
<trkpt lat="37.857210" lon="-122.421260"></trkpt>
<trkpt lat="37.857090" lon="-122.421190"></trkpt>
<trkpt lat="37.856780" lon="-122.421070"></trkpt>
<trkpt lat="37.856150" lon="-122.420900"></trkpt>
<trkpt lat="37.855690" lon="-122.420830"></trkpt>
<trkpt lat="37.855550" lon="-122.420750"></trkpt>
<trkpt lat="37.855110" lon="-122.420550"></trkpt>
<trkpt lat="37.854710" lon="-122.420370"></trkpt>
<trkpt lat="37.854300" lon="-122.420200"></trkpt>
<trkpt lat="37.854070" lon="-122.420160"></trkpt>
<trkpt lat="37.853850" lon="-122.420160"></trkpt>
<trkpt lat="37.853730" lon="-122.420090"></trkpt>
<trkpt lat="37.853580" lon="-122.419900"></trkpt>
<trkpt lat="37.853500" lon="-122.419590"></trkpt>
<trkpt lat="37.853450" lon="-122.419380"></trkpt>
<trkpt lat="37.853320" lon="-122.419190"></trkpt>
<trkpt lat="37.853270" lon="-122.419150"></trkpt>
<trkpt lat="37.853270" lon="-122.419150"></trkpt>
<trkpt lat="37.853390" lon="-122.419280"></trkpt>
<trkpt lat="37.853470" lon="-122.419460"></trkpt>
<trkpt lat="37.853540" lon="-122.419780"></trkpt>
<trkpt lat="37.853630" lon="-122.419980"></trkpt>
<trkpt lat="37.853790" lon="-122.420140"></trkpt>
<trkpt lat="37.853930" lon="-122.420170"></trkpt>
<trkpt lat="37.854210" lon="-122.420180"></trkpt>
<trkpt lat="37.854430" lon="-122.420240"></trkpt>
<trkpt lat="37.854850" lon="-122.420440"></trkpt>
<trkpt lat="37.855550" lon="-122.420750"></trkpt>
<trkpt lat="37.855690" lon="-122.420830"></trkpt>
<trkpt lat="37.855730" lon="-122.420880"></trkpt>
<trkpt lat="37.855760" lon="-122.420920"></trkpt>
<trkpt lat="37.855810" lon="-122.421020"></trkpt>
<trkpt lat="37.855840" lon="-122.421200"></trkpt>
<trkpt lat="37.855820" lon="-122.421440"></trkpt>
<trkpt lat="37.855800" lon="-122.421660"></trkpt>
<trkpt lat="37.855600" lon="-122.423000"></trkpt>
<trkpt lat="37.855550" lon="-122.423780"></trkpt>
<trkpt lat="37.855580" lon="-122.424440"></trkpt>
<trkpt lat="37.855680" lon="-122.424870"></trkpt>
<trkpt lat="37.855710" lon="-122.425090"></trkpt>
<trkpt lat="37.855680" lon="-122.425440"></trkpt>
<trkpt lat="37.855660" lon="-122.425670"></trkpt>
<trkpt lat="37.855680" lon="-122.425860"></trkpt>
<trkpt lat="37.855720" lon="-122.426020"></trkpt>
<trkpt lat="37.855790" lon="-122.426150"></trkpt>
<trkpt lat="37.855960" lon="-122.426350"></trkpt>
<trkpt lat="37.856060" lon="-122.426420"></trkpt>
<trkpt lat="37.856190" lon="-122.426470"></trkpt>
<trkpt lat="37.856270" lon="-122.426470"></trkpt>
<trkpt lat="37.856390" lon="-122.426430"></trkpt>
<trkpt lat="37.856560" lon="-122.426270"></trkpt>
<trkpt lat="37.856720" lon="-122.425980"></trkpt>
<trkpt lat="37.856900" lon="-122.425490"></trkpt>
<trkpt lat="37.856990" lon="-122.425330"></trkpt>
<trkpt lat="37.857100" lon="-122.425260"></trkpt>
<trkpt lat="37.857220" lon="-122.425230"></trkpt>
<trkpt lat="37.857580" lon="-122.425210"></trkpt>
<trkpt lat="37.857750" lon="-122.425180"></trkpt>
<trkpt lat="37.857870" lon="-122.425130"></trkpt>
<trkpt lat="37.857970" lon="-122.425110"></trkpt>
<trkpt lat="37.858040" lon="-122.425120"></trkpt>
<trkpt lat="37.858220" lon="-122.425200"></trkpt>
<trkpt lat="37.858310" lon="-122.425220"></trkpt>
<trkpt lat="37.858330" lon="-122.425140"></trkpt>
<trkpt lat="37.858320" lon="-122.425020"></trkpt>
<trkpt lat="37.858270" lon="-122.424840"></trkpt>
<trkpt lat="37.858240" lon="-122.424670"></trkpt>
<trkpt lat="37.858250" lon="-122.424560"></trkpt>
<trkpt lat="37.858280" lon="-122.424460"></trkpt>
<trkpt lat="37.858330" lon="-122.424380"></trkpt>
<trkpt lat="37.858410" lon="-122.424370"></trkpt>
<trkpt lat="37.858510" lon="-122.424390"></trkpt>
<trkpt lat="37.858600" lon="-122.424470"></trkpt>
<trkpt lat="37.858690" lon="-122.424650"></trkpt>
<trkpt lat="37.858790" lon="-122.425020"></trkpt>
<trkpt lat="37.858880" lon="-122.425260"></trkpt>
<trkpt lat="37.858920" lon="-122.425320"></trkpt>
<trkpt lat="37.859090" lon="-122.425500"></trkpt>
<trkpt lat="37.859220" lon="-122.425710"></trkpt>
<trkpt lat="37.859360" lon="-122.426000"></trkpt>
<trkpt lat="37.859420" lon="-122.426070"></trkpt>
<trkpt lat="37.859500" lon="-122.426130"></trkpt>
<trkpt lat="37.859620" lon="-122.426150"></trkpt>
<trkpt lat="37.859860" lon="-122.426110"></trkpt>
<trkpt lat="37.859970" lon="-122.426120"></trkpt>
<trkpt lat="37.860170" lon="-122.426210"></trkpt>
<trkpt lat="37.860410" lon="-122.426370"></trkpt>
<trkpt lat="37.860690" lon="-122.426600"></trkpt>
<trkpt lat="37.861050" lon="-122.427030"></trkpt>
<trkpt lat="37.861210" lon="-122.427260"></trkpt>
<trkpt lat="37.861260" lon="-122.427390"></trkpt>
<trkpt lat="37.861270" lon="-122.427490"></trkpt>
<trkpt lat="37.861250" lon="-122.427630"></trkpt>
<trkpt lat="37.861140" lon="-122.428050"></trkpt>
<trkpt lat="37.861140" lon="-122.428350"></trkpt>
<trkpt lat="37.861190" lon="-122.428490"></trkpt>
<trkpt lat="37.861250" lon="-122.428530"></trkpt>
<trkpt lat="37.861360" lon="-122.428500"></trkpt>
<trkpt lat="37.861640" lon="-122.428360"></trkpt>
<trkpt lat="37.862170" lon="-122.428120"></trkpt>
<trkpt lat="37.862500" lon="-122.428180"></trkpt>
<trkpt lat="37.862670" lon="-122.428220"></trkpt>
<trkpt lat="37.862700" lon="-122.428260"></trkpt>
<trkpt lat="37.862700" lon="-122.428320"></trkpt>
<trkpt lat="37.862660" lon="-122.428470"></trkpt>
<trkpt lat="37.862610" lon="-122.428830"></trkpt>
<trkpt lat="37.862610" lon="-122.428990"></trkpt>
<trkpt lat="37.862590" lon="-122.429070"></trkpt>
<trkpt lat="37.862400" lon="-122.429420"></trkpt>
<trkpt lat="37.862220" lon="-122.429670"></trkpt>
<trkpt lat="37.862200" lon="-122.429760"></trkpt>
<trkpt lat="37.862190" lon="-122.430130"></trkpt>
<trkpt lat="37.862180" lon="-122.430170"></trkpt>
<trkpt lat="37.862160" lon="-122.430180"></trkpt>
<trkpt lat="37.862150" lon="-122.430170"></trkpt>
<trkpt lat="37.862070" lon="-122.429810"></trkpt>
<trkpt lat="37.862000" lon="-122.429610"></trkpt>
<trkpt lat="37.862010" lon="-122.429500"></trkpt>
<trkpt lat="37.862050" lon="-122.429290"></trkpt>
<trkpt lat="37.862030" lon="-122.429200"></trkpt>
<trkpt lat="37.861980" lon="-122.429100"></trkpt>
<trkpt lat="37.861910" lon="-122.429090"></trkpt>
<trkpt lat="37.861840" lon="-122.429120"></trkpt>
<trkpt lat="37.861740" lon="-122.429290"></trkpt>
<trkpt lat="37.861690" lon="-122.429480"></trkpt>
<trkpt lat="37.861690" lon="-122.429560"></trkpt>
<trkpt lat="37.861780" lon="-122.429880"></trkpt>
<trkpt lat="37.861790" lon="-122.430160"></trkpt>
<trkpt lat="37.861760" lon="-122.430250"></trkpt>
<trkpt lat="37.861690" lon="-122.430510"></trkpt>
<trkpt lat="37.861600" lon="-122.430670"></trkpt>
<trkpt lat="37.861600" lon="-122.430670"></trkpt>
<trkpt lat="37.861560" lon="-122.430790"></trkpt>
<trkpt lat="37.861550" lon="-122.431000"></trkpt>
<trkpt lat="37.861530" lon="-122.431130"></trkpt>
<trkpt lat="37.861510" lon="-122.431180"></trkpt>
<trkpt lat="37.861520" lon="-122.431230"></trkpt>
<trkpt lat="37.861540" lon="-122.431260"></trkpt>
<trkpt lat="37.861540" lon="-122.431340"></trkpt>
<trkpt lat="37.861540" lon="-122.431360"></trkpt>
<trkpt lat="37.861570" lon="-122.431390"></trkpt>
<trkpt lat="37.861570" lon="-122.431460"></trkpt>
<trkpt lat="37.861570" lon="-122.431590"></trkpt>
<trkpt lat="37.861580" lon="-122.431640"></trkpt>
<trkpt lat="37.861570" lon="-122.431830"></trkpt>
<trkpt lat="37.861570" lon="-122.431940"></trkpt>
<trkpt lat="37.861580" lon="-122.432070"></trkpt>
<trkpt lat="37.861510" lon="-122.432360"></trkpt>
<trkpt lat="37.861510" lon="-122.432590"></trkpt>
<trkpt lat="37.861560" lon="-122.433120"></trkpt>
<trkpt lat="37.861570" lon="-122.433300"></trkpt>
<trkpt lat="37.861520" lon="-122.433690"></trkpt>
<trkpt lat="37.861530" lon="-122.433970"></trkpt>
<trkpt lat="37.861510" lon="-122.434120"></trkpt>
<trkpt lat="37.861490" lon="-122.434190"></trkpt>
<trkpt lat="37.861440" lon="-122.434280"></trkpt>
<trkpt lat="37.861350" lon="-122.434390"></trkpt>
<trkpt lat="37.861230" lon="-122.434590"></trkpt>
<trkpt lat="37.861090" lon="-122.434730"></trkpt>
<trkpt lat="37.861050" lon="-122.434780"></trkpt>
<trkpt lat="37.860990" lon="-122.434820"></trkpt>
<trkpt lat="37.860960" lon="-122.434850"></trkpt>
<trkpt lat="37.860850" lon="-122.435090"></trkpt>
<trkpt lat="37.860790" lon="-122.435500"></trkpt>
<trkpt lat="37.860720" lon="-122.435690"></trkpt>
<trkpt lat="37.860680" lon="-122.435730"></trkpt>
<trkpt lat="37.860630" lon="-122.435820"></trkpt>
<trkpt lat="37.860460" lon="-122.435940"></trkpt>
<trkpt lat="37.860280" lon="-122.436020"></trkpt>
<trkpt lat="37.860070" lon="-122.436150"></trkpt>
<trkpt lat="37.859990" lon="-122.436240"></trkpt>
<trkpt lat="37.859910" lon="-122.436290"></trkpt>
<trkpt lat="37.859730" lon="-122.436400"></trkpt>
<trkpt lat="37.859620" lon="-122.436460"></trkpt>
<trkpt lat="37.859030" lon="-122.437060"></trkpt>
<trkpt lat="37.858750" lon="-122.437270"></trkpt>
<trkpt lat="37.858650" lon="-122.437440"></trkpt>
<trkpt lat="37.858620" lon="-122.437560"></trkpt>
<trkpt lat="37.858460" lon="-122.437770"></trkpt>
<trkpt lat="37.858370" lon="-122.437880"></trkpt>
<trkpt lat="37.858290" lon="-122.438210"></trkpt>
<trkpt lat="37.858300" lon="-122.438460"></trkpt>
<trkpt lat="37.858290" lon="-122.438540"></trkpt>
<trkpt lat="37.858230" lon="-122.438600"></trkpt>
<trkpt lat="37.858150" lon="-122.438600"></trkpt>
<trkpt lat="37.858120" lon="-122.438670"></trkpt>
<trkpt lat="37.858090" lon="-122.438890"></trkpt>
<trkpt lat="37.858050" lon="-122.439000"></trkpt>
<trkpt lat="37.857800" lon="-122.439270"></trkpt>
<trkpt lat="37.857720" lon="-122.439390"></trkpt>
<trkpt lat="37.857690" lon="-122.439610"></trkpt>
<trkpt lat="37.857590" lon="-122.440030"></trkpt>
<trkpt lat="37.857520" lon="-122.440100"></trkpt>
<trkpt lat="37.857410" lon="-122.440070"></trkpt>
<trkpt lat="37.857330" lon="-122.439900"></trkpt>
<trkpt lat="37.857250" lon="-122.439650"></trkpt>
<trkpt lat="37.857210" lon="-122.439380"></trkpt>
<trkpt lat="37.857150" lon="-122.439000"></trkpt>
<trkpt lat="37.857110" lon="-122.438830"></trkpt>
<trkpt lat="37.857030" lon="-122.438630"></trkpt>
<trkpt lat="37.856970" lon="-122.439170"></trkpt>
<trkpt lat="37.856840" lon="-122.439820"></trkpt>
<trkpt lat="37.856730" lon="-122.440250"></trkpt>
<trkpt lat="37.856670" lon="-122.440590"></trkpt>
<trkpt lat="37.856660" lon="-122.440800"></trkpt>
<trkpt lat="37.856660" lon="-122.440800"></trkpt>
<trkpt lat="37.856720" lon="-122.441030"></trkpt>
<trkpt lat="37.856790" lon="-122.441140"></trkpt>
<trkpt lat="37.856860" lon="-122.441210"></trkpt>
<trkpt lat="37.857100" lon="-122.441370"></trkpt>
<trkpt lat="37.857200" lon="-122.441410"></trkpt>
<trkpt lat="37.857440" lon="-122.441440"></trkpt>
<trkpt lat="37.857620" lon="-122.441430"></trkpt>
<trkpt lat="37.857690" lon="-122.441460"></trkpt>
<trkpt lat="37.857750" lon="-122.441480"></trkpt>
<trkpt lat="37.857960" lon="-122.441460"></trkpt>
<trkpt lat="37.858080" lon="-122.441390"></trkpt>
<trkpt lat="37.858190" lon="-122.441270"></trkpt>
<trkpt lat="37.858380" lon="-122.441020"></trkpt>
<trkpt lat="37.858500" lon="-122.440910"></trkpt>
<trkpt lat="37.858890" lon="-122.440620"></trkpt>
<trkpt lat="37.859050" lon="-122.440500"></trkpt>
<trkpt lat="37.859250" lon="-122.440320"></trkpt>
<trkpt lat="37.859500" lon="-122.440050"></trkpt>
<trkpt lat="37.859720" lon="-122.440090"></trkpt>
<trkpt lat="37.859990" lon="-122.440220"></trkpt>
<trkpt lat="37.860080" lon="-122.440330"></trkpt>
<trkpt lat="37.860170" lon="-122.440500"></trkpt>
<trkpt lat="37.860260" lon="-122.440430"></trkpt>
<trkpt lat="37.860270" lon="-122.440430"></trkpt>
<trkpt lat="37.860290" lon="-122.440490"></trkpt>
<trkpt lat="37.860320" lon="-122.440850"></trkpt>
<trkpt lat="37.860350" lon="-122.441040"></trkpt>
<trkpt lat="37.860350" lon="-122.441250"></trkpt>
<trkpt lat="37.860350" lon="-122.441680"></trkpt>
<trkpt lat="37.860390" lon="-122.442040"></trkpt>
<trkpt lat="37.860420" lon="-122.442380"></trkpt>
<trkpt lat="37.860400" lon="-122.442770"></trkpt>
<trkpt lat="37.860460" lon="-122.443110"></trkpt>
<trkpt lat="37.860550" lon="-122.443360"></trkpt>
<trkpt lat="37.860740" lon="-122.443880"></trkpt>
<trkpt lat="37.860770" lon="-122.444020"></trkpt>
<trkpt lat="37.860770" lon="-122.444300"></trkpt>
<trkpt lat="37.860760" lon="-122.444450"></trkpt>
<trkpt lat="37.860780" lon="-122.444690"></trkpt>
<trkpt lat="37.860880" lon="-122.445050"></trkpt>
<trkpt lat="37.860920" lon="-122.445340"></trkpt>
<trkpt lat="37.861000" lon="-122.445530"></trkpt>
<trkpt lat="37.861010" lon="-122.445720"></trkpt>
<trkpt lat="37.861010" lon="-122.445720"></trkpt>
<trkpt lat="37.861000" lon="-122.445530"></trkpt>
<trkpt lat="37.861020" lon="-122.445480"></trkpt>
<trkpt lat="37.861050" lon="-122.445380"></trkpt>
<trkpt lat="37.861090" lon="-122.445170"></trkpt>
<trkpt lat="37.861100" lon="-122.444980"></trkpt>
<trkpt lat="37.861040" lon="-122.444410"></trkpt>
<trkpt lat="37.861120" lon="-122.443860"></trkpt>
<trkpt lat="37.861190" lon="-122.443580"></trkpt>
<trkpt lat="37.861200" lon="-122.443460"></trkpt>
<trkpt lat="37.861170" lon="-122.443310"></trkpt>
<trkpt lat="37.861110" lon="-122.443200"></trkpt>
<trkpt lat="37.861060" lon="-122.442920"></trkpt>
<trkpt lat="37.861130" lon="-122.442540"></trkpt>
<trkpt lat="37.861150" lon="-122.442160"></trkpt>
<trkpt lat="37.861160" lon="-122.441750"></trkpt>
<trkpt lat="37.861120" lon="-122.441290"></trkpt>
<trkpt lat="37.861140" lon="-122.440970"></trkpt>
<trkpt lat="37.861200" lon="-122.440770"></trkpt>
<trkpt lat="37.861160" lon="-122.440680"></trkpt>
<trkpt lat="37.861160" lon="-122.440600"></trkpt>
<trkpt lat="37.861250" lon="-122.440360"></trkpt>
<trkpt lat="37.861410" lon="-122.440080"></trkpt>
<trkpt lat="37.861640" lon="-122.439860"></trkpt>
<trkpt lat="37.861710" lon="-122.439840"></trkpt>
<trkpt lat="37.861830" lon="-122.439800"></trkpt>
<trkpt lat="37.862150" lon="-122.439590"></trkpt>
<trkpt lat="37.862230" lon="-122.439540"></trkpt>
<trkpt lat="37.862420" lon="-122.439500"></trkpt>
<trkpt lat="37.863020" lon="-122.439500"></trkpt>
<trkpt lat="37.863230" lon="-122.439490"></trkpt>
<trkpt lat="37.863560" lon="-122.439430"></trkpt>
<trkpt lat="37.863980" lon="-122.439350"></trkpt>
<trkpt lat="37.864120" lon="-122.439340"></trkpt>
<trkpt lat="37.864490" lon="-122.439350"></trkpt>
<trkpt lat="37.864580" lon="-122.439340"></trkpt>
<trkpt lat="37.864820" lon="-122.439260"></trkpt>
<trkpt lat="37.864970" lon="-122.439230"></trkpt>
<trkpt lat="37.865250" lon="-122.439230"></trkpt>
<trkpt lat="37.865610" lon="-122.439300"></trkpt>
<trkpt lat="37.865810" lon="-122.439290"></trkpt>
<trkpt lat="37.866420" lon="-122.439040"></trkpt>
<trkpt lat="37.866540" lon="-122.438910"></trkpt>
<trkpt lat="37.866580" lon="-122.438760"></trkpt>
<trkpt lat="37.866580" lon="-122.438690"></trkpt>
<trkpt lat="37.866910" lon="-122.438620"></trkpt>
<trkpt lat="37.866960" lon="-122.438590"></trkpt>
<trkpt lat="37.867000" lon="-122.438530"></trkpt>
<trkpt lat="37.867010" lon="-122.438470"></trkpt>
<trkpt lat="37.866980" lon="-122.438360"></trkpt>
<trkpt lat="37.866940" lon="-122.438330"></trkpt>
<trkpt lat="37.866730" lon="-122.438290"></trkpt>
<trkpt lat="37.866610" lon="-122.438150"></trkpt>
<trkpt lat="37.866420" lon="-122.437730"></trkpt>
<trkpt lat="37.866370" lon="-122.437640"></trkpt>
<trkpt lat="37.866310" lon="-122.437600"></trkpt>
<trkpt lat="37.866230" lon="-122.437570"></trkpt>
<trkpt lat="37.865940" lon="-122.437530"></trkpt>
<trkpt lat="37.865840" lon="-122.437460"></trkpt>
<trkpt lat="37.865770" lon="-122.437300"></trkpt>
<trkpt lat="37.865760" lon="-122.437070"></trkpt>
<trkpt lat="37.865790" lon="-122.436440"></trkpt>
<trkpt lat="37.865850" lon="-122.435960"></trkpt>
<trkpt lat="37.865820" lon="-122.435860"></trkpt>
<trkpt lat="37.865570" lon="-122.435350"></trkpt>
<trkpt lat="37.865550" lon="-122.435250"></trkpt>
<trkpt lat="37.865560" lon="-122.435160"></trkpt>
<trkpt lat="37.865590" lon="-122.435060"></trkpt>
<trkpt lat="37.865650" lon="-122.434970"></trkpt>
<trkpt lat="37.865710" lon="-122.434910"></trkpt>
<trkpt lat="37.865790" lon="-122.434910"></trkpt>
<trkpt lat="37.865810" lon="-122.434910"></trkpt>
<trkpt lat="37.865810" lon="-122.434910"></trkpt>
<trkpt lat="37.865870" lon="-122.434910"></trkpt>
<trkpt lat="37.866080" lon="-122.434990"></trkpt>
<trkpt lat="37.866300" lon="-122.434970"></trkpt>
<trkpt lat="37.866820" lon="-122.434810"></trkpt>
<trkpt lat="37.866890" lon="-122.434750"></trkpt>
<trkpt lat="37.866980" lon="-122.434580"></trkpt>
<trkpt lat="37.867080" lon="-122.434450"></trkpt>
<trkpt lat="37.867200" lon="-122.434350"></trkpt>
<trkpt lat="37.867320" lon="-122.434290"></trkpt>
<trkpt lat="37.867420" lon="-122.434260"></trkpt>
<trkpt lat="37.867530" lon="-122.434250"></trkpt>
<trkpt lat="37.867640" lon="-122.434290"></trkpt>
<trkpt lat="37.867810" lon="-122.434410"></trkpt>
<trkpt lat="37.868070" lon="-122.434630"></trkpt>
<trkpt lat="37.868150" lon="-122.434650"></trkpt>
<trkpt lat="37.868480" lon="-122.434600"></trkpt>
<trkpt lat="37.868540" lon="-122.435010"></trkpt>
<trkpt lat="37.868540" lon="-122.435030"></trkpt>
</trkseg></trk>
</gpx>
