<?xml version="1.0" encoding="UTF-8"?>
<gpx version="1.1" creator="greatruns-mapmyrun">
<trk><name>sf_attpark_vista</name><trkseg>
<trkpt lat="37.778090" lon="-122.391610"></trkpt>
<trkpt lat="37.778970" lon="-122.390480"></trkpt>
<trkpt lat="37.779920" lon="-122.389280"></trkpt>
<trkpt lat="37.780390" lon="-122.388730"></trkpt>
<trkpt lat="37.780660" lon="-122.388510"></trkpt>
<trkpt lat="37.780940" lon="-122.388340"></trkpt>
<trkpt lat="37.781250" lon="-122.388220"></trkpt>
<trkpt lat="37.781790" lon="-122.388130"></trkpt>
<trkpt lat="37.782400" lon="-122.388100"></trkpt>
<trkpt lat="37.782950" lon="-122.388060"></trkpt>
<trkpt lat="37.783580" lon="-122.387990"></trkpt>
<trkpt lat="37.784750" lon="-122.387890"></trkpt>
<trkpt lat="37.784740" lon="-122.387810"></trkpt>
<trkpt lat="37.785610" lon="-122.387730"></trkpt>
<trkpt lat="37.787090" lon="-122.387600"></trkpt>
<trkpt lat="37.787460" lon="-122.387580"></trkpt>
<trkpt lat="37.787770" lon="-122.387580"></trkpt>
<trkpt lat="37.788100" lon="-122.387630"></trkpt>
<trkpt lat="37.789010" lon="-122.387860"></trkpt>
<trkpt lat="37.789170" lon="-122.387930"></trkpt>
<trkpt lat="37.789170" lon="-122.387930"></trkpt>
<trkpt lat="37.789340" lon="-122.388020"></trkpt>
<trkpt lat="37.789500" lon="-122.388130"></trkpt>
<trkpt lat="37.789710" lon="-122.388360"></trkpt>
<trkpt lat="37.789830" lon="-122.388440"></trkpt>
<trkpt lat="37.790560" lon="-122.388840"></trkpt>
<trkpt lat="37.791100" lon="-122.389130"></trkpt>
<trkpt lat="37.791220" lon="-122.389210"></trkpt>
<trkpt lat="37.791320" lon="-122.389300"></trkpt>
<trkpt lat="37.792150" lon="-122.390290"></trkpt>
<trkpt lat="37.793640" lon="-122.392070"></trkpt>
<trkpt lat="37.794520" lon="-122.392960"></trkpt>
<trkpt lat="37.795410" lon="-122.393830"></trkpt>
<trkpt lat="37.795410" lon="-122.393830"></trkpt>
<trkpt lat="37.796530" lon="-122.394880"></trkpt>
<trkpt lat="37.796600" lon="-122.394960"></trkpt>
<trkpt lat="37.797010" lon="-122.395330"></trkpt>
<trkpt lat="37.798660" lon="-122.396840"></trkpt>
<trkpt lat="37.800460" lon="-122.398440"></trkpt>
<trkpt lat="37.801030" lon="-122.398940"></trkpt>
<trkpt lat="37.801030" lon="-122.398940"></trkpt>
<trkpt lat="37.803120" lon="-122.400820"></trkpt>
<trkpt lat="37.804260" lon="-122.401880"></trkpt>
<trkpt lat="37.804500" lon="-122.402160"></trkpt>
<trkpt lat="37.804990" lon="-122.402800"></trkpt>
<trkpt lat="37.806090" lon="-122.404320"></trkpt>
<trkpt lat="37.806390" lon="-122.404770"></trkpt>
<trkpt lat="37.806450" lon="-122.404720"></trkpt>
<trkpt lat="37.806450" lon="-122.404720"></trkpt>
<trkpt lat="37.806390" lon="-122.404770"></trkpt>
<trkpt lat="37.806960" lon="-122.405900"></trkpt>
<trkpt lat="37.807380" lon="-122.406740"></trkpt>
<trkpt lat="37.807650" lon="-122.407570"></trkpt>
<trkpt lat="37.807810" lon="-122.407940"></trkpt>
<trkpt lat="37.808220" lon="-122.408960"></trkpt>
<trkpt lat="37.808220" lon="-122.409000"></trkpt>
<trkpt lat="37.808220" lon="-122.409020"></trkpt>
<trkpt lat="37.808260" lon="-122.409090"></trkpt>
<trkpt lat="37.808340" lon="-122.409140"></trkpt>
<trkpt lat="37.808400" lon="-122.409140"></trkpt>
<trkpt lat="37.808460" lon="-122.409640"></trkpt>
<trkpt lat="37.808560" lon="-122.410540"></trkpt>
<trkpt lat="37.808640" lon="-122.410750"></trkpt>
<trkpt lat="37.808780" lon="-122.411540"></trkpt>
<trkpt lat="37.808910" lon="-122.411510"></trkpt>
<trkpt lat="37.808910" lon="-122.411510"></trkpt>
<trkpt lat="37.808780" lon="-122.411540"></trkpt>
<trkpt lat="37.808880" lon="-122.412280"></trkpt>
<trkpt lat="37.808730" lon="-122.412400"></trkpt>
<trkpt lat="37.808660" lon="-122.412420"></trkpt>
<trkpt lat="37.808590" lon="-122.412420"></trkpt>
<trkpt lat="37.808620" lon="-122.412660"></trkpt>
<trkpt lat="37.808620" lon="-122.412820"></trkpt>
<trkpt lat="37.808260" lon="-122.415690"></trkpt>
<trkpt lat="37.808030" lon="-122.417450"></trkpt>
<trkpt lat="37.807720" lon="-122.419890"></trkpt>
<trkpt lat="37.807650" lon="-122.420410"></trkpt>
<trkpt lat="37.807610" lon="-122.420770"></trkpt>
<trkpt lat="37.807680" lon="-122.420780"></trkpt>
<trkpt lat="37.807680" lon="-122.420780"></trkpt>
<trkpt lat="37.807610" lon="-122.420770"></trkpt>
<trkpt lat="37.807570" lon="-122.421210"></trkpt>
<trkpt lat="37.807490" lon="-122.422020"></trkpt>
<trkpt lat="37.807330" lon="-122.422370"></trkpt>
<trkpt lat="37.806710" lon="-122.423550"></trkpt>
<trkpt lat="37.806640" lon="-122.423750"></trkpt>
<trkpt lat="37.806580" lon="-122.424050"></trkpt>
<trkpt lat="37.806570" lon="-122.424290"></trkpt>
<trkpt lat="37.806580" lon="-122.424490"></trkpt>
<trkpt lat="37.806650" lon="-122.424870"></trkpt>
<trkpt lat="37.806880" lon="-122.425750"></trkpt>
<trkpt lat="37.806890" lon="-122.425940"></trkpt>
<trkpt lat="37.806880" lon="-122.425980"></trkpt>
<trkpt lat="37.806970" lon="-122.426060"></trkpt>
<trkpt lat="37.807250" lon="-122.426320"></trkpt>
<trkpt lat="37.807520" lon="-122.426460"></trkpt>
<trkpt lat="37.807710" lon="-122.426530"></trkpt>
<trkpt lat="37.808100" lon="-122.426620"></trkpt>
<trkpt lat="37.808080" lon="-122.426880"></trkpt>
<trkpt lat="37.808130" lon="-122.428140"></trkpt>
<trkpt lat="37.808110" lon="-122.428280"></trkpt>
<trkpt lat="37.808060" lon="-122.428380"></trkpt>
<trkpt lat="37.807600" lon="-122.428980"></trkpt>
<trkpt lat="37.807330" lon="-122.429290"></trkpt>
<trkpt lat="37.807180" lon="-122.429400"></trkpt>
<trkpt lat="37.806510" lon="-122.429700"></trkpt>
<trkpt lat="37.806410" lon="-122.429820"></trkpt>
<trkpt lat="37.806590" lon="-122.430180"></trkpt>
<trkpt lat="37.806500" lon="-122.430270"></trkpt>
<trkpt lat="37.806080" lon="-122.431070"></trkpt>
<trkpt lat="37.805830" lon="-122.431520"></trkpt>
<trkpt lat="37.805490" lon="-122.431490"></trkpt>
<trkpt lat="37.805460" lon="-122.431520"></trkpt>
<trkpt lat="37.805380" lon="-122.431830"></trkpt>
<trkpt lat="37.805380" lon="-122.431830"></trkpt>
<trkpt lat="37.805380" lon="-122.431860"></trkpt>
<trkpt lat="37.805460" lon="-122.431880"></trkpt>
<trkpt lat="37.805580" lon="-122.431910"></trkpt>
<trkpt lat="37.805630" lon="-122.431900"></trkpt>
<trkpt lat="37.805730" lon="-122.431840"></trkpt>
<trkpt lat="37.805880" lon="-122.431880"></trkpt>
<trkpt lat="37.805900" lon="-122.431930"></trkpt>
<trkpt lat="37.805890" lon="-122.432070"></trkpt>
<trkpt lat="37.805900" lon="-122.432120"></trkpt>
<trkpt lat="37.805870" lon="-122.432400"></trkpt>
<trkpt lat="37.805830" lon="-122.432480"></trkpt>
<trkpt lat="37.805680" lon="-122.432610"></trkpt>
<trkpt lat="37.805580" lon="-122.433150"></trkpt>
<trkpt lat="37.805580" lon="-122.433150"></trkpt>
<trkpt lat="37.805500" lon="-122.433710"></trkpt>
<trkpt lat="37.805550" lon="-122.433840"></trkpt>
<trkpt lat="37.805640" lon="-122.433920"></trkpt>
<trkpt lat="37.805800" lon="-122.433960"></trkpt>
<trkpt lat="37.806890" lon="-122.434200"></trkpt>
<trkpt lat="37.806940" lon="-122.434250"></trkpt>
<trkpt lat="37.806940" lon="-122.434330"></trkpt>
<trkpt lat="37.806890" lon="-122.434810"></trkpt>
<trkpt lat="37.806810" lon="-122.435450"></trkpt>
<trkpt lat="37.806810" lon="-122.435690"></trkpt>
<trkpt lat="37.807150" lon="-122.435760"></trkpt>
<trkpt lat="37.807270" lon="-122.435790"></trkpt>
<trkpt lat="37.807270" lon="-122.435790"></trkpt>
<trkpt lat="37.807510" lon="-122.435840"></trkpt>
<trkpt lat="37.807520" lon="-122.435970"></trkpt>
<trkpt lat="37.807300" lon="-122.437680"></trkpt>
<trkpt lat="37.807290" lon="-122.437720"></trkpt>
<trkpt lat="37.807220" lon="-122.437710"></trkpt>
<trkpt lat="37.807190" lon="-122.437950"></trkpt>
<trkpt lat="37.807260" lon="-122.437970"></trkpt>
<trkpt lat="37.807200" lon="-122.438480"></trkpt>
<trkpt lat="37.806700" lon="-122.442430"></trkpt>
<trkpt lat="37.806700" lon="-122.442430"></trkpt>
<trkpt lat="37.806680" lon="-122.442510"></trkpt>
<trkpt lat="37.806600" lon="-122.442510"></trkpt>
<trkpt lat="37.805950" lon="-122.442380"></trkpt>
<trkpt lat="37.805950" lon="-122.442380"></trkpt>
<trkpt lat="37.805890" lon="-122.442370"></trkpt>
<trkpt lat="37.805680" lon="-122.444020"></trkpt>
<trkpt lat="37.805400" lon="-122.446240"></trkpt>
<trkpt lat="37.805270" lon="-122.447370"></trkpt>
<trkpt lat="37.805310" lon="-122.447380"></trkpt>
<trkpt lat="37.805310" lon="-122.447380"></trkpt>
<trkpt lat="37.805970" lon="-122.447510"></trkpt>
<trkpt lat="37.806370" lon="-122.448110"></trkpt>
<trkpt lat="37.806450" lon="-122.448250"></trkpt>
<trkpt lat="37.806460" lon="-122.448270"></trkpt>
<trkpt lat="37.806470" lon="-122.448280"></trkpt>
<trkpt lat="37.806560" lon="-122.448290"></trkpt>
<trkpt lat="37.806520" lon="-122.448780"></trkpt>
<trkpt lat="37.806440" lon="-122.449200"></trkpt>
<trkpt lat="37.806320" lon="-122.449510"></trkpt>
<trkpt lat="37.806330" lon="-122.449510"></trkpt>
<trkpt lat="37.806160" lon="-122.450720"></trkpt>
<trkpt lat="37.806000" lon="-122.451990"></trkpt>
<trkpt lat="37.805940" lon="-122.452480"></trkpt>
<trkpt lat="37.805870" lon="-122.452790"></trkpt>
<trkpt lat="37.805800" lon="-122.453050"></trkpt>
<trkpt lat="37.805760" lon="-122.453190"></trkpt>
<trkpt lat="37.805600" lon="-122.453780"></trkpt>
<trkpt lat="37.804830" lon="-122.459840"></trkpt>
<trkpt lat="37.804680" lon="-122.461030"></trkpt>
<trkpt lat="37.804710" lon="-122.461360"></trkpt>
<trkpt lat="37.804600" lon="-122.463530"></trkpt>
<trkpt lat="37.804580" lon="-122.464310"></trkpt>
<trkpt lat="37.804620" lon="-122.464980"></trkpt>
<trkpt lat="37.804710" lon="-122.465600"></trkpt>
<trkpt lat="37.804900" lon="-122.466520"></trkpt>
<trkpt lat="37.804960" lon="-122.466750"></trkpt>
<trkpt lat="37.805090" lon="-122.466990"></trkpt>
<trkpt lat="37.805360" lon="-122.467430"></trkpt>
<trkpt lat="37.805360" lon="-122.467430"></trkpt>
<trkpt lat="37.805760" lon="-122.468050"></trkpt>
<trkpt lat="37.805980" lon="-122.468330"></trkpt>
<trkpt lat="37.806160" lon="-122.468540"></trkpt>
<trkpt lat="37.806300" lon="-122.468740"></trkpt>
<trkpt lat="37.806400" lon="-122.468760"></trkpt>
<trkpt lat="37.806910" lon="-122.469010"></trkpt>
<trkpt lat="37.807350" lon="-122.469290"></trkpt>
<trkpt lat="37.807700" lon="-122.469560"></trkpt>
<trkpt lat="37.807850" lon="-122.469750"></trkpt>
<trkpt lat="37.808320" lon="-122.470410"></trkpt>
<trkpt lat="37.808490" lon="-122.470660"></trkpt>
<trkpt lat="37.808720" lon="-122.471290"></trkpt>
<trkpt lat="37.808750" lon="-122.471410"></trkpt>
<trkpt lat="37.808820" lon="-122.472170"></trkpt>
<trkpt lat="37.808960" lon="-122.472960"></trkpt>
<trkpt lat="37.809000" lon="-122.473490"></trkpt>
<trkpt lat="37.809010" lon="-122.474240"></trkpt>
<trkpt lat="37.809070" lon="-122.474810"></trkpt>
<trkpt lat="37.809130" lon="-122.475060"></trkpt>
<trkpt lat="37.809270" lon="-122.475620"></trkpt>
<trkpt lat="37.809340" lon="-122.475820"></trkpt>
<trkpt lat="37.809470" lon="-122.476080"></trkpt>
<trkpt lat="37.809540" lon="-122.476140"></trkpt>
<trkpt lat="37.810070" lon="-122.476420"></trkpt>
<trkpt lat="37.810210" lon="-122.476420"></trkpt>
<trkpt lat="37.810430" lon="-122.476490"></trkpt>
<trkpt lat="37.810480" lon="-122.476530"></trkpt>
<trkpt lat="37.810490" lon="-122.476580"></trkpt>
<trkpt lat="37.810470" lon="-122.476630"></trkpt>
<trkpt lat="37.810470" lon="-122.476630"></trkpt>
<trkpt lat="37.810390" lon="-122.476770"></trkpt>
<trkpt lat="37.810390" lon="-122.476770"></trkpt>
<trkpt lat="37.810180" lon="-122.476560"></trkpt>
<trkpt lat="37.810140" lon="-122.476500"></trkpt>
<trkpt lat="37.810140" lon="-122.476500"></trkpt>
<trkpt lat="37.810070" lon="-122.476420"></trkpt>
<trkpt lat="37.809570" lon="-122.476160"></trkpt>
<trkpt lat="37.809510" lon="-122.476120"></trkpt>
<trkpt lat="37.809380" lon="-122.475910"></trkpt>
<trkpt lat="37.809250" lon="-122.475540"></trkpt>
<trkpt lat="37.809060" lon="-122.474740"></trkpt>
<trkpt lat="37.809000" lon="-122.474140"></trkpt>
<trkpt lat="37.809000" lon="-122.473530"></trkpt>
<trkpt lat="37.808980" lon="-122.473150"></trkpt>
<trkpt lat="37.808880" lon="-122.472460"></trkpt>
<trkpt lat="37.808770" lon="-122.472030"></trkpt>
<trkpt lat="37.808620" lon="-122.471670"></trkpt>
<trkpt lat="37.808580" lon="-122.471720"></trkpt>
<trkpt lat="37.808570" lon="-122.471770"></trkpt>
<trkpt lat="37.808520" lon="-122.471800"></trkpt>
<trkpt lat="37.808520" lon="-122.471800"></trkpt>
<trkpt lat="37.808390" lon="-122.471810"></trkpt>
<trkpt lat="37.808350" lon="-122.471840"></trkpt>
<trkpt lat="37.808310" lon="-122.471910"></trkpt>
<trkpt lat="37.808250" lon="-122.472020"></trkpt>
<trkpt lat="37.808180" lon="-122.472220"></trkpt>
<trkpt lat="37.808170" lon="-122.472290"></trkpt>
<trkpt lat="37.808180" lon="-122.472390"></trkpt>
<trkpt lat="37.808220" lon="-122.472460"></trkpt>
<trkpt lat="37.808210" lon="-122.472500"></trkpt>
<trkpt lat="37.808370" lon="-122.472550"></trkpt>
<trkpt lat="37.808380" lon="-122.472570"></trkpt>
<trkpt lat="37.808390" lon="-122.472610"></trkpt>
<trkpt lat="37.808370" lon="-122.472630"></trkpt>
<trkpt lat="37.808260" lon="-122.472690"></trkpt>
<trkpt lat="37.808250" lon="-122.472730"></trkpt>
<trkpt lat="37.808270" lon="-122.472780"></trkpt>
<trkpt lat="37.808380" lon="-122.472930"></trkpt>
<trkpt lat="37.808460" lon="-122.473020"></trkpt>
<trkpt lat="37.808450" lon="-122.473120"></trkpt>
<trkpt lat="37.808420" lon="-122.473160"></trkpt>
<trkpt lat="37.808370" lon="-122.473170"></trkpt>
<trkpt lat="37.808260" lon="-122.473130"></trkpt>
<trkpt lat="37.808050" lon="-122.472830"></trkpt>
<trkpt lat="37.807980" lon="-122.472810"></trkpt>
<trkpt lat="37.807950" lon="-122.472830"></trkpt>
<trkpt lat="37.807920" lon="-122.472880"></trkpt>
<trkpt lat="37.807920" lon="-122.472940"></trkpt>
<trkpt lat="37.807910" lon="-122.472950"></trkpt>
<trkpt lat="37.807880" lon="-122.472980"></trkpt>
<trkpt lat="37.807880" lon="-122.473010"></trkpt>
<trkpt lat="37.807930" lon="-122.473200"></trkpt>
<trkpt lat="37.807970" lon="-122.473270"></trkpt>
<trkpt lat="37.808240" lon="-122.474190"></trkpt>
<trkpt lat="37.808240" lon="-122.474200"></trkpt>
<trkpt lat="37.808080" lon="-122.474260"></trkpt>
<trkpt lat="37.808080" lon="-122.474260"></trkpt>
<trkpt lat="37.808040" lon="-122.474270"></trkpt>
<trkpt lat="37.808110" lon="-122.474490"></trkpt>
<trkpt lat="37.808180" lon="-122.474700"></trkpt>
<trkpt lat="37.808200" lon="-122.474760"></trkpt>
<trkpt lat="37.808220" lon="-122.475090"></trkpt>
<trkpt lat="37.808280" lon="-122.475240"></trkpt>
<trkpt lat="37.808360" lon="-122.475290"></trkpt>
<trkpt lat="37.808490" lon="-122.475350"></trkpt>
<trkpt lat="37.808590" lon="-122.475430"></trkpt>
<trkpt lat="37.808650" lon="-122.475610"></trkpt>
<trkpt lat="37.808660" lon="-122.475670"></trkpt>
<trkpt lat="37.808640" lon="-122.475830"></trkpt>
<trkpt lat="37.808550" lon="-122.476050"></trkpt>
<trkpt lat="37.808320" lon="-122.476430"></trkpt>
<trkpt lat="37.808320" lon="-122.476430"></trkpt>
<trkpt lat="37.808400" lon="-122.476290"></trkpt>
<trkpt lat="37.808390" lon="-122.476270"></trkpt>
<trkpt lat="37.808380" lon="-122.476190"></trkpt>
<trkpt lat="37.808470" lon="-122.475960"></trkpt>
<trkpt lat="37.808450" lon="-122.475890"></trkpt>
<trkpt lat="37.808420" lon="-122.475870"></trkpt>
<trkpt lat="37.808380" lon="-122.475870"></trkpt>
<trkpt lat="37.808340" lon="-122.475890"></trkpt>
<trkpt lat="37.808270" lon="-122.476090"></trkpt>
<trkpt lat="37.808170" lon="-122.476250"></trkpt>
<trkpt lat="37.808130" lon="-122.476290"></trkpt>
<trkpt lat="37.808220" lon="-122.476370"></trkpt>
<trkpt lat="37.808390" lon="-122.476530"></trkpt>
<trkpt lat="37.808800" lon="-122.476830"></trkpt>
<trkpt lat="37.808990" lon="-122.476930"></trkpt>
<trkpt lat="37.809160" lon="-122.477000"></trkpt>
<trkpt lat="37.809340" lon="-122.477040"></trkpt>
<trkpt lat="37.810070" lon="-122.477140"></trkpt>
<trkpt lat="37.822350" lon="-122.478610"></trkpt>
<trkpt lat="37.822350" lon="-122.478610"></trkpt>
<trkpt lat="37.826290" lon="-122.479070"></trkpt>
<trkpt lat="37.826290" lon="-122.479070"></trkpt>
<trkpt lat="37.826124" lon="-122.478633"></trkpt>
<trkpt lat="37.826130" lon="-122.478710"></trkpt>
<trkpt lat="37.826380" lon="-122.478670"></trkpt>
<trkpt lat="37.826540" lon="-122.478720"></trkpt>
<trkpt lat="37.826750" lon="-122.478890"></trkpt>
<trkpt lat="37.826910" lon="-122.478950"></trkpt>
<trkpt lat="37.827180" lon="-122.478920"></trkpt>
<trkpt lat="37.827350" lon="-122.478940"></trkpt>
<trkpt lat="37.827490" lon="-122.478920"></trkpt>
<trkpt lat="37.827690" lon="-122.478950"></trkpt>
<trkpt lat="37.828050" lon="-122.479040"></trkpt>
<trkpt lat="37.828240" lon="-122.479020"></trkpt>
<trkpt lat="37.828450" lon="-122.478940"></trkpt>
<trkpt lat="37.828660" lon="-122.478890"></trkpt>
<trkpt lat="37.828810" lon="-122.478890"></trkpt>
<trkpt lat="37.829210" lon="-122.478950"></trkpt>
<trkpt lat="37.829460" lon="-122.479050"></trkpt>
<trkpt lat="37.829760" lon="-122.479180"></trkpt>
<trkpt lat="37.830070" lon="-122.479260"></trkpt>
<trkpt lat="37.830450" lon="-122.479220"></trkpt>
<trkpt lat="37.830580" lon="-122.479150"></trkpt>
<trkpt lat="37.831130" lon="-122.478690"></trkpt>
<trkpt lat="37.831320" lon="-122.478550"></trkpt>
<trkpt lat="37.831460" lon="-122.478490"></trkpt>
<trkpt lat="37.831730" lon="-122.478020"></trkpt>
<trkpt lat="37.831840" lon="-122.477900"></trkpt>
<trkpt lat="37.831910" lon="-122.477870"></trkpt>
</trkseg></trk>
</gpx>
