<?xml version='1.0' encoding='utf-8'?>
<gpx version="1.1" creator="RunCast" xmlns="http://www.topografix.com/GPX/1/1"><trk><name>sf_batteries_to_bluffs</name><trkseg><trkpt lat="37.801241" lon="-122.468874" /><trkpt lat="37.801237" lon="-122.468952" /><trkpt lat="37.801233" lon="-122.469053" /><trkpt lat="37.801211" lon="-122.469109" /><trkpt lat="37.801088" lon="-122.469187" /><trkpt lat="37.800965" lon="-122.469264" /><trkpt lat="37.800949" lon="-122.469489" /><trkpt lat="37.800933" lon="-122.469714" /><trkpt lat="37.800818" lon="-122.469866" /><trkpt lat="37.800703" lon="-122.470019" /><trkpt lat="37.800588" lon="-122.470171" /><trkpt lat="37.800473" lon="-122.470324" /><trkpt lat="37.800358" lon="-122.470476" /><trkpt lat="37.800319" lon="-122.470659" /><trkpt lat="37.800283" lon="-122.470795" /><trkpt lat="37.800247" lon="-122.470931" /><trkpt lat="37.800216" lon="-122.471048" /><trkpt lat="37.800184" lon="-122.471166" /><trkpt lat="37.800110" lon="-122.471288" /><trkpt lat="37.800035" lon="-122.471410" /><trkpt lat="37.799948" lon="-122.471538" /><trkpt lat="37.799861" lon="-122.471666" /><trkpt lat="37.799788" lon="-122.471789" /><trkpt lat="37.799715" lon="-122.471913" /><trkpt lat="37.799644" lon="-122.472043" /><trkpt lat="37.799574" lon="-122.472172" /><trkpt lat="37.799475" lon="-122.472174" /><trkpt lat="37.799413" lon="-122.472268" /><trkpt lat="37.799350" lon="-122.472362" /><trkpt lat="37.799247" lon="-122.472518" /><trkpt lat="37.799143" lon="-122.472675" /><trkpt lat="37.799040" lon="-122.472831" /><trkpt lat="37.799012" lon="-122.472887" /><trkpt lat="37.798954" lon="-122.472842" /><trkpt lat="37.798877" lon="-122.472781" /><trkpt lat="37.798800" lon="-122.472720" /><trkpt lat="37.798753" lon="-122.472675" /><trkpt lat="37.798760" lon="-122.472878" /><trkpt lat="37.798768" lon="-122.473081" /><trkpt lat="37.798775" lon="-122.473284" /><trkpt lat="37.798821" lon="-122.473292" /><trkpt lat="37.798885" lon="-122.473281" /><trkpt lat="37.798950" lon="-122.473179" /><trkpt lat="37.798991" lon="-122.473153" /><trkpt lat="37.799098" lon="-122.473117" /><trkpt lat="37.799205" lon="-122.473081" /><trkpt lat="37.799235" lon="-122.473145" /><trkpt lat="37.799326" lon="-122.473286" /><trkpt lat="37.799328" lon="-122.473413" /><trkpt lat="37.799319" lon="-122.473504" /><trkpt lat="37.799310" lon="-122.473576" /><trkpt lat="37.799299" lon="-122.473667" /><trkpt lat="37.799273" lon="-122.473768" /><trkpt lat="37.799248" lon="-122.473854" /><trkpt lat="37.799184" lon="-122.473974" /><trkpt lat="37.799121" lon="-122.474095" /><trkpt lat="37.799096" lon="-122.474190" /><trkpt lat="37.799181" lon="-122.474251" /><trkpt lat="37.799206" lon="-122.474320" /><trkpt lat="37.799359" lon="-122.474397" /><trkpt lat="37.799512" lon="-122.474473" /><trkpt lat="37.799665" lon="-122.474550" /><trkpt lat="37.799732" lon="-122.474563" /><trkpt lat="37.799775" lon="-122.474540" /><trkpt lat="37.799799" lon="-122.474483" /><trkpt lat="37.799789" lon="-122.474421" /><trkpt lat="37.799750" lon="-122.474381" /><trkpt lat="37.799699" lon="-122.474381" /><trkpt lat="37.799663" lon="-122.474418" /><trkpt lat="37.799651" lon="-122.474475" /><trkpt lat="37.799669" lon="-122.474531" /><trkpt lat="37.799814" lon="-122.474570" /><trkpt lat="37.799868" lon="-122.474594" /><trkpt lat="37.799920" lon="-122.474642" /><trkpt lat="37.800033" lon="-122.474614" /><trkpt lat="37.800145" lon="-122.474586" /><trkpt lat="37.800049" lon="-122.474613" /><trkpt lat="37.799952" lon="-122.474640" /><trkpt lat="37.799954" lon="-122.474770" /><trkpt lat="37.800041" lon="-122.474806" /><trkpt lat="37.800127" lon="-122.474841" /><trkpt lat="37.800001" lon="-122.474682" /><trkpt lat="37.799875" lon="-122.474523" /><trkpt lat="37.799749" lon="-122.474364" /><trkpt lat="37.799706" lon="-122.474270" /><trkpt lat="37.799699" lon="-122.474163" /><trkpt lat="37.799678" lon="-122.474096" /><trkpt lat="37.799678" lon="-122.474232" /><trkpt lat="37.799678" lon="-122.474369" /><trkpt lat="37.799530" lon="-122.474294" /><trkpt lat="37.799383" lon="-122.474219" /><trkpt lat="37.799235" lon="-122.474144" /><trkpt lat="37.799202" lon="-122.474262" /><trkpt lat="37.799071" lon="-122.474357" /><trkpt lat="37.798940" lon="-122.474451" /><trkpt lat="37.798809" lon="-122.474546" /><trkpt lat="37.798678" lon="-122.474641" /><trkpt lat="37.798547" lon="-122.474735" /><trkpt lat="37.798416" lon="-122.474830" /><trkpt lat="37.798282" lon="-122.474971" /><trkpt lat="37.798147" lon="-122.475111" /><trkpt lat="37.798013" lon="-122.475252" /><trkpt lat="37.797857" lon="-122.475248" /><trkpt lat="37.797701" lon="-122.475243" /><trkpt lat="37.797545" lon="-122.475239" /><trkpt lat="37.797408" lon="-122.475185" /><trkpt lat="37.797272" lon="-122.475130" /><trkpt lat="37.797135" lon="-122.475076" /><trkpt lat="37.796990" lon="-122.475151" /><trkpt lat="37.796845" lon="-122.475225" /><trkpt lat="37.796700" lon="-122.475300" /><trkpt lat="37.796667" lon="-122.475463" /><trkpt lat="37.796633" lon="-122.475625" /><trkpt lat="37.796600" lon="-122.475788" /><trkpt lat="37.796567" lon="-122.475951" /><trkpt lat="37.796533" lon="-122.476114" /><trkpt lat="37.796500" lon="-122.476276" /><trkpt lat="37.796467" lon="-122.476439" /><trkpt lat="37.796433" lon="-122.476602" /><trkpt lat="37.796400" lon="-122.476765" /><trkpt lat="37.796367" lon="-122.476927" /><trkpt lat="37.796333" lon="-122.477090" /><trkpt lat="37.796300" lon="-122.477253" /><trkpt lat="37.796267" lon="-122.477416" /><trkpt lat="37.796233" lon="-122.477578" /><trkpt lat="37.796200" lon="-122.477741" /><trkpt lat="37.796167" lon="-122.477904" /><trkpt lat="37.796133" lon="-122.478067" /><trkpt lat="37.796100" lon="-122.478229" /><trkpt lat="37.796067" lon="-122.478392" /><trkpt lat="37.796033" lon="-122.478555" /><trkpt lat="37.796000" lon="-122.478718" /><trkpt lat="37.795967" lon="-122.478880" /><trkpt lat="37.795933" lon="-122.479043" /><trkpt lat="37.795900" lon="-122.479206" /><trkpt lat="37.795867" lon="-122.479369" /><trkpt lat="37.795833" lon="-122.479531" /><trkpt lat="37.795800" lon="-122.479694" /><trkpt lat="37.795767" lon="-122.479857" /><trkpt lat="37.795733" lon="-122.480020" /><trkpt lat="37.795700" lon="-122.480182" /><trkpt lat="37.795667" lon="-122.480345" /><trkpt lat="37.795633" lon="-122.480508" /><trkpt lat="37.795600" lon="-122.480671" /><trkpt lat="37.795567" lon="-122.480833" /><trkpt lat="37.795533" lon="-122.480996" /><trkpt lat="37.795500" lon="-122.481159" /><trkpt lat="37.795467" lon="-122.481322" /><trkpt lat="37.795433" lon="-122.481484" /><trkpt lat="37.795400" lon="-122.481647" /><trkpt lat="37.795367" lon="-122.481810" /><trkpt lat="37.795333" lon="-122.481973" /><trkpt lat="37.795300" lon="-122.482135" /><trkpt lat="37.795267" lon="-122.482298" /><trkpt lat="37.795233" lon="-122.482461" /><trkpt lat="37.795200" lon="-122.482624" /><trkpt lat="37.795167" lon="-122.482786" /><trkpt lat="37.795133" lon="-122.482949" /><trkpt lat="37.795100" lon="-122.483112" /><trkpt lat="37.795067" lon="-122.483275" /><trkpt lat="37.795033" lon="-122.483437" /><trkpt lat="37.795000" lon="-122.483600" /></trkseg></trk></gpx>