<?xml version="1.0" encoding="UTF-8"?>
<gpx version="1.1" creator="google-directions">
<trk><name>sf_batteries_to_bluffs</name><trkseg>
<trkpt lat="37.801300" lon="-122.466930"></trkpt>
<trkpt lat="37.801170" lon="-122.466950"></trkpt>
<trkpt lat="37.801140" lon="-122.466950"></trkpt>
<trkpt lat="37.800990" lon="-122.467060"></trkpt>
<trkpt lat="37.800960" lon="-122.467060"></trkpt>
<trkpt lat="37.800780" lon="-122.467080"></trkpt>
<trkpt lat="37.800690" lon="-122.467100"></trkpt>
<trkpt lat="37.800600" lon="-122.467110"></trkpt>
<trkpt lat="37.800560" lon="-122.467110"></trkpt>
<trkpt lat="37.800240" lon="-122.467150"></trkpt>
<trkpt lat="37.800180" lon="-122.467160"></trkpt>
<trkpt lat="37.800050" lon="-122.467180"></trkpt>
<trkpt lat="37.799970" lon="-122.467180"></trkpt>
<trkpt lat="37.799920" lon="-122.467180"></trkpt>
<trkpt lat="37.799860" lon="-122.467180"></trkpt>
<trkpt lat="37.799750" lon="-122.467180"></trkpt>
<trkpt lat="37.799690" lon="-122.467190"></trkpt>
<trkpt lat="37.799680" lon="-122.467130"></trkpt>
<trkpt lat="37.799590" lon="-122.467130"></trkpt>
<trkpt lat="37.799590" lon="-122.467140"></trkpt>
<trkpt lat="37.799520" lon="-122.467160"></trkpt>
<trkpt lat="37.799450" lon="-122.467190"></trkpt>
<trkpt lat="37.799420" lon="-122.467210"></trkpt>
<trkpt lat="37.799390" lon="-122.467230"></trkpt>
<trkpt lat="37.799300" lon="-122.467400"></trkpt>
<trkpt lat="37.799270" lon="-122.467440"></trkpt>
<trkpt lat="37.799250" lon="-122.467480"></trkpt>
<trkpt lat="37.799230" lon="-122.467530"></trkpt>
<trkpt lat="37.799210" lon="-122.467590"></trkpt>
<trkpt lat="37.799180" lon="-122.467670"></trkpt>
<trkpt lat="37.799160" lon="-122.467760"></trkpt>
<trkpt lat="37.799150" lon="-122.467830"></trkpt>
<trkpt lat="37.799120" lon="-122.467850"></trkpt>
<trkpt lat="37.799050" lon="-122.467960"></trkpt>
<trkpt lat="37.799030" lon="-122.467980"></trkpt>
<trkpt lat="37.798910" lon="-122.468100"></trkpt>
<trkpt lat="37.798820" lon="-122.468200"></trkpt>
<trkpt lat="37.798770" lon="-122.468240"></trkpt>
<trkpt lat="37.798660" lon="-122.468340"></trkpt>
<trkpt lat="37.798620" lon="-122.468380"></trkpt>
<trkpt lat="37.798600" lon="-122.468410"></trkpt>
<trkpt lat="37.798440" lon="-122.468530"></trkpt>
<trkpt lat="37.798400" lon="-122.468600"></trkpt>
<trkpt lat="37.798310" lon="-122.468690"></trkpt>
<trkpt lat="37.798170" lon="-122.468830"></trkpt>
<trkpt lat="37.798080" lon="-122.468910"></trkpt>
<trkpt lat="37.798100" lon="-122.468960"></trkpt>
<trkpt lat="37.798060" lon="-122.469100"></trkpt>
<trkpt lat="37.798020" lon="-122.469140"></trkpt>
<trkpt lat="37.797980" lon="-122.469210"></trkpt>
<trkpt lat="37.797970" lon="-122.469230"></trkpt>
<trkpt lat="37.797940" lon="-122.469290"></trkpt>
<trkpt lat="37.797900" lon="-122.469380"></trkpt>
<trkpt lat="37.797900" lon="-122.469440"></trkpt>
<trkpt lat="37.797890" lon="-122.469480"></trkpt>
<trkpt lat="37.797900" lon="-122.469510"></trkpt>
<trkpt lat="37.797900" lon="-122.469600"></trkpt>
<trkpt lat="37.797910" lon="-122.469630"></trkpt>
<trkpt lat="37.797920" lon="-122.469670"></trkpt>
<trkpt lat="37.797920" lon="-122.469690"></trkpt>
<trkpt lat="37.797920" lon="-122.469710"></trkpt>
<trkpt lat="37.797930" lon="-122.469730"></trkpt>
<trkpt lat="37.797940" lon="-122.469750"></trkpt>
<trkpt lat="37.797950" lon="-122.469780"></trkpt>
<trkpt lat="37.797960" lon="-122.469810"></trkpt>
<trkpt lat="37.797980" lon="-122.469840"></trkpt>
<trkpt lat="37.797990" lon="-122.469860"></trkpt>
<trkpt lat="37.798000" lon="-122.469870"></trkpt>
<trkpt lat="37.798030" lon="-122.469900"></trkpt>
<trkpt lat="37.798070" lon="-122.469950"></trkpt>
<trkpt lat="37.798070" lon="-122.469960"></trkpt>
<trkpt lat="37.798080" lon="-122.469970"></trkpt>
<trkpt lat="37.798100" lon="-122.469990"></trkpt>
<trkpt lat="37.798130" lon="-122.470020"></trkpt>
<trkpt lat="37.798200" lon="-122.470080"></trkpt>
<trkpt lat="37.798270" lon="-122.470140"></trkpt>
<trkpt lat="37.798460" lon="-122.470260"></trkpt>
<trkpt lat="37.798470" lon="-122.470270"></trkpt>
<trkpt lat="37.798810" lon="-122.470440"></trkpt>
<trkpt lat="37.798830" lon="-122.470450"></trkpt>
<trkpt lat="37.798970" lon="-122.470510"></trkpt>
<trkpt lat="37.799130" lon="-122.470600"></trkpt>
<trkpt lat="37.799250" lon="-122.470670"></trkpt>
<trkpt lat="37.799290" lon="-122.470710"></trkpt>
<trkpt lat="37.799320" lon="-122.470740"></trkpt>
<trkpt lat="37.799350" lon="-122.470780"></trkpt>
<trkpt lat="37.799380" lon="-122.470830"></trkpt>
<trkpt lat="37.799400" lon="-122.470880"></trkpt>
<trkpt lat="37.799420" lon="-122.470920"></trkpt>
<trkpt lat="37.799420" lon="-122.470930"></trkpt>
<trkpt lat="37.799450" lon="-122.471010"></trkpt>
<trkpt lat="37.799460" lon="-122.471100"></trkpt>
<trkpt lat="37.799460" lon="-122.471110"></trkpt>
<trkpt lat="37.799460" lon="-122.471160"></trkpt>
<trkpt lat="37.799460" lon="-122.471230"></trkpt>
<trkpt lat="37.799460" lon="-122.471310"></trkpt>
<trkpt lat="37.799460" lon="-122.471390"></trkpt>
<trkpt lat="37.799450" lon="-122.471460"></trkpt>
<trkpt lat="37.799430" lon="-122.471540"></trkpt>
<trkpt lat="37.799420" lon="-122.471620"></trkpt>
<trkpt lat="37.799400" lon="-122.471690"></trkpt>
<trkpt lat="37.799370" lon="-122.471760"></trkpt>
<trkpt lat="37.799350" lon="-122.471830"></trkpt>
<trkpt lat="37.799310" lon="-122.471900"></trkpt>
<trkpt lat="37.799280" lon="-122.471960"></trkpt>
<trkpt lat="37.799270" lon="-122.471980"></trkpt>
<trkpt lat="37.799220" lon="-122.472060"></trkpt>
<trkpt lat="37.799160" lon="-122.472140"></trkpt>
<trkpt lat="37.799140" lon="-122.472170"></trkpt>
<trkpt lat="37.799090" lon="-122.472250"></trkpt>
<trkpt lat="37.799040" lon="-122.472330"></trkpt>
<trkpt lat="37.799010" lon="-122.472360"></trkpt>
<trkpt lat="37.798920" lon="-122.472500"></trkpt>
<trkpt lat="37.798920" lon="-122.472510"></trkpt>
<trkpt lat="37.798790" lon="-122.472720"></trkpt>
<trkpt lat="37.798720" lon="-122.472650"></trkpt>
<trkpt lat="37.798710" lon="-122.472670"></trkpt>
<trkpt lat="37.798670" lon="-122.472740"></trkpt>
<trkpt lat="37.798650" lon="-122.472780"></trkpt>
<trkpt lat="37.798620" lon="-122.472830"></trkpt>
<trkpt lat="37.798580" lon="-122.472940"></trkpt>
<trkpt lat="37.798550" lon="-122.473030"></trkpt>
<trkpt lat="37.798520" lon="-122.473120"></trkpt>
<trkpt lat="37.798520" lon="-122.473130"></trkpt>
<trkpt lat="37.798500" lon="-122.473220"></trkpt>
<trkpt lat="37.798500" lon="-122.473260"></trkpt>
<trkpt lat="37.798490" lon="-122.473360"></trkpt>
<trkpt lat="37.798500" lon="-122.473430"></trkpt>
<trkpt lat="37.798500" lon="-122.473500"></trkpt>
<trkpt lat="37.798470" lon="-122.473500"></trkpt>
<trkpt lat="37.798480" lon="-122.473590"></trkpt>
<trkpt lat="37.798520" lon="-122.473840"></trkpt>
<trkpt lat="37.798570" lon="-122.474070"></trkpt>
<trkpt lat="37.798630" lon="-122.474190"></trkpt>
<trkpt lat="37.798650" lon="-122.474250"></trkpt>
<trkpt lat="37.798660" lon="-122.474310"></trkpt>
<trkpt lat="37.798680" lon="-122.474380"></trkpt>
<trkpt lat="37.798710" lon="-122.474490"></trkpt>
<trkpt lat="37.798760" lon="-122.474710"></trkpt>
<trkpt lat="37.798780" lon="-122.474790"></trkpt>
<trkpt lat="37.798790" lon="-122.474900"></trkpt>
<trkpt lat="37.798810" lon="-122.474990"></trkpt>
<trkpt lat="37.798820" lon="-122.475070"></trkpt>
<trkpt lat="37.798850" lon="-122.475210"></trkpt>
<trkpt lat="37.798860" lon="-122.475290"></trkpt>
<trkpt lat="37.798880" lon="-122.475420"></trkpt>
<trkpt lat="37.798880" lon="-122.475470"></trkpt>
<trkpt lat="37.798890" lon="-122.475520"></trkpt>
<trkpt lat="37.798900" lon="-122.475580"></trkpt>
<trkpt lat="37.798910" lon="-122.475650"></trkpt>
<trkpt lat="37.798920" lon="-122.475710"></trkpt>
<trkpt lat="37.798940" lon="-122.475790"></trkpt>
<trkpt lat="37.798960" lon="-122.475920"></trkpt>
<trkpt lat="37.798580" lon="-122.476100"></trkpt>
<trkpt lat="37.798550" lon="-122.476120"></trkpt>
<trkpt lat="37.798520" lon="-122.476130"></trkpt>
<trkpt lat="37.798440" lon="-122.476170"></trkpt>
<trkpt lat="37.798330" lon="-122.476220"></trkpt>
<trkpt lat="37.798260" lon="-122.476260"></trkpt>
<trkpt lat="37.798240" lon="-122.476260"></trkpt>
<trkpt lat="37.798230" lon="-122.476270"></trkpt>
<trkpt lat="37.798220" lon="-122.476270"></trkpt>
<trkpt lat="37.798200" lon="-122.476280"></trkpt>
<trkpt lat="37.798180" lon="-122.476290"></trkpt>
<trkpt lat="37.798160" lon="-122.476300"></trkpt>
<trkpt lat="37.798050" lon="-122.476350"></trkpt>
<trkpt lat="37.797940" lon="-122.476410"></trkpt>
<trkpt lat="37.797890" lon="-122.476430"></trkpt>
<trkpt lat="37.797830" lon="-122.476460"></trkpt>
<trkpt lat="37.797690" lon="-122.476520"></trkpt>
<trkpt lat="37.797630" lon="-122.476580"></trkpt>
<trkpt lat="37.797590" lon="-122.476620"></trkpt>
<trkpt lat="37.797570" lon="-122.476620"></trkpt>
<trkpt lat="37.797580" lon="-122.476640"></trkpt>
<trkpt lat="37.797510" lon="-122.476610"></trkpt>
<trkpt lat="37.797450" lon="-122.476370"></trkpt>
<trkpt lat="37.797390" lon="-122.476360"></trkpt>
<trkpt lat="37.797380" lon="-122.476360"></trkpt>
<trkpt lat="37.797350" lon="-122.476360"></trkpt>
<trkpt lat="37.797320" lon="-122.476350"></trkpt>
<trkpt lat="37.797300" lon="-122.476350"></trkpt>
<trkpt lat="37.797270" lon="-122.476340"></trkpt>
<trkpt lat="37.797240" lon="-122.476320"></trkpt>
<trkpt lat="37.797220" lon="-122.476290"></trkpt>
<trkpt lat="37.797200" lon="-122.476270"></trkpt>
<trkpt lat="37.797190" lon="-122.476250"></trkpt>
<trkpt lat="37.797180" lon="-122.476240"></trkpt>
<trkpt lat="37.797160" lon="-122.476190"></trkpt>
<trkpt lat="37.797140" lon="-122.476110"></trkpt>
<trkpt lat="37.797190" lon="-122.476090"></trkpt>
<trkpt lat="37.797170" lon="-122.475990"></trkpt>
<trkpt lat="37.797170" lon="-122.475970"></trkpt>
<trkpt lat="37.797150" lon="-122.475840"></trkpt>
<trkpt lat="37.797140" lon="-122.475790"></trkpt>
<trkpt lat="37.797140" lon="-122.475760"></trkpt>
<trkpt lat="37.797140" lon="-122.475750"></trkpt>
<trkpt lat="37.797140" lon="-122.475740"></trkpt>
<trkpt lat="37.797140" lon="-122.475710"></trkpt>
<trkpt lat="37.797130" lon="-122.475700"></trkpt>
<trkpt lat="37.797130" lon="-122.475670"></trkpt>
<trkpt lat="37.797110" lon="-122.475560"></trkpt>
<trkpt lat="37.797070" lon="-122.475450"></trkpt>
<trkpt lat="37.797050" lon="-122.475400"></trkpt>
<trkpt lat="37.797030" lon="-122.475350"></trkpt>
<trkpt lat="37.796990" lon="-122.475310"></trkpt>
<trkpt lat="37.796980" lon="-122.475300"></trkpt>
<trkpt lat="37.796970" lon="-122.475290"></trkpt>
<trkpt lat="37.796930" lon="-122.475280"></trkpt>
<trkpt lat="37.796910" lon="-122.475280"></trkpt>
<trkpt lat="37.796880" lon="-122.475290"></trkpt>
<trkpt lat="37.796870" lon="-122.475300"></trkpt>
<trkpt lat="37.796840" lon="-122.475310"></trkpt>
<trkpt lat="37.796820" lon="-122.475330"></trkpt>
<trkpt lat="37.796810" lon="-122.475350"></trkpt>
<trkpt lat="37.796800" lon="-122.475360"></trkpt>
<trkpt lat="37.796780" lon="-122.475390"></trkpt>
<trkpt lat="37.796800" lon="-122.475360"></trkpt>
<trkpt lat="37.796810" lon="-122.475350"></trkpt>
<trkpt lat="37.796820" lon="-122.475330"></trkpt>
<trkpt lat="37.796840" lon="-122.475310"></trkpt>
<trkpt lat="37.796870" lon="-122.475300"></trkpt>
<trkpt lat="37.796880" lon="-122.475290"></trkpt>
<trkpt lat="37.796910" lon="-122.475280"></trkpt>
<trkpt lat="37.796930" lon="-122.475280"></trkpt>
<trkpt lat="37.796970" lon="-122.475290"></trkpt>
<trkpt lat="37.796980" lon="-122.475300"></trkpt>
<trkpt lat="37.796990" lon="-122.475310"></trkpt>
<trkpt lat="37.797030" lon="-122.475350"></trkpt>
<trkpt lat="37.797050" lon="-122.475400"></trkpt>
<trkpt lat="37.797070" lon="-122.475450"></trkpt>
<trkpt lat="37.797110" lon="-122.475560"></trkpt>
<trkpt lat="37.797130" lon="-122.475670"></trkpt>
<trkpt lat="37.797130" lon="-122.475700"></trkpt>
<trkpt lat="37.797140" lon="-122.475710"></trkpt>
<trkpt lat="37.797140" lon="-122.475740"></trkpt>
<trkpt lat="37.797140" lon="-122.475750"></trkpt>
<trkpt lat="37.797140" lon="-122.475760"></trkpt>
<trkpt lat="37.797140" lon="-122.475790"></trkpt>
<trkpt lat="37.797150" lon="-122.475840"></trkpt>
<trkpt lat="37.797170" lon="-122.475970"></trkpt>
<trkpt lat="37.797170" lon="-122.475990"></trkpt>
<trkpt lat="37.797190" lon="-122.476090"></trkpt>
<trkpt lat="37.797140" lon="-122.476110"></trkpt>
<trkpt lat="37.797160" lon="-122.476190"></trkpt>
<trkpt lat="37.797180" lon="-122.476240"></trkpt>
<trkpt lat="37.797190" lon="-122.476250"></trkpt>
<trkpt lat="37.797200" lon="-122.476270"></trkpt>
<trkpt lat="37.797220" lon="-122.476290"></trkpt>
<trkpt lat="37.797240" lon="-122.476320"></trkpt>
<trkpt lat="37.797270" lon="-122.476340"></trkpt>
<trkpt lat="37.797300" lon="-122.476350"></trkpt>
<trkpt lat="37.797320" lon="-122.476350"></trkpt>
<trkpt lat="37.797350" lon="-122.476360"></trkpt>
<trkpt lat="37.797390" lon="-122.476360"></trkpt>
<trkpt lat="37.797450" lon="-122.476370"></trkpt>
<trkpt lat="37.797500" lon="-122.476600"></trkpt>
<trkpt lat="37.797520" lon="-122.476740"></trkpt>
<trkpt lat="37.797430" lon="-122.476770"></trkpt>
<trkpt lat="37.797400" lon="-122.476780"></trkpt>
<trkpt lat="37.797320" lon="-122.476800"></trkpt>
<trkpt lat="37.797260" lon="-122.476810"></trkpt>
<trkpt lat="37.797160" lon="-122.476850"></trkpt>
<trkpt lat="37.797120" lon="-122.476860"></trkpt>
<trkpt lat="37.797100" lon="-122.476870"></trkpt>
<trkpt lat="37.797070" lon="-122.476890"></trkpt>
<trkpt lat="37.797040" lon="-122.476910"></trkpt>
<trkpt lat="37.797010" lon="-122.476930"></trkpt>
<trkpt lat="37.796950" lon="-122.476980"></trkpt>
<trkpt lat="37.796890" lon="-122.477030"></trkpt>
<trkpt lat="37.796670" lon="-122.477240"></trkpt>
<trkpt lat="37.796630" lon="-122.477270"></trkpt>
<trkpt lat="37.796570" lon="-122.477330"></trkpt>
<trkpt lat="37.796480" lon="-122.477440"></trkpt>
<trkpt lat="37.796430" lon="-122.477510"></trkpt>
<trkpt lat="37.796400" lon="-122.477550"></trkpt>
<trkpt lat="37.796300" lon="-122.477660"></trkpt>
<trkpt lat="37.796280" lon="-122.477680"></trkpt>
<trkpt lat="37.796270" lon="-122.477680"></trkpt>
<trkpt lat="37.796250" lon="-122.477700"></trkpt>
<trkpt lat="37.796210" lon="-122.477730"></trkpt>
<trkpt lat="37.796130" lon="-122.477770"></trkpt>
<trkpt lat="37.796140" lon="-122.477820"></trkpt>
<trkpt lat="37.796130" lon="-122.477830"></trkpt>
<trkpt lat="37.796130" lon="-122.477840"></trkpt>
<trkpt lat="37.796120" lon="-122.477850"></trkpt>
<trkpt lat="37.796100" lon="-122.477850"></trkpt>
<trkpt lat="37.795970" lon="-122.477840"></trkpt>
<trkpt lat="37.795920" lon="-122.477840"></trkpt>
<trkpt lat="37.795900" lon="-122.477860"></trkpt>
<trkpt lat="37.795880" lon="-122.477880"></trkpt>
<trkpt lat="37.795870" lon="-122.477900"></trkpt>
<trkpt lat="37.795850" lon="-122.477930"></trkpt>
<trkpt lat="37.795850" lon="-122.477940"></trkpt>
<trkpt lat="37.795840" lon="-122.477950"></trkpt>
<trkpt lat="37.795830" lon="-122.477960"></trkpt>
<trkpt lat="37.795800" lon="-122.477970"></trkpt>
<trkpt lat="37.795790" lon="-122.477970"></trkpt>
<trkpt lat="37.795740" lon="-122.477980"></trkpt>
<trkpt lat="37.795690" lon="-122.477970"></trkpt>
<trkpt lat="37.795690" lon="-122.477980"></trkpt>
<trkpt lat="37.795680" lon="-122.477980"></trkpt>
<trkpt lat="37.795680" lon="-122.477990"></trkpt>
<trkpt lat="37.795670" lon="-122.477990"></trkpt>
<trkpt lat="37.795670" lon="-122.478020"></trkpt>
<trkpt lat="37.795660" lon="-122.478030"></trkpt>
<trkpt lat="37.795650" lon="-122.478040"></trkpt>
<trkpt lat="37.795650" lon="-122.478050"></trkpt>
<trkpt lat="37.795640" lon="-122.478060"></trkpt>
<trkpt lat="37.795640" lon="-122.478070"></trkpt>
<trkpt lat="37.795630" lon="-122.478090"></trkpt>
<trkpt lat="37.795630" lon="-122.478100"></trkpt>
<trkpt lat="37.795630" lon="-122.478120"></trkpt>
<trkpt lat="37.795630" lon="-122.478140"></trkpt>
<trkpt lat="37.795640" lon="-122.478160"></trkpt>
<trkpt lat="37.795660" lon="-122.478210"></trkpt>
<trkpt lat="37.795660" lon="-122.478220"></trkpt>
<trkpt lat="37.795650" lon="-122.478230"></trkpt>
<trkpt lat="37.795650" lon="-122.478240"></trkpt>
<trkpt lat="37.795650" lon="-122.478250"></trkpt>
<trkpt lat="37.795640" lon="-122.478250"></trkpt>
<trkpt lat="37.795640" lon="-122.478260"></trkpt>
<trkpt lat="37.795630" lon="-122.478260"></trkpt>
<trkpt lat="37.795620" lon="-122.478260"></trkpt>
<trkpt lat="37.795580" lon="-122.478260"></trkpt>
<trkpt lat="37.795560" lon="-122.478260"></trkpt>
<trkpt lat="37.795560" lon="-122.478270"></trkpt>
<trkpt lat="37.795550" lon="-122.478270"></trkpt>
<trkpt lat="37.795540" lon="-122.478280"></trkpt>
<trkpt lat="37.795540" lon="-122.478290"></trkpt>
<trkpt lat="37.795540" lon="-122.478320"></trkpt>
<trkpt lat="37.795530" lon="-122.478330"></trkpt>
<trkpt lat="37.795520" lon="-122.478340"></trkpt>
<trkpt lat="37.795510" lon="-122.478340"></trkpt>
<trkpt lat="37.795510" lon="-122.478350"></trkpt>
<trkpt lat="37.795500" lon="-122.478350"></trkpt>
<trkpt lat="37.795500" lon="-122.478360"></trkpt>
<trkpt lat="37.795500" lon="-122.478370"></trkpt>
<trkpt lat="37.795500" lon="-122.478380"></trkpt>
<trkpt lat="37.795500" lon="-122.478390"></trkpt>
<trkpt lat="37.795500" lon="-122.478400"></trkpt>
<trkpt lat="37.795510" lon="-122.478410"></trkpt>
<trkpt lat="37.795520" lon="-122.478420"></trkpt>
<trkpt lat="37.795530" lon="-122.478430"></trkpt>
<trkpt lat="37.795540" lon="-122.478440"></trkpt>
<trkpt lat="37.795550" lon="-122.478460"></trkpt>
<trkpt lat="37.795550" lon="-122.478470"></trkpt>
<trkpt lat="37.795550" lon="-122.478500"></trkpt>
<trkpt lat="37.795550" lon="-122.478570"></trkpt>
<trkpt lat="37.795460" lon="-122.478500"></trkpt>
<trkpt lat="37.795390" lon="-122.478470"></trkpt>
<trkpt lat="37.795370" lon="-122.478470"></trkpt>
<trkpt lat="37.795310" lon="-122.478440"></trkpt>
<trkpt lat="37.795240" lon="-122.478410"></trkpt>
<trkpt lat="37.795200" lon="-122.478400"></trkpt>
<trkpt lat="37.795080" lon="-122.478370"></trkpt>
<trkpt lat="37.795040" lon="-122.478370"></trkpt>
<trkpt lat="37.795020" lon="-122.478370"></trkpt>
<trkpt lat="37.794980" lon="-122.478370"></trkpt>
<trkpt lat="37.794940" lon="-122.478380"></trkpt>
<trkpt lat="37.794900" lon="-122.478400"></trkpt>
<trkpt lat="37.794870" lon="-122.478420"></trkpt>
<trkpt lat="37.794850" lon="-122.478430"></trkpt>
<trkpt lat="37.794780" lon="-122.478480"></trkpt>
<trkpt lat="37.794710" lon="-122.478530"></trkpt>
<trkpt lat="37.794690" lon="-122.478540"></trkpt>
<trkpt lat="37.794660" lon="-122.478560"></trkpt>
<trkpt lat="37.794630" lon="-122.478580"></trkpt>
<trkpt lat="37.794590" lon="-122.478580"></trkpt>
<trkpt lat="37.794540" lon="-122.478590"></trkpt>
<trkpt lat="37.794480" lon="-122.478580"></trkpt>
<trkpt lat="37.794410" lon="-122.478550"></trkpt>
<trkpt lat="37.794230" lon="-122.478500"></trkpt>
<trkpt lat="37.794170" lon="-122.478500"></trkpt>
<trkpt lat="37.794120" lon="-122.478510"></trkpt>
<trkpt lat="37.794060" lon="-122.478540"></trkpt>
<trkpt lat="37.794050" lon="-122.478540"></trkpt>
<trkpt lat="37.794000" lon="-122.478580"></trkpt>
<trkpt lat="37.793970" lon="-122.478620"></trkpt>
<trkpt lat="37.793990" lon="-122.478650"></trkpt>
<trkpt lat="37.794080" lon="-122.478850"></trkpt>
<trkpt lat="37.794130" lon="-122.478960"></trkpt>
<trkpt lat="37.794160" lon="-122.479020"></trkpt>
<trkpt lat="37.794180" lon="-122.479080"></trkpt>
<trkpt lat="37.794220" lon="-122.479180"></trkpt>
<trkpt lat="37.794240" lon="-122.479240"></trkpt>
<trkpt lat="37.794250" lon="-122.479280"></trkpt>
<trkpt lat="37.794270" lon="-122.479340"></trkpt>
<trkpt lat="37.794300" lon="-122.479450"></trkpt>
<trkpt lat="37.794310" lon="-122.479510"></trkpt>
<trkpt lat="37.794340" lon="-122.479650"></trkpt>
<trkpt lat="37.794360" lon="-122.479750"></trkpt>
<trkpt lat="37.794370" lon="-122.479840"></trkpt>
<trkpt lat="37.794380" lon="-122.479900"></trkpt>
<trkpt lat="37.794380" lon="-122.479920"></trkpt>
<trkpt lat="37.794380" lon="-122.479940"></trkpt>
<trkpt lat="37.794380" lon="-122.479960"></trkpt>
<trkpt lat="37.794390" lon="-122.479980"></trkpt>
<trkpt lat="37.794390" lon="-122.480040"></trkpt>
<trkpt lat="37.794390" lon="-122.480150"></trkpt>
<trkpt lat="37.794390" lon="-122.480180"></trkpt>
<trkpt lat="37.794390" lon="-122.480200"></trkpt>
<trkpt lat="37.794390" lon="-122.480210"></trkpt>
<trkpt lat="37.794390" lon="-122.480220"></trkpt>
<trkpt lat="37.794380" lon="-122.480280"></trkpt>
<trkpt lat="37.794380" lon="-122.480350"></trkpt>
<trkpt lat="37.794240" lon="-122.480340"></trkpt>
<trkpt lat="37.794170" lon="-122.480340"></trkpt>
<trkpt lat="37.794130" lon="-122.480340"></trkpt>
<trkpt lat="37.794040" lon="-122.480370"></trkpt>
<trkpt lat="37.793980" lon="-122.480380"></trkpt>
<trkpt lat="37.793900" lon="-122.480400"></trkpt>
<trkpt lat="37.793870" lon="-122.480410"></trkpt>
<trkpt lat="37.793930" lon="-122.480520"></trkpt>
<trkpt lat="37.793950" lon="-122.480540"></trkpt>
<trkpt lat="37.793990" lon="-122.480580"></trkpt>
<trkpt lat="37.794030" lon="-122.480600"></trkpt>
<trkpt lat="37.794100" lon="-122.480630"></trkpt>
<trkpt lat="37.794130" lon="-122.480650"></trkpt>
<trkpt lat="37.794170" lon="-122.480700"></trkpt>
<trkpt lat="37.794180" lon="-122.480710"></trkpt>
<trkpt lat="37.794210" lon="-122.480760"></trkpt>
<trkpt lat="37.794230" lon="-122.480800"></trkpt>
<trkpt lat="37.794310" lon="-122.480870"></trkpt>
<trkpt lat="37.794350" lon="-122.480890"></trkpt>
<trkpt lat="37.794400" lon="-122.480900"></trkpt>
<trkpt lat="37.794450" lon="-122.480910"></trkpt>
<trkpt lat="37.794480" lon="-122.480910"></trkpt>
<trkpt lat="37.794500" lon="-122.480910"></trkpt>
<trkpt lat="37.794530" lon="-122.480910"></trkpt>
<trkpt lat="37.794540" lon="-122.480910"></trkpt>
<trkpt lat="37.794560" lon="-122.480910"></trkpt>
<trkpt lat="37.794580" lon="-122.480920"></trkpt>
<trkpt lat="37.794560" lon="-122.480930"></trkpt>
<trkpt lat="37.794550" lon="-122.480940"></trkpt>
<trkpt lat="37.794530" lon="-122.480950"></trkpt>
<trkpt lat="37.794530" lon="-122.480970"></trkpt>
<trkpt lat="37.794520" lon="-122.480980"></trkpt>
<trkpt lat="37.794510" lon="-122.481000"></trkpt>
<trkpt lat="37.794500" lon="-122.481020"></trkpt>
<trkpt lat="37.794480" lon="-122.481110"></trkpt>
<trkpt lat="37.794470" lon="-122.481180"></trkpt>
<trkpt lat="37.794460" lon="-122.481270"></trkpt>
<trkpt lat="37.794430" lon="-122.481370"></trkpt>
<trkpt lat="37.794430" lon="-122.481400"></trkpt>
<trkpt lat="37.794410" lon="-122.481480"></trkpt>
<trkpt lat="37.794410" lon="-122.481510"></trkpt>
<trkpt lat="37.794420" lon="-122.481530"></trkpt>
<trkpt lat="37.794420" lon="-122.481550"></trkpt>
<trkpt lat="37.794430" lon="-122.481570"></trkpt>
<trkpt lat="37.794440" lon="-122.481590"></trkpt>
<trkpt lat="37.794450" lon="-122.481610"></trkpt>
<trkpt lat="37.794470" lon="-122.481630"></trkpt>
<trkpt lat="37.794470" lon="-122.481640"></trkpt>
<trkpt lat="37.794490" lon="-122.481650"></trkpt>
<trkpt lat="37.794510" lon="-122.481670"></trkpt>
<trkpt lat="37.794560" lon="-122.481700"></trkpt>
<trkpt lat="37.794610" lon="-122.481720"></trkpt>
<trkpt lat="37.794670" lon="-122.481750"></trkpt>
<trkpt lat="37.794780" lon="-122.481780"></trkpt>
<trkpt lat="37.794840" lon="-122.481800"></trkpt>
<trkpt lat="37.794870" lon="-122.481810"></trkpt>
<trkpt lat="37.794920" lon="-122.481830"></trkpt>
<trkpt lat="37.794950" lon="-122.481850"></trkpt>
<trkpt lat="37.794970" lon="-122.481860"></trkpt>
<trkpt lat="37.794980" lon="-122.481870"></trkpt>
<trkpt lat="37.795010" lon="-122.481890"></trkpt>
<trkpt lat="37.795050" lon="-122.481920"></trkpt>
<trkpt lat="37.795090" lon="-122.481980"></trkpt>
<trkpt lat="37.795100" lon="-122.481980"></trkpt>
<trkpt lat="37.795130" lon="-122.482030"></trkpt>
<trkpt lat="37.795150" lon="-122.482070"></trkpt>
<trkpt lat="37.795150" lon="-122.482090"></trkpt>
<trkpt lat="37.795160" lon="-122.482110"></trkpt>
<trkpt lat="37.795160" lon="-122.482130"></trkpt>
<trkpt lat="37.795160" lon="-122.482170"></trkpt>
<trkpt lat="37.795020" lon="-122.482340"></trkpt>
<trkpt lat="37.794960" lon="-122.482410"></trkpt>
<trkpt lat="37.794880" lon="-122.482480"></trkpt>
<trkpt lat="37.794840" lon="-122.482520"></trkpt>
<trkpt lat="37.794790" lon="-122.482580"></trkpt>
<trkpt lat="37.794780" lon="-122.482600"></trkpt>
<trkpt lat="37.794770" lon="-122.482630"></trkpt>
<trkpt lat="37.794770" lon="-122.482690"></trkpt>
<trkpt lat="37.794780" lon="-122.482770"></trkpt>
</trkseg></trk>
</gpx>
