<?xml version="1.0" encoding="UTF-8"?>
<gpx version="1.1" creator="greatruns-mapmyrun">
<trk><name>sf_bridge_lands_end</name><trkseg>
<trkpt lat="37.807490" lon="-122.475000"></trkpt>
<trkpt lat="37.807380" lon="-122.475160"></trkpt>
<trkpt lat="37.807420" lon="-122.475210"></trkpt>
<trkpt lat="37.807400" lon="-122.475240"></trkpt>
<trkpt lat="37.807480" lon="-122.475330"></trkpt>
<trkpt lat="37.807590" lon="-122.475430"></trkpt>
<trkpt lat="37.807680" lon="-122.475620"></trkpt>
<trkpt lat="37.807770" lon="-122.475790"></trkpt>
<trkpt lat="37.807830" lon="-122.475870"></trkpt>
<trkpt lat="37.807940" lon="-122.475940"></trkpt>
<trkpt lat="37.808020" lon="-122.475970"></trkpt>
<trkpt lat="37.808130" lon="-122.475940"></trkpt>
<trkpt lat="37.808240" lon="-122.475890"></trkpt>
<trkpt lat="37.808320" lon="-122.475930"></trkpt>
<trkpt lat="37.808360" lon="-122.475880"></trkpt>
<trkpt lat="37.808400" lon="-122.475870"></trkpt>
<trkpt lat="37.808440" lon="-122.475880"></trkpt>
<trkpt lat="37.808470" lon="-122.475930"></trkpt>
<trkpt lat="37.808460" lon="-122.476010"></trkpt>
<trkpt lat="37.808420" lon="-122.476110"></trkpt>
<trkpt lat="37.808380" lon="-122.476240"></trkpt>
<trkpt lat="37.808400" lon="-122.476290"></trkpt>
<trkpt lat="37.808110" lon="-122.476770"></trkpt>
<trkpt lat="37.808030" lon="-122.476920"></trkpt>
<trkpt lat="37.807990" lon="-122.476970"></trkpt>
<trkpt lat="37.807900" lon="-122.477000"></trkpt>
<trkpt lat="37.807830" lon="-122.476980"></trkpt>
<trkpt lat="37.807780" lon="-122.476940"></trkpt>
<trkpt lat="37.807670" lon="-122.476920"></trkpt>
<trkpt lat="37.807560" lon="-122.476960"></trkpt>
<trkpt lat="37.807480" lon="-122.476980"></trkpt>
<trkpt lat="37.807410" lon="-122.476990"></trkpt>
<trkpt lat="37.807310" lon="-122.476960"></trkpt>
<trkpt lat="37.807220" lon="-122.476950"></trkpt>
<trkpt lat="37.807000" lon="-122.477020"></trkpt>
<trkpt lat="37.806950" lon="-122.477030"></trkpt>
<trkpt lat="37.806950" lon="-122.477030"></trkpt>
<trkpt lat="37.806560" lon="-122.477020"></trkpt>
<trkpt lat="37.806280" lon="-122.476990"></trkpt>
<trkpt lat="37.806080" lon="-122.476910"></trkpt>
<trkpt lat="37.805950" lon="-122.476820"></trkpt>
<trkpt lat="37.805800" lon="-122.476640"></trkpt>
<trkpt lat="37.805800" lon="-122.476640"></trkpt>
<trkpt lat="37.805640" lon="-122.476440"></trkpt>
<trkpt lat="37.805580" lon="-122.476420"></trkpt>
<trkpt lat="37.805510" lon="-122.476430"></trkpt>
<trkpt lat="37.805410" lon="-122.476480"></trkpt>
<trkpt lat="37.805270" lon="-122.476590"></trkpt>
<trkpt lat="37.805270" lon="-122.476590"></trkpt>
<trkpt lat="37.804986" lon="-122.476852"></trkpt>
<trkpt lat="37.804960" lon="-122.476760"></trkpt>
<trkpt lat="37.805150" lon="-122.476670"></trkpt>
<trkpt lat="37.805410" lon="-122.476480"></trkpt>
<trkpt lat="37.805510" lon="-122.476430"></trkpt>
<trkpt lat="37.805580" lon="-122.476420"></trkpt>
<trkpt lat="37.805640" lon="-122.476440"></trkpt>
<trkpt lat="37.805810" lon="-122.476660"></trkpt>
<trkpt lat="37.805990" lon="-122.476840"></trkpt>
<trkpt lat="37.806050" lon="-122.476890"></trkpt>
<trkpt lat="37.806220" lon="-122.476960"></trkpt>
<trkpt lat="37.806310" lon="-122.477000"></trkpt>
<trkpt lat="37.806390" lon="-122.477000"></trkpt>
<trkpt lat="37.806530" lon="-122.477010"></trkpt>
<trkpt lat="37.806890" lon="-122.477040"></trkpt>
<trkpt lat="37.807110" lon="-122.476980"></trkpt>
<trkpt lat="37.807250" lon="-122.476950"></trkpt>
<trkpt lat="37.807340" lon="-122.476970"></trkpt>
<trkpt lat="37.807430" lon="-122.476990"></trkpt>
<trkpt lat="37.807510" lon="-122.476980"></trkpt>
<trkpt lat="37.807620" lon="-122.476940"></trkpt>
<trkpt lat="37.807720" lon="-122.476920"></trkpt>
<trkpt lat="37.807810" lon="-122.476960"></trkpt>
<trkpt lat="37.807870" lon="-122.477000"></trkpt>
<trkpt lat="37.807950" lon="-122.477000"></trkpt>
<trkpt lat="37.808060" lon="-122.476890"></trkpt>
<trkpt lat="37.808130" lon="-122.476720"></trkpt>
<trkpt lat="37.808300" lon="-122.476460"></trkpt>
<trkpt lat="37.808400" lon="-122.476290"></trkpt>
<trkpt lat="37.808390" lon="-122.476270"></trkpt>
<trkpt lat="37.808380" lon="-122.476190"></trkpt>
<trkpt lat="37.808440" lon="-122.476050"></trkpt>
<trkpt lat="37.808470" lon="-122.475960"></trkpt>
<trkpt lat="37.808450" lon="-122.475890"></trkpt>
<trkpt lat="37.808380" lon="-122.475870"></trkpt>
<trkpt lat="37.808340" lon="-122.475890"></trkpt>
<trkpt lat="37.808320" lon="-122.475930"></trkpt>
<trkpt lat="37.808270" lon="-122.475900"></trkpt>
<trkpt lat="37.808180" lon="-122.475910"></trkpt>
<trkpt lat="37.808070" lon="-122.475970"></trkpt>
<trkpt lat="37.807990" lon="-122.475970"></trkpt>
<trkpt lat="37.807830" lon="-122.475870"></trkpt>
<trkpt lat="37.807730" lon="-122.475720"></trkpt>
<trkpt lat="37.807660" lon="-122.475550"></trkpt>
<trkpt lat="37.807590" lon="-122.475430"></trkpt>
<trkpt lat="37.807540" lon="-122.475400"></trkpt>
<trkpt lat="37.807400" lon="-122.475240"></trkpt>
<trkpt lat="37.807420" lon="-122.475210"></trkpt>
<trkpt lat="37.807380" lon="-122.475160"></trkpt>
<trkpt lat="37.807060" lon="-122.475650"></trkpt>
<trkpt lat="37.806920" lon="-122.475800"></trkpt>
<trkpt lat="37.806800" lon="-122.475930"></trkpt>
<trkpt lat="37.806470" lon="-122.475570"></trkpt>
<trkpt lat="37.806340" lon="-122.475430"></trkpt>
<trkpt lat="37.806130" lon="-122.475730"></trkpt>
<trkpt lat="37.806060" lon="-122.475790"></trkpt>
<trkpt lat="37.805980" lon="-122.475830"></trkpt>
<trkpt lat="37.805730" lon="-122.475890"></trkpt>
<trkpt lat="37.805420" lon="-122.476080"></trkpt>
<trkpt lat="37.805080" lon="-122.476300"></trkpt>
<trkpt lat="37.804970" lon="-122.476320"></trkpt>
<trkpt lat="37.804860" lon="-122.476320"></trkpt>
<trkpt lat="37.804680" lon="-122.476250"></trkpt>
<trkpt lat="37.804520" lon="-122.476110"></trkpt>
<trkpt lat="37.804440" lon="-122.475930"></trkpt>
<trkpt lat="37.804420" lon="-122.475800"></trkpt>
<trkpt lat="37.804420" lon="-122.475680"></trkpt>
<trkpt lat="37.804320" lon="-122.475680"></trkpt>
<trkpt lat="37.804100" lon="-122.475690"></trkpt>
<trkpt lat="37.803950" lon="-122.475710"></trkpt>
<trkpt lat="37.803660" lon="-122.475820"></trkpt>
<trkpt lat="37.803320" lon="-122.476040"></trkpt>
<trkpt lat="37.803190" lon="-122.476110"></trkpt>
<trkpt lat="37.803280" lon="-122.476400"></trkpt>
<trkpt lat="37.803280" lon="-122.476420"></trkpt>
<trkpt lat="37.803220" lon="-122.476450"></trkpt>
<trkpt lat="37.803180" lon="-122.476480"></trkpt>
<trkpt lat="37.803160" lon="-122.476510"></trkpt>
<trkpt lat="37.803140" lon="-122.476570"></trkpt>
<trkpt lat="37.803160" lon="-122.476930"></trkpt>
<trkpt lat="37.803170" lon="-122.476970"></trkpt>
<trkpt lat="37.803160" lon="-122.477040"></trkpt>
<trkpt lat="37.803110" lon="-122.477150"></trkpt>
<trkpt lat="37.803070" lon="-122.477290"></trkpt>
<trkpt lat="37.803010" lon="-122.477430"></trkpt>
<trkpt lat="37.802840" lon="-122.477500"></trkpt>
<trkpt lat="37.802760" lon="-122.477570"></trkpt>
<trkpt lat="37.802680" lon="-122.477640"></trkpt>
<trkpt lat="37.802680" lon="-122.477640"></trkpt>
<trkpt lat="37.802590" lon="-122.477770"></trkpt>
<trkpt lat="37.802560" lon="-122.477730"></trkpt>
<trkpt lat="37.802530" lon="-122.477710"></trkpt>
<trkpt lat="37.802390" lon="-122.477690"></trkpt>
<trkpt lat="37.802290" lon="-122.477740"></trkpt>
<trkpt lat="37.802200" lon="-122.477790"></trkpt>
<trkpt lat="37.802170" lon="-122.477800"></trkpt>
<trkpt lat="37.802080" lon="-122.477840"></trkpt>
<trkpt lat="37.802060" lon="-122.477880"></trkpt>
<trkpt lat="37.802070" lon="-122.477940"></trkpt>
<trkpt lat="37.802080" lon="-122.477960"></trkpt>
<trkpt lat="37.802050" lon="-122.478000"></trkpt>
<trkpt lat="37.802030" lon="-122.478000"></trkpt>
<trkpt lat="37.801980" lon="-122.477980"></trkpt>
<trkpt lat="37.801910" lon="-122.477950"></trkpt>
<trkpt lat="37.801850" lon="-122.477940"></trkpt>
<trkpt lat="37.801830" lon="-122.477900"></trkpt>
<trkpt lat="37.801790" lon="-122.477870"></trkpt>
<trkpt lat="37.801760" lon="-122.477860"></trkpt>
<trkpt lat="37.801750" lon="-122.477890"></trkpt>
<trkpt lat="37.801650" lon="-122.477950"></trkpt>
<trkpt lat="37.801630" lon="-122.477980"></trkpt>
<trkpt lat="37.801670" lon="-122.478050"></trkpt>
<trkpt lat="37.801760" lon="-122.478190"></trkpt>
<trkpt lat="37.801750" lon="-122.478200"></trkpt>
<trkpt lat="37.801760" lon="-122.478270"></trkpt>
<trkpt lat="37.801790" lon="-122.478300"></trkpt>
<trkpt lat="37.801830" lon="-122.478300"></trkpt>
<trkpt lat="37.801880" lon="-122.478300"></trkpt>
<trkpt lat="37.801900" lon="-122.478350"></trkpt>
<trkpt lat="37.801960" lon="-122.478420"></trkpt>
<trkpt lat="37.802040" lon="-122.478570"></trkpt>
<trkpt lat="37.802070" lon="-122.478690"></trkpt>
<trkpt lat="37.802060" lon="-122.478810"></trkpt>
<trkpt lat="37.802050" lon="-122.478880"></trkpt>
<trkpt lat="37.802000" lon="-122.478920"></trkpt>
<trkpt lat="37.801970" lon="-122.478940"></trkpt>
<trkpt lat="37.801940" lon="-122.479070"></trkpt>
<trkpt lat="37.801860" lon="-122.479080"></trkpt>
<trkpt lat="37.801740" lon="-122.479090"></trkpt>
<trkpt lat="37.801690" lon="-122.479110"></trkpt>
<trkpt lat="37.801590" lon="-122.479240"></trkpt>
<trkpt lat="37.801540" lon="-122.479240"></trkpt>
<trkpt lat="37.801510" lon="-122.479270"></trkpt>
<trkpt lat="37.801400" lon="-122.479260"></trkpt>
<trkpt lat="37.801330" lon="-122.479280"></trkpt>
<trkpt lat="37.801270" lon="-122.479260"></trkpt>
<trkpt lat="37.801210" lon="-122.479280"></trkpt>
<trkpt lat="37.801160" lon="-122.479270"></trkpt>
<trkpt lat="37.801120" lon="-122.479250"></trkpt>
<trkpt lat="37.801080" lon="-122.479250"></trkpt>
<trkpt lat="37.801050" lon="-122.479270"></trkpt>
<trkpt lat="37.800950" lon="-122.479270"></trkpt>
<trkpt lat="37.800890" lon="-122.479230"></trkpt>
<trkpt lat="37.800870" lon="-122.479200"></trkpt>
<trkpt lat="37.800810" lon="-122.479170"></trkpt>
<trkpt lat="37.800730" lon="-122.479090"></trkpt>
<trkpt lat="37.800680" lon="-122.479080"></trkpt>
<trkpt lat="37.800510" lon="-122.479120"></trkpt>
<trkpt lat="37.800470" lon="-122.479190"></trkpt>
<trkpt lat="37.800460" lon="-122.479240"></trkpt>
<trkpt lat="37.800390" lon="-122.479290"></trkpt>
<trkpt lat="37.800360" lon="-122.479360"></trkpt>
<trkpt lat="37.800290" lon="-122.479500"></trkpt>
<trkpt lat="37.800280" lon="-122.479540"></trkpt>
<trkpt lat="37.800220" lon="-122.479590"></trkpt>
<trkpt lat="37.800190" lon="-122.479590"></trkpt>
<trkpt lat="37.800110" lon="-122.479540"></trkpt>
<trkpt lat="37.800000" lon="-122.479470"></trkpt>
<trkpt lat="37.800000" lon="-122.479470"></trkpt>
<trkpt lat="37.800040" lon="-122.479610"></trkpt>
<trkpt lat="37.799990" lon="-122.479720"></trkpt>
<trkpt lat="37.799960" lon="-122.479760"></trkpt>
<trkpt lat="37.799930" lon="-122.479770"></trkpt>
<trkpt lat="37.799840" lon="-122.479790"></trkpt>
<trkpt lat="37.799790" lon="-122.479900"></trkpt>
<trkpt lat="37.799790" lon="-122.479980"></trkpt>
<trkpt lat="37.799820" lon="-122.480030"></trkpt>
<trkpt lat="37.799820" lon="-122.480130"></trkpt>
<trkpt lat="37.799780" lon="-122.480250"></trkpt>
<trkpt lat="37.799710" lon="-122.480280"></trkpt>
<trkpt lat="37.799680" lon="-122.480350"></trkpt>
<trkpt lat="37.799650" lon="-122.480390"></trkpt>
<trkpt lat="37.799600" lon="-122.480400"></trkpt>
<trkpt lat="37.799450" lon="-122.480470"></trkpt>
<trkpt lat="37.799370" lon="-122.480530"></trkpt>
<trkpt lat="37.799260" lon="-122.480650"></trkpt>
<trkpt lat="37.799130" lon="-122.480830"></trkpt>
<trkpt lat="37.799090" lon="-122.480860"></trkpt>
<trkpt lat="37.799050" lon="-122.480840"></trkpt>
<trkpt lat="37.799040" lon="-122.480830"></trkpt>
<trkpt lat="37.798990" lon="-122.480730"></trkpt>
<trkpt lat="37.798930" lon="-122.480620"></trkpt>
<trkpt lat="37.798940" lon="-122.480460"></trkpt>
<trkpt lat="37.798880" lon="-122.480380"></trkpt>
<trkpt lat="37.798700" lon="-122.480300"></trkpt>
<trkpt lat="37.798650" lon="-122.480260"></trkpt>
<trkpt lat="37.798580" lon="-122.480060"></trkpt>
<trkpt lat="37.798540" lon="-122.480110"></trkpt>
<trkpt lat="37.798510" lon="-122.480130"></trkpt>
<trkpt lat="37.798440" lon="-122.480150"></trkpt>
<trkpt lat="37.798270" lon="-122.480270"></trkpt>
<trkpt lat="37.798080" lon="-122.480380"></trkpt>
<trkpt lat="37.797990" lon="-122.480380"></trkpt>
<trkpt lat="37.797940" lon="-122.480330"></trkpt>
<trkpt lat="37.797890" lon="-122.480240"></trkpt>
<trkpt lat="37.797800" lon="-122.480040"></trkpt>
<trkpt lat="37.797620" lon="-122.479780"></trkpt>
<trkpt lat="37.797570" lon="-122.479710"></trkpt>
<trkpt lat="37.797530" lon="-122.479590"></trkpt>
<trkpt lat="37.797450" lon="-122.479380"></trkpt>
<trkpt lat="37.797390" lon="-122.479330"></trkpt>
<trkpt lat="37.797340" lon="-122.479330"></trkpt>
<trkpt lat="37.797190" lon="-122.479340"></trkpt>
<trkpt lat="37.797090" lon="-122.479350"></trkpt>
<trkpt lat="37.796960" lon="-122.479410"></trkpt>
<trkpt lat="37.796840" lon="-122.479450"></trkpt>
<trkpt lat="37.796810" lon="-122.479440"></trkpt>
<trkpt lat="37.796760" lon="-122.479340"></trkpt>
<trkpt lat="37.796760" lon="-122.479340"></trkpt>
<trkpt lat="37.796400" lon="-122.479540"></trkpt>
<trkpt lat="37.796100" lon="-122.479650"></trkpt>
<trkpt lat="37.795870" lon="-122.479700"></trkpt>
<trkpt lat="37.795730" lon="-122.479760"></trkpt>
<trkpt lat="37.795610" lon="-122.479930"></trkpt>
<trkpt lat="37.795440" lon="-122.480260"></trkpt>
<trkpt lat="37.795480" lon="-122.480450"></trkpt>
<trkpt lat="37.795480" lon="-122.480630"></trkpt>
<trkpt lat="37.795430" lon="-122.480810"></trkpt>
<trkpt lat="37.795380" lon="-122.480850"></trkpt>
<trkpt lat="37.795330" lon="-122.480860"></trkpt>
<trkpt lat="37.795160" lon="-122.480760"></trkpt>
<trkpt lat="37.795110" lon="-122.480750"></trkpt>
<trkpt lat="37.795050" lon="-122.480770"></trkpt>
<trkpt lat="37.794880" lon="-122.480990"></trkpt>
<trkpt lat="37.794800" lon="-122.481000"></trkpt>
<trkpt lat="37.794670" lon="-122.480930"></trkpt>
<trkpt lat="37.794590" lon="-122.480920"></trkpt>
<trkpt lat="37.794530" lon="-122.480950"></trkpt>
<trkpt lat="37.794470" lon="-122.481180"></trkpt>
<trkpt lat="37.794410" lon="-122.481510"></trkpt>
<trkpt lat="37.794440" lon="-122.481590"></trkpt>
<trkpt lat="37.794510" lon="-122.481670"></trkpt>
<trkpt lat="37.794670" lon="-122.481750"></trkpt>
<trkpt lat="37.794870" lon="-122.481810"></trkpt>
<trkpt lat="37.795050" lon="-122.481920"></trkpt>
<trkpt lat="37.795150" lon="-122.482090"></trkpt>
<trkpt lat="37.795150" lon="-122.482170"></trkpt>
<trkpt lat="37.794980" lon="-122.482360"></trkpt>
<trkpt lat="37.794880" lon="-122.482390"></trkpt>
<trkpt lat="37.794730" lon="-122.482470"></trkpt>
<trkpt lat="37.794460" lon="-122.482620"></trkpt>
<trkpt lat="37.794220" lon="-122.482750"></trkpt>
<trkpt lat="37.794200" lon="-122.482750"></trkpt>
<trkpt lat="37.794200" lon="-122.482750"></trkpt>
<trkpt lat="37.794170" lon="-122.482740"></trkpt>
<trkpt lat="37.794140" lon="-122.482780"></trkpt>
<trkpt lat="37.794120" lon="-122.482800"></trkpt>
<trkpt lat="37.794020" lon="-122.482860"></trkpt>
<trkpt lat="37.793710" lon="-122.483020"></trkpt>
<trkpt lat="37.793580" lon="-122.483080"></trkpt>
<trkpt lat="37.793470" lon="-122.483100"></trkpt>
<trkpt lat="37.793260" lon="-122.483110"></trkpt>
<trkpt lat="37.793200" lon="-122.483140"></trkpt>
<trkpt lat="37.793160" lon="-122.483130"></trkpt>
<trkpt lat="37.793050" lon="-122.483180"></trkpt>
<trkpt lat="37.792380" lon="-122.483500"></trkpt>
<trkpt lat="37.791930" lon="-122.483770"></trkpt>
<trkpt lat="37.791900" lon="-122.483950"></trkpt>
<trkpt lat="37.791870" lon="-122.484270"></trkpt>
<trkpt lat="37.791490" lon="-122.484460"></trkpt>
<trkpt lat="37.791330" lon="-122.484660"></trkpt>
<trkpt lat="37.790900" lon="-122.485080"></trkpt>
<trkpt lat="37.790620" lon="-122.485340"></trkpt>
<trkpt lat="37.790620" lon="-122.485330"></trkpt>
<trkpt lat="37.790570" lon="-122.485340"></trkpt>
<trkpt lat="37.790520" lon="-122.485320"></trkpt>
<trkpt lat="37.790320" lon="-122.485140"></trkpt>
<trkpt lat="37.790290" lon="-122.485170"></trkpt>
<trkpt lat="37.790260" lon="-122.485190"></trkpt>
<trkpt lat="37.790230" lon="-122.485190"></trkpt>
<trkpt lat="37.790030" lon="-122.485150"></trkpt>
<trkpt lat="37.789960" lon="-122.485360"></trkpt>
<trkpt lat="37.789910" lon="-122.485360"></trkpt>
<trkpt lat="37.789880" lon="-122.485380"></trkpt>
<trkpt lat="37.789780" lon="-122.485480"></trkpt>
<trkpt lat="37.789530" lon="-122.485770"></trkpt>
<trkpt lat="37.789510" lon="-122.485730"></trkpt>
<trkpt lat="37.789510" lon="-122.485730"></trkpt>
<trkpt lat="37.789330" lon="-122.485490"></trkpt>
<trkpt lat="37.789110" lon="-122.485330"></trkpt>
<trkpt lat="37.788950" lon="-122.485220"></trkpt>
<trkpt lat="37.788880" lon="-122.486530"></trkpt>
<trkpt lat="37.788850" lon="-122.486760"></trkpt>
<trkpt lat="37.788760" lon="-122.487010"></trkpt>
<trkpt lat="37.788680" lon="-122.488050"></trkpt>
<trkpt lat="37.788550" lon="-122.489380"></trkpt>
<trkpt lat="37.788530" lon="-122.489410"></trkpt>
<trkpt lat="37.788530" lon="-122.489410"></trkpt>
<trkpt lat="37.788480" lon="-122.489450"></trkpt>
<trkpt lat="37.788200" lon="-122.489440"></trkpt>
<trkpt lat="37.788110" lon="-122.489470"></trkpt>
<trkpt lat="37.787820" lon="-122.489680"></trkpt>
<trkpt lat="37.787710" lon="-122.489740"></trkpt>
<trkpt lat="37.787650" lon="-122.489740"></trkpt>
<trkpt lat="37.787600" lon="-122.489730"></trkpt>
<trkpt lat="37.787520" lon="-122.489610"></trkpt>
<trkpt lat="37.787510" lon="-122.489730"></trkpt>
<trkpt lat="37.787290" lon="-122.489740"></trkpt>
<trkpt lat="37.787130" lon="-122.489760"></trkpt>
<trkpt lat="37.787010" lon="-122.489780"></trkpt>
<trkpt lat="37.786820" lon="-122.489850"></trkpt>
<trkpt lat="37.786670" lon="-122.489970"></trkpt>
<trkpt lat="37.786430" lon="-122.490330"></trkpt>
<trkpt lat="37.786310" lon="-122.490580"></trkpt>
<trkpt lat="37.786270" lon="-122.490720"></trkpt>
<trkpt lat="37.786230" lon="-122.490770"></trkpt>
<trkpt lat="37.786160" lon="-122.491120"></trkpt>
<trkpt lat="37.786130" lon="-122.491350"></trkpt>
<trkpt lat="37.786150" lon="-122.491580"></trkpt>
<trkpt lat="37.786260" lon="-122.491890"></trkpt>
<trkpt lat="37.786680" lon="-122.492630"></trkpt>
<trkpt lat="37.786710" lon="-122.492770"></trkpt>
<trkpt lat="37.786650" lon="-122.492990"></trkpt>
<trkpt lat="37.786590" lon="-122.493130"></trkpt>
<trkpt lat="37.786520" lon="-122.493560"></trkpt>
<trkpt lat="37.786480" lon="-122.493780"></trkpt>
<trkpt lat="37.786420" lon="-122.493910"></trkpt>
<trkpt lat="37.786420" lon="-122.493910"></trkpt>
<trkpt lat="37.786370" lon="-122.494010"></trkpt>
<trkpt lat="37.786640" lon="-122.494600"></trkpt>
<trkpt lat="37.786650" lon="-122.495020"></trkpt>
<trkpt lat="37.786590" lon="-122.495740"></trkpt>
<trkpt lat="37.786570" lon="-122.496110"></trkpt>
<trkpt lat="37.786570" lon="-122.496560"></trkpt>
<trkpt lat="37.786610" lon="-122.497350"></trkpt>
<trkpt lat="37.786690" lon="-122.497560"></trkpt>
<trkpt lat="37.786730" lon="-122.497640"></trkpt>
<trkpt lat="37.786830" lon="-122.497760"></trkpt>
<trkpt lat="37.787020" lon="-122.497970"></trkpt>
<trkpt lat="37.787020" lon="-122.497970"></trkpt>
<trkpt lat="37.787230" lon="-122.498180"></trkpt>
<trkpt lat="37.787370" lon="-122.498380"></trkpt>
<trkpt lat="37.787540" lon="-122.498780"></trkpt>
<trkpt lat="37.787610" lon="-122.498920"></trkpt>
<trkpt lat="37.787630" lon="-122.499000"></trkpt>
<trkpt lat="37.787680" lon="-122.499110"></trkpt>
<trkpt lat="37.787690" lon="-122.499190"></trkpt>
<trkpt lat="37.787770" lon="-122.499340"></trkpt>
<trkpt lat="37.787710" lon="-122.499850"></trkpt>
<trkpt lat="37.787520" lon="-122.499970"></trkpt>
<trkpt lat="37.787380" lon="-122.500250"></trkpt>
<trkpt lat="37.787300" lon="-122.500410"></trkpt>
<trkpt lat="37.787310" lon="-122.500490"></trkpt>
<trkpt lat="37.787360" lon="-122.500740"></trkpt>
<trkpt lat="37.787300" lon="-122.500890"></trkpt>
<trkpt lat="37.787140" lon="-122.500990"></trkpt>
<trkpt lat="37.787030" lon="-122.501100"></trkpt>
<trkpt lat="37.787170" lon="-122.501320"></trkpt>
<trkpt lat="37.787300" lon="-122.501540"></trkpt>
<trkpt lat="37.787340" lon="-122.501610"></trkpt>
<trkpt lat="37.787350" lon="-122.501700"></trkpt>
<trkpt lat="37.787360" lon="-122.501840"></trkpt>
<trkpt lat="37.787370" lon="-122.501970"></trkpt>
<trkpt lat="37.787350" lon="-122.502170"></trkpt>
<trkpt lat="37.787280" lon="-122.502380"></trkpt>
<trkpt lat="37.787190" lon="-122.502760"></trkpt>
<trkpt lat="37.787120" lon="-122.503020"></trkpt>
<trkpt lat="37.787060" lon="-122.503290"></trkpt>
<trkpt lat="37.786970" lon="-122.503510"></trkpt>
<trkpt lat="37.786890" lon="-122.503730"></trkpt>
<trkpt lat="37.786810" lon="-122.504090"></trkpt>
<trkpt lat="37.786800" lon="-122.504610"></trkpt>
<trkpt lat="37.786790" lon="-122.504710"></trkpt>
<trkpt lat="37.786760" lon="-122.504810"></trkpt>
<trkpt lat="37.786760" lon="-122.504900"></trkpt>
<trkpt lat="37.786690" lon="-122.504990"></trkpt>
<trkpt lat="37.786600" lon="-122.505100"></trkpt>
<trkpt lat="37.786410" lon="-122.505160"></trkpt>
<trkpt lat="37.786250" lon="-122.505190"></trkpt>
<trkpt lat="37.786210" lon="-122.505190"></trkpt>
<trkpt lat="37.786180" lon="-122.505210"></trkpt>
<trkpt lat="37.786120" lon="-122.505150"></trkpt>
<trkpt lat="37.786060" lon="-122.505120"></trkpt>
<trkpt lat="37.786010" lon="-122.505120"></trkpt>
<trkpt lat="37.785840" lon="-122.505220"></trkpt>
<trkpt lat="37.785700" lon="-122.505220"></trkpt>
<trkpt lat="37.785580" lon="-122.505170"></trkpt>
<trkpt lat="37.785530" lon="-122.505150"></trkpt>
<trkpt lat="37.785270" lon="-122.505130"></trkpt>
<trkpt lat="37.785200" lon="-122.505150"></trkpt>
<trkpt lat="37.785080" lon="-122.505320"></trkpt>
<trkpt lat="37.784910" lon="-122.505540"></trkpt>
<trkpt lat="37.784850" lon="-122.505700"></trkpt>
<trkpt lat="37.784690" lon="-122.505850"></trkpt>
<trkpt lat="37.784670" lon="-122.505890"></trkpt>
<trkpt lat="37.784640" lon="-122.505980"></trkpt>
<trkpt lat="37.784680" lon="-122.506230"></trkpt>
<trkpt lat="37.784690" lon="-122.506360"></trkpt>
<trkpt lat="37.784660" lon="-122.506480"></trkpt>
<trkpt lat="37.784550" lon="-122.506710"></trkpt>
<trkpt lat="37.784520" lon="-122.506840"></trkpt>
<trkpt lat="37.784530" lon="-122.507050"></trkpt>
<trkpt lat="37.784620" lon="-122.507450"></trkpt>
<trkpt lat="37.784640" lon="-122.507680"></trkpt>
<trkpt lat="37.784580" lon="-122.507850"></trkpt>
<trkpt lat="37.784440" lon="-122.508380"></trkpt>
<trkpt lat="37.784350" lon="-122.508640"></trkpt>
<trkpt lat="37.784210" lon="-122.508970"></trkpt>
<trkpt lat="37.783950" lon="-122.509600"></trkpt>
<trkpt lat="37.783850" lon="-122.509750"></trkpt>
<trkpt lat="37.783560" lon="-122.510140"></trkpt>
<trkpt lat="37.783510" lon="-122.510240"></trkpt>
<trkpt lat="37.783500" lon="-122.510320"></trkpt>
<trkpt lat="37.783500" lon="-122.510500"></trkpt>
<trkpt lat="37.783470" lon="-122.510920"></trkpt>
<trkpt lat="37.783420" lon="-122.511180"></trkpt>
<trkpt lat="37.783350" lon="-122.511390"></trkpt>
<trkpt lat="37.783350" lon="-122.511390"></trkpt>
<trkpt lat="37.783210" lon="-122.511600"></trkpt>
<trkpt lat="37.783090" lon="-122.511690"></trkpt>
<trkpt lat="37.782920" lon="-122.511780"></trkpt>
<trkpt lat="37.782790" lon="-122.511790"></trkpt>
<trkpt lat="37.782630" lon="-122.511770"></trkpt>
<trkpt lat="37.782530" lon="-122.511750"></trkpt>
<trkpt lat="37.782380" lon="-122.511640"></trkpt>
<trkpt lat="37.782300" lon="-122.511580"></trkpt>
<trkpt lat="37.782220" lon="-122.511580"></trkpt>
<trkpt lat="37.782140" lon="-122.511650"></trkpt>
<trkpt lat="37.782110" lon="-122.511710"></trkpt>
<trkpt lat="37.782070" lon="-122.511780"></trkpt>
<trkpt lat="37.782000" lon="-122.511940"></trkpt>
<trkpt lat="37.781940" lon="-122.512010"></trkpt>
<trkpt lat="37.781950" lon="-122.512020"></trkpt>
<trkpt lat="37.781950" lon="-122.512040"></trkpt>
<trkpt lat="37.781940" lon="-122.512080"></trkpt>
<trkpt lat="37.781830" lon="-122.512130"></trkpt>
<trkpt lat="37.781610" lon="-122.512190"></trkpt>
<trkpt lat="37.781630" lon="-122.512240"></trkpt>
<trkpt lat="37.781670" lon="-122.512300"></trkpt>
<trkpt lat="37.781670" lon="-122.512360"></trkpt>
<trkpt lat="37.781730" lon="-122.512690"></trkpt>
<trkpt lat="37.781730" lon="-122.512690"></trkpt>
<trkpt lat="37.781670" lon="-122.512410"></trkpt>
<trkpt lat="37.781670" lon="-122.512320"></trkpt>
<trkpt lat="37.781610" lon="-122.512190"></trkpt>
<trkpt lat="37.781540" lon="-122.512190"></trkpt>
<trkpt lat="37.781500" lon="-122.512160"></trkpt>
<trkpt lat="37.781410" lon="-122.511960"></trkpt>
<trkpt lat="37.781330" lon="-122.511830"></trkpt>
<trkpt lat="37.781190" lon="-122.511770"></trkpt>
<trkpt lat="37.780970" lon="-122.511730"></trkpt>
<trkpt lat="37.780720" lon="-122.511750"></trkpt>
<trkpt lat="37.780670" lon="-122.511980"></trkpt>
<trkpt lat="37.779360" lon="-122.511620"></trkpt>
<trkpt lat="37.779310" lon="-122.511700"></trkpt>
<trkpt lat="37.779190" lon="-122.511920"></trkpt>
<trkpt lat="37.779130" lon="-122.512070"></trkpt>
<trkpt lat="37.779090" lon="-122.512280"></trkpt>
<trkpt lat="37.779080" lon="-122.512450"></trkpt>
<trkpt lat="37.779090" lon="-122.512930"></trkpt>
<trkpt lat="37.779080" lon="-122.513050"></trkpt>
<trkpt lat="37.779150" lon="-122.513060"></trkpt>
<trkpt lat="37.779240" lon="-122.513030"></trkpt>
</trkseg></trk>
</gpx>
