<?xml version='1.0' encoding='utf-8'?>
<gpx version="1.1" creator="RunCast" xmlns="http://www.topografix.com/GPX/1/1"><trk><name>sf_bernal_heights</name><trkseg><trkpt lat="37.742200" lon="-122.418600" /><trkpt lat="37.742050" lon="-122.418525" /><trkpt lat="37.741900" lon="-122.418450" /><trkpt lat="37.741750" lon="-122.418375" /><trkpt lat="37.741600" lon="-122.418300" /><trkpt lat="37.741450" lon="-122.418225" /><trkpt lat="37.741300" lon="-122.418150" /><trkpt lat="37.741150" lon="-122.418075" /><trkpt lat="37.741000" lon="-122.418000" /><trkpt lat="37.740833" lon="-122.417978" /><trkpt lat="37.740667" lon="-122.417956" /><trkpt lat="37.740500" lon="-122.417933" /><trkpt lat="37.740333" lon="-122.417911" /><trkpt lat="37.740167" lon="-122.417889" /><trkpt lat="37.740000" lon="-122.417867" /><trkpt lat="37.739833" lon="-122.417844" /><trkpt lat="37.739667" lon="-122.417822" /><trkpt lat="37.739500" lon="-122.417800" /><trkpt lat="37.739333" lon="-122.417878" /><trkpt lat="37.739167" lon="-122.417956" /><trkpt lat="37.739000" lon="-122.418033" /><trkpt lat="37.738833" lon="-122.418111" /><trkpt lat="37.738667" lon="-122.418189" /><trkpt lat="37.738500" lon="-122.418267" /><trkpt lat="37.738333" lon="-122.418344" /><trkpt lat="37.738167" lon="-122.418422" /><trkpt lat="37.738000" lon="-122.418500" /><trkpt lat="37.737938" lon="-122.418687" /><trkpt lat="37.737875" lon="-122.418875" /><trkpt lat="37.737812" lon="-122.419062" /><trkpt lat="37.737750" lon="-122.419250" /><trkpt lat="37.737687" lon="-122.419438" /><trkpt lat="37.737625" lon="-122.419625" /><trkpt lat="37.737562" lon="-122.419813" /><trkpt lat="37.737500" lon="-122.420000" /><trkpt lat="37.737543" lon="-122.420214" /><trkpt lat="37.737586" lon="-122.420429" /><trkpt lat="37.737629" lon="-122.420643" /><trkpt lat="37.737671" lon="-122.420857" /><trkpt lat="37.737714" lon="-122.421071" /><trkpt lat="37.737757" lon="-122.421286" /><trkpt lat="37.737800" lon="-122.421500" /><trkpt lat="37.737900" lon="-122.421662" /><trkpt lat="37.738000" lon="-122.421825" /><trkpt lat="37.738100" lon="-122.421988" /><trkpt lat="37.738200" lon="-122.422150" /><trkpt lat="37.738300" lon="-122.422312" /><trkpt lat="37.738400" lon="-122.422475" /><trkpt lat="37.738500" lon="-122.422637" /><trkpt lat="37.738600" lon="-122.422800" /><trkpt lat="37.738750" lon="-122.422925" /><trkpt lat="37.738900" lon="-122.423050" /><trkpt lat="37.739050" lon="-122.423175" /><trkpt lat="37.739200" lon="-122.423300" /><trkpt lat="37.739350" lon="-122.423425" /><trkpt lat="37.739500" lon="-122.423550" /><trkpt lat="37.739650" lon="-122.423675" /><trkpt lat="37.739800" lon="-122.423800" /><trkpt lat="37.739975" lon="-122.423762" /><trkpt lat="37.740150" lon="-122.423725" /><trkpt lat="37.740325" lon="-122.423687" /><trkpt lat="37.740500" lon="-122.423650" /><trkpt lat="37.740675" lon="-122.423613" /><trkpt lat="37.740850" lon="-122.423575" /><trkpt lat="37.741025" lon="-122.423538" /><trkpt lat="37.741200" lon="-122.423500" /><trkpt lat="37.741311" lon="-122.423333" /><trkpt lat="37.741422" lon="-122.423167" /><trkpt lat="37.741533" lon="-122.423000" /><trkpt lat="37.741644" lon="-122.422833" /><trkpt lat="37.741756" lon="-122.422667" /><trkpt lat="37.741867" lon="-122.422500" /><trkpt lat="37.741978" lon="-122.422333" /><trkpt lat="37.742089" lon="-122.422167" /><trkpt lat="37.742200" lon="-122.422000" /><trkpt lat="37.742233" lon="-122.421778" /><trkpt lat="37.742267" lon="-122.421556" /><trkpt lat="37.742300" lon="-122.421333" /><trkpt lat="37.742333" lon="-122.421111" /><trkpt lat="37.742367" lon="-122.420889" /><trkpt lat="37.742400" lon="-122.420667" /><trkpt lat="37.742433" lon="-122.420444" /><trkpt lat="37.742467" lon="-122.420222" /><trkpt lat="37.742500" lon="-122.420000" /><trkpt lat="37.742457" lon="-122.419800" /><trkpt lat="37.742414" lon="-122.419600" /><trkpt lat="37.742371" lon="-122.419400" /><trkpt lat="37.742329" lon="-122.419200" /><trkpt lat="37.742286" lon="-122.419000" /><trkpt lat="37.742243" lon="-122.418800" /><trkpt lat="37.742200" lon="-122.418600" /></trkseg></trk></gpx>