<?xml version='1.0' encoding='utf-8'?>
<gpx version="1.1" creator="RunCast" xmlns="http://www.topografix.com/GPX/1/1"><trk><name>sf_crissy_to_baker</name><trkseg><trkpt lat="37.804579" lon="-122.443933" /><trkpt lat="37.804629" lon="-122.443938" /><trkpt lat="37.804562" lon="-122.443881" /><trkpt lat="37.804569" lon="-122.443795" /><trkpt lat="37.804575" lon="-122.443731" /><trkpt lat="37.804606" lon="-122.443518" /><trkpt lat="37.804638" lon="-122.443305" /><trkpt lat="37.804669" lon="-122.443092" /><trkpt lat="37.804701" lon="-122.442878" /><trkpt lat="37.804732" lon="-122.442665" /><trkpt lat="37.804764" lon="-122.442452" /><trkpt lat="37.804795" lon="-122.442239" /><trkpt lat="37.804742" lon="-122.442212" /><trkpt lat="37.804682" lon="-122.442198" /><trkpt lat="37.804525" lon="-122.442169" /><trkpt lat="37.804369" lon="-122.442139" /><trkpt lat="37.804246" lon="-122.442114" /><trkpt lat="37.804122" lon="-122.442090" /><trkpt lat="37.803999" lon="-122.442065" /><trkpt lat="37.803968" lon="-122.442273" /><trkpt lat="37.803937" lon="-122.442482" /><trkpt lat="37.803906" lon="-122.442690" /><trkpt lat="37.803875" lon="-122.442899" /><trkpt lat="37.803844" lon="-122.443107" /><trkpt lat="37.803813" lon="-122.443316" /><trkpt lat="37.803782" lon="-122.443524" /><trkpt lat="37.803795" lon="-122.443638" /><trkpt lat="37.803638" lon="-122.443606" /><trkpt lat="37.803647" lon="-122.443541" /><trkpt lat="37.803677" lon="-122.443328" /><trkpt lat="37.803707" lon="-122.443116" /><trkpt lat="37.803737" lon="-122.442903" /><trkpt lat="37.803767" lon="-122.442690" /><trkpt lat="37.803797" lon="-122.442477" /><trkpt lat="37.803827" lon="-122.442265" /><trkpt lat="37.803857" lon="-122.442052" /><trkpt lat="37.803846" lon="-122.441935" /><trkpt lat="37.803848" lon="-122.441872" /><trkpt lat="37.803763" lon="-122.441821" /><trkpt lat="37.803698" lon="-122.441811" /><trkpt lat="37.803545" lon="-122.441783" /><trkpt lat="37.803392" lon="-122.441755" /><trkpt lat="37.803238" lon="-122.441726" /><trkpt lat="37.803085" lon="-122.441698" /><trkpt lat="37.802925" lon="-122.441663" /><trkpt lat="37.802773" lon="-122.441631" /><trkpt lat="37.802621" lon="-122.441599" /><trkpt lat="37.802582" lon="-122.441568" /><trkpt lat="37.802612" lon="-122.441349" /><trkpt lat="37.802643" lon="-122.441130" /><trkpt lat="37.802673" lon="-122.440911" /><trkpt lat="37.802831" lon="-122.440937" /><trkpt lat="37.802988" lon="-122.440963" /><trkpt lat="37.803146" lon="-122.440989" /><trkpt lat="37.803303" lon="-122.441015" /><trkpt lat="37.803461" lon="-122.441041" /><trkpt lat="37.803618" lon="-122.441067" /><trkpt lat="37.803776" lon="-122.441093" /><trkpt lat="37.803756" lon="-122.441272" /><trkpt lat="37.803737" lon="-122.441452" /><trkpt lat="37.803717" lon="-122.441631" /><trkpt lat="37.803698" lon="-122.441811" /><trkpt lat="37.803761" lon="-122.441921" /><trkpt lat="37.803824" lon="-122.442030" /><trkpt lat="37.803650" lon="-122.441995" /><trkpt lat="37.803476" lon="-122.441959" /><trkpt lat="37.803301" lon="-122.441924" /><trkpt lat="37.803127" lon="-122.441889" /><trkpt lat="37.803066" lon="-122.441858" /><trkpt lat="37.802977" lon="-122.441866" /><trkpt lat="37.802925" lon="-122.441856" /><trkpt lat="37.802851" lon="-122.441840" /><trkpt lat="37.802702" lon="-122.441809" /><trkpt lat="37.802554" lon="-122.441778" /><trkpt lat="37.802405" lon="-122.441748" /><trkpt lat="37.802257" lon="-122.441717" /><trkpt lat="37.802108" lon="-122.441686" /><trkpt lat="37.802046" lon="-122.441673" /><trkpt lat="37.801983" lon="-122.441660" /><trkpt lat="37.801976" lon="-122.441873" /><trkpt lat="37.801970" lon="-122.442086" /><trkpt lat="37.801963" lon="-122.442299" /><trkpt lat="37.801956" lon="-122.442512" /><trkpt lat="37.801949" lon="-122.442725" /><trkpt lat="37.801943" lon="-122.442938" /><trkpt lat="37.801936" lon="-122.443151" /><trkpt lat="37.801921" lon="-122.443258" /><trkpt lat="37.801833" lon="-122.443350" /><trkpt lat="37.801766" lon="-122.443336" /><trkpt lat="37.801610" lon="-122.443307" /><trkpt lat="37.801454" lon="-122.443278" /><trkpt lat="37.801298" lon="-122.443250" /><trkpt lat="37.801142" lon="-122.443221" /><trkpt lat="37.800986" lon="-122.443192" /><trkpt lat="37.800959" lon="-122.443400" /><trkpt lat="37.800931" lon="-122.443608" /><trkpt lat="37.800904" lon="-122.443816" /><trkpt lat="37.800877" lon="-122.444025" /><trkpt lat="37.800850" lon="-122.444233" /><trkpt lat="37.800822" lon="-122.444441" /><trkpt lat="37.800795" lon="-122.444649" /><trkpt lat="37.800923" lon="-122.444677" /><trkpt lat="37.801052" lon="-122.444704" /><trkpt lat="37.801180" lon="-122.444732" /><trkpt lat="37.801312" lon="-122.444753" /><trkpt lat="37.801445" lon="-122.444775" /><trkpt lat="37.801577" lon="-122.444796" /><trkpt lat="37.801604" lon="-122.444587" /><trkpt lat="37.801631" lon="-122.444379" /><trkpt lat="37.801658" lon="-122.444170" /><trkpt lat="37.801685" lon="-122.443962" /><trkpt lat="37.801712" lon="-122.443753" /><trkpt lat="37.801739" lon="-122.443545" /><trkpt lat="37.801766" lon="-122.443336" /><trkpt lat="37.801777" lon="-122.443228" /><trkpt lat="37.801789" lon="-122.443115" /><trkpt lat="37.801634" lon="-122.443085" /><trkpt lat="37.801480" lon="-122.443055" /><trkpt lat="37.801325" lon="-122.443026" /><trkpt lat="37.801171" lon="-122.442996" /><trkpt lat="37.801016" lon="-122.442966" /><trkpt lat="37.801040" lon="-122.442757" /><trkpt lat="37.801063" lon="-122.442547" /><trkpt lat="37.801087" lon="-122.442338" /><trkpt lat="37.801111" lon="-122.442129" /><trkpt lat="37.801135" lon="-122.441920" /><trkpt lat="37.801158" lon="-122.441710" /><trkpt lat="37.801182" lon="-122.441501" /><trkpt lat="37.801117" lon="-122.441489" /><trkpt lat="37.801063" lon="-122.441479" /><trkpt lat="37.801060" lon="-122.441372" /><trkpt lat="37.801068" lon="-122.441309" /><trkpt lat="37.801140" lon="-122.441301" /><trkpt lat="37.801203" lon="-122.441314" /><trkpt lat="37.801210" lon="-122.441401" /><trkpt lat="37.801198" lon="-122.441479" /><trkpt lat="37.801355" lon="-122.441515" /><trkpt lat="37.801512" lon="-122.441551" /><trkpt lat="37.801669" lon="-122.441588" /><trkpt lat="37.801826" lon="-122.441624" /><trkpt lat="37.801983" lon="-122.441660" /><trkpt lat="37.801955" lon="-122.441868" /><trkpt lat="37.801928" lon="-122.442076" /><trkpt lat="37.801900" lon="-122.442284" /><trkpt lat="37.801872" lon="-122.442491" /><trkpt lat="37.801844" lon="-122.442699" /><trkpt lat="37.801817" lon="-122.442907" /><trkpt lat="37.801789" lon="-122.443115" /><trkpt lat="37.801861" lon="-122.443132" /><trkpt lat="37.801936" lon="-122.443151" /><trkpt lat="37.801908" lon="-122.443360" /><trkpt lat="37.801879" lon="-122.443569" /><trkpt lat="37.801851" lon="-122.443778" /><trkpt lat="37.801823" lon="-122.443987" /><trkpt lat="37.801795" lon="-122.444197" /><trkpt lat="37.801766" lon="-122.444406" /><trkpt lat="37.801738" lon="-122.444615" /><trkpt lat="37.801710" lon="-122.444824" /><trkpt lat="37.801648" lon="-122.444812" /><trkpt lat="37.801597" lon="-122.444802" /><trkpt lat="37.801564" lon="-122.444893" /><trkpt lat="37.801553" lon="-122.444983" /><trkpt lat="37.801620" lon="-122.445027" /><trkpt lat="37.801682" lon="-122.445040" /><trkpt lat="37.801722" lon="-122.444925" /><trkpt lat="37.801734" lon="-122.444829" /><trkpt lat="37.801704" lon="-122.445032" /><trkpt lat="37.801674" lon="-122.445236" /><trkpt lat="37.801644" lon="-122.445439" /><trkpt lat="37.801614" lon="-122.445642" /><trkpt lat="37.801584" lon="-122.445846" /><trkpt lat="37.801554" lon="-122.446049" /><trkpt lat="37.801524" lon="-122.446253" /><trkpt lat="37.801494" lon="-122.446456" /><trkpt lat="37.801537" lon="-122.446477" /><trkpt lat="37.801702" lon="-122.446509" /><trkpt lat="37.801867" lon="-122.446542" /><trkpt lat="37.801869" lon="-122.446643" /><trkpt lat="37.801870" lon="-122.446705" /><trkpt lat="37.801844" lon="-122.446788" /><trkpt lat="37.801820" lon="-122.446979" /><trkpt lat="37.801796" lon="-122.447169" /><trkpt lat="37.801772" lon="-122.447360" /><trkpt lat="37.801748" lon="-122.447550" /><trkpt lat="37.801724" lon="-122.447741" /><trkpt lat="37.801674" lon="-122.447903" /><trkpt lat="37.801632" lon="-122.448069" /><trkpt lat="37.801627" lon="-122.448170" /><trkpt lat="37.801637" lon="-122.448261" /><trkpt lat="37.801738" lon="-122.448283" /><trkpt lat="37.801868" lon="-122.448223" /><trkpt lat="37.801999" lon="-122.448164" /><trkpt lat="37.802129" lon="-122.448104" /><trkpt lat="37.802098" lon="-122.447894" /><trkpt lat="37.802057" lon="-122.447820" /><trkpt lat="37.802008" lon="-122.447807" /><trkpt lat="37.801958" lon="-122.447779" /><trkpt lat="37.801911" lon="-122.447757" /><trkpt lat="37.802026" lon="-122.447755" /><trkpt lat="37.802057" lon="-122.447820" /><trkpt lat="37.802116" lon="-122.447827" /><trkpt lat="37.802216" lon="-122.447838" /><trkpt lat="37.802303" lon="-122.447878" /><trkpt lat="37.802336" lon="-122.447928" /><trkpt lat="37.802342" lon="-122.447997" /><trkpt lat="37.802317" lon="-122.448081" /><trkpt lat="37.802300" lon="-122.448209" /><trkpt lat="37.802332" lon="-122.448321" /><trkpt lat="37.802395" lon="-122.448426" /><trkpt lat="37.802490" lon="-122.448539" /><trkpt lat="37.802542" lon="-122.448548" /><trkpt lat="37.802606" lon="-122.448482" /><trkpt lat="37.802632" lon="-122.448406" /><trkpt lat="37.802636" lon="-122.448270" /><trkpt lat="37.802623" lon="-122.448155" /><trkpt lat="37.802644" lon="-122.448065" /><trkpt lat="37.802695" lon="-122.448015" /><trkpt lat="37.802794" lon="-122.447967" /><trkpt lat="37.802878" lon="-122.447941" /><trkpt lat="37.802985" lon="-122.447937" /><trkpt lat="37.803067" lon="-122.447985" /><trkpt lat="37.803135" lon="-122.448020" /><trkpt lat="37.803190" lon="-122.448071" /><trkpt lat="37.803231" lon="-122.448126" /><trkpt lat="37.803263" lon="-122.448263" /><trkpt lat="37.803238" lon="-122.448345" /><trkpt lat="37.803221" lon="-122.448400" /><trkpt lat="37.803185" lon="-122.448470" /><trkpt lat="37.803184" lon="-122.448553" /><trkpt lat="37.803216" lon="-122.448628" /><trkpt lat="37.803315" lon="-122.448650" /><trkpt lat="37.803425" lon="-122.448603" /><trkpt lat="37.803487" lon="-122.448565" /><trkpt lat="37.803542" lon="-122.448515" /><trkpt lat="37.803574" lon="-122.448462" /><trkpt lat="37.803583" lon="-122.448397" /><trkpt lat="37.803589" lon="-122.448317" /><trkpt lat="37.803699" lon="-122.448317" /><trkpt lat="37.803617" lon="-122.448139" /><trkpt lat="37.803484" lon="-122.448170" /><trkpt lat="37.803351" lon="-122.448201" /><trkpt lat="37.803217" lon="-122.448233" /><trkpt lat="37.803084" lon="-122.448264" /><trkpt lat="37.803002" lon="-122.448337" /><trkpt lat="37.802921" lon="-122.448410" /><trkpt lat="37.802839" lon="-122.448481" /><trkpt lat="37.802756" lon="-122.448552" /><trkpt lat="37.802660" lon="-122.448646" /><trkpt lat="37.802689" lon="-122.448509" /><trkpt lat="37.802719" lon="-122.448371" /><trkpt lat="37.802820" lon="-122.448390" /><trkpt lat="37.802921" lon="-122.448410" /><trkpt lat="37.803017" lon="-122.448429" /><trkpt lat="37.803114" lon="-122.448448" /><trkpt lat="37.803185" lon="-122.448470" /><trkpt lat="37.803053" lon="-122.448440" /><trkpt lat="37.802921" lon="-122.448410" /><trkpt lat="37.802860" lon="-122.448305" /><trkpt lat="37.802799" lon="-122.448199" /><trkpt lat="37.802860" lon="-122.448305" /><trkpt lat="37.802921" lon="-122.448410" /><trkpt lat="37.802906" lon="-122.448532" /><trkpt lat="37.802891" lon="-122.448653" /><trkpt lat="37.802875" lon="-122.448813" /><trkpt lat="37.802782" lon="-122.448905" /><trkpt lat="37.802672" lon="-122.448866" /><trkpt lat="37.802585" lon="-122.448820" /><trkpt lat="37.802510" lon="-122.448775" /><trkpt lat="37.802423" lon="-122.448706" /><trkpt lat="37.802342" lon="-122.448616" /><trkpt lat="37.802259" lon="-122.448504" /><trkpt lat="37.802183" lon="-122.448368" /><trkpt lat="37.802135" lon="-122.448229" /><trkpt lat="37.802129" lon="-122.448104" /><trkpt lat="37.802127" lon="-122.447993" /><trkpt lat="37.802063" lon="-122.447984" /><trkpt lat="37.801968" lon="-122.447963" /><trkpt lat="37.801872" lon="-122.447942" /><trkpt lat="37.801796" lon="-122.447926" /><trkpt lat="37.801746" lon="-122.447916" /><trkpt lat="37.801674" lon="-122.447903" /><trkpt lat="37.801555" lon="-122.447925" /><trkpt lat="37.801451" lon="-122.447914" /><trkpt lat="37.801288" lon="-122.447890" /><trkpt lat="37.801193" lon="-122.447894" /><trkpt lat="37.801149" lon="-122.447932" /><trkpt lat="37.801135" lon="-122.448019" /><trkpt lat="37.801083" lon="-122.448076" /><trkpt lat="37.801017" lon="-122.448150" /><trkpt lat="37.800956" lon="-122.448176" /><trkpt lat="37.800900" lon="-122.448168" /><trkpt lat="37.800833" lon="-122.448257" /><trkpt lat="37.800815" lon="-122.448331" /><trkpt lat="37.800853" lon="-122.448414" /><trkpt lat="37.800911" lon="-122.448508" /><trkpt lat="37.800969" lon="-122.448601" /><trkpt lat="37.801047" lon="-122.448734" /><trkpt lat="37.801125" lon="-122.448867" /><trkpt lat="37.801063" lon="-122.448926" /><trkpt lat="37.801144" lon="-122.448981" /><trkpt lat="37.801203" lon="-122.449056" /><trkpt lat="37.801228" lon="-122.449106" /><trkpt lat="37.801308" lon="-122.449234" /><trkpt lat="37.801347" lon="-122.449318" /><trkpt lat="37.801403" lon="-122.449442" /><trkpt lat="37.801429" lon="-122.449499" /><trkpt lat="37.801472" lon="-122.449528" /><trkpt lat="37.801473" lon="-122.449543" /><trkpt lat="37.801497" lon="-122.449631" /><trkpt lat="37.801522" lon="-122.449712" /><trkpt lat="37.801569" lon="-122.449824" /><trkpt lat="37.801628" lon="-122.449926" /><trkpt lat="37.801716" lon="-122.450062" /><trkpt lat="37.801805" lon="-122.450198" /><trkpt lat="37.801894" lon="-122.450333" /><trkpt lat="37.801982" lon="-122.450469" /><trkpt lat="37.802078" lon="-122.450615" /><trkpt lat="37.802174" lon="-122.450761" /><trkpt lat="37.802271" lon="-122.450907" /><trkpt lat="37.802367" lon="-122.451053" /><trkpt lat="37.802483" lon="-122.451226" /><trkpt lat="37.802599" lon="-122.451400" /><trkpt lat="37.802715" lon="-122.451573" /><trkpt lat="37.802783" lon="-122.451666" /><trkpt lat="37.802836" lon="-122.451659" /><trkpt lat="37.802840" lon="-122.451726" /><trkpt lat="37.802881" lon="-122.451786" /><trkpt lat="37.802838" lon="-122.451909" /><trkpt lat="37.802863" lon="-122.452039" /><trkpt lat="37.802912" lon="-122.452155" /><trkpt lat="37.802968" lon="-122.452212" /><trkpt lat="37.803070" lon="-122.452234" /><trkpt lat="37.803125" lon="-122.452241" /><trkpt lat="37.803219" lon="-122.452301" /><trkpt lat="37.803269" lon="-122.452333" /><trkpt lat="37.803327" lon="-122.452359" /><trkpt lat="37.803389" lon="-122.452384" /><trkpt lat="37.803446" lon="-122.452399" /><trkpt lat="37.803555" lon="-122.452410" /><trkpt lat="37.803727" lon="-122.452402" /><trkpt lat="37.803833" lon="-122.452443" /><trkpt lat="37.803939" lon="-122.452484" /><trkpt lat="37.803998" lon="-122.452508" /><trkpt lat="37.804047" lon="-122.452691" /><trkpt lat="37.804095" lon="-122.452874" /><trkpt lat="37.804144" lon="-122.453057" /><trkpt lat="37.804193" lon="-122.453239" /><trkpt lat="37.804241" lon="-122.453422" /><trkpt lat="37.804290" lon="-122.453605" /><trkpt lat="37.804275" lon="-122.453732" /><trkpt lat="37.804259" lon="-122.453858" /><trkpt lat="37.804244" lon="-122.453974" /><trkpt lat="37.804226" lon="-122.454122" /><trkpt lat="37.804217" lon="-122.454226" /><trkpt lat="37.804204" lon="-122.454390" /><trkpt lat="37.804188" lon="-122.454515" /><trkpt lat="37.804177" lon="-122.454604" /><trkpt lat="37.804152" lon="-122.454795" /><trkpt lat="37.804127" lon="-122.454986" /><trkpt lat="37.804102" lon="-122.455177" /><trkpt lat="37.804078" lon="-122.455368" /><trkpt lat="37.804053" lon="-122.455559" /><trkpt lat="37.804028" lon="-122.455750" /><trkpt lat="37.804008" lon="-122.455909" /><trkpt lat="37.803981" lon="-122.456120" /><trkpt lat="37.803954" lon="-122.456330" /><trkpt lat="37.803927" lon="-122.456541" /><trkpt lat="37.803900" lon="-122.456751" /><trkpt lat="37.803873" lon="-122.456962" /><trkpt lat="37.803846" lon="-122.457172" /><trkpt lat="37.803819" lon="-122.457383" /><trkpt lat="37.803798" lon="-122.457554" /><trkpt lat="37.803779" lon="-122.457697" /><trkpt lat="37.803744" lon="-122.457914" /><trkpt lat="37.803709" lon="-122.458131" /><trkpt lat="37.803700" lon="-122.458189" /><trkpt lat="37.803680" lon="-122.458345" /><trkpt lat="37.803661" lon="-122.458500" /><trkpt lat="37.803641" lon="-122.458656" /><trkpt lat="37.803627" lon="-122.458786" /><trkpt lat="37.803613" lon="-122.458921" /><trkpt lat="37.803590" lon="-122.459106" /><trkpt lat="37.803567" lon="-122.459292" /><trkpt lat="37.803545" lon="-122.459477" /><trkpt lat="37.803522" lon="-122.459662" /><trkpt lat="37.803504" lon="-122.459772" /><trkpt lat="37.803479" lon="-122.459876" /><trkpt lat="37.803443" lon="-122.459978" /><trkpt lat="37.803393" lon="-122.460089" /><trkpt lat="37.803322" lon="-122.460198" /><trkpt lat="37.803268" lon="-122.460269" /><trkpt lat="37.803201" lon="-122.460353" /><trkpt lat="37.803133" lon="-122.460438" /><trkpt lat="37.803069" lon="-122.460515" /><trkpt lat="37.803017" lon="-122.460588" /><trkpt lat="37.802972" lon="-122.460675" /><trkpt lat="37.802930" lon="-122.460776" /><trkpt lat="37.802902" lon="-122.460874" /><trkpt lat="37.802880" lon="-122.460972" /><trkpt lat="37.802874" lon="-122.461095" /><trkpt lat="37.802870" lon="-122.461164" /><trkpt lat="37.802873" lon="-122.461226" /><trkpt lat="37.802894" lon="-122.461413" /><trkpt lat="37.802915" lon="-122.461600" /><trkpt lat="37.802935" lon="-122.461788" /><trkpt lat="37.802956" lon="-122.461975" /><trkpt lat="37.802977" lon="-122.462162" /><trkpt lat="37.802999" lon="-122.462350" /><trkpt lat="37.803023" lon="-122.462563" /><trkpt lat="37.803047" lon="-122.462776" /><trkpt lat="37.803070" lon="-122.462989" /><trkpt lat="37.803094" lon="-122.463202" /><trkpt lat="37.803118" lon="-122.463414" /><trkpt lat="37.803142" lon="-122.463627" /><trkpt lat="37.803166" lon="-122.463840" /><trkpt lat="37.803189" lon="-122.464053" /><trkpt lat="37.803213" lon="-122.464266" /><trkpt lat="37.803237" lon="-122.464479" /><trkpt lat="37.803257" lon="-122.464652" /><trkpt lat="37.803277" lon="-122.464824" /><trkpt lat="37.803296" lon="-122.464996" /><trkpt lat="37.803316" lon="-122.465169" /><trkpt lat="37.803335" lon="-122.465335" /><trkpt lat="37.803354" lon="-122.465500" /><trkpt lat="37.803369" lon="-122.465632" /><trkpt lat="37.803384" lon="-122.465754" /><trkpt lat="37.803402" lon="-122.465873" /><trkpt lat="37.803434" lon="-122.466070" /><trkpt lat="37.803465" lon="-122.466266" /><trkpt lat="37.803497" lon="-122.466463" /><trkpt lat="37.803388" lon="-122.466638" /><trkpt lat="37.803279" lon="-122.466813" /><trkpt lat="37.803170" lon="-122.466988" /><trkpt lat="37.803061" lon="-122.467163" /><trkpt lat="37.802952" lon="-122.467338" /><trkpt lat="37.802843" lon="-122.467513" /><trkpt lat="37.802734" lon="-122.467688" /><trkpt lat="37.802626" lon="-122.467863" /><trkpt lat="37.802517" lon="-122.468038" /><trkpt lat="37.802408" lon="-122.468213" /><trkpt lat="37.802299" lon="-122.468388" /><trkpt lat="37.802190" lon="-122.468563" /><trkpt lat="37.802081" lon="-122.468738" /><trkpt lat="37.801972" lon="-122.468913" /><trkpt lat="37.801826" lon="-122.468905" /><trkpt lat="37.801680" lon="-122.468897" /><trkpt lat="37.801533" lon="-122.468890" /><trkpt lat="37.801387" lon="-122.468882" /><trkpt lat="37.801241" lon="-122.468874" /><trkpt lat="37.801237" lon="-122.468952" /><trkpt lat="37.801233" lon="-122.469053" /><trkpt lat="37.801211" lon="-122.469109" /><trkpt lat="37.801088" lon="-122.469187" /><trkpt lat="37.800965" lon="-122.469264" /><trkpt lat="37.800949" lon="-122.469489" /><trkpt lat="37.800933" lon="-122.469714" /><trkpt lat="37.800818" lon="-122.469866" /><trkpt lat="37.800703" lon="-122.470019" /><trkpt lat="37.800588" lon="-122.470171" /><trkpt lat="37.800473" lon="-122.470324" /><trkpt lat="37.800358" lon="-122.470476" /><trkpt lat="37.800319" lon="-122.470659" /><trkpt lat="37.800283" lon="-122.470795" /><trkpt lat="37.800247" lon="-122.470931" /><trkpt lat="37.800216" lon="-122.471048" /><trkpt lat="37.800184" lon="-122.471166" /><trkpt lat="37.800110" lon="-122.471288" /><trkpt lat="37.800035" lon="-122.471410" /><trkpt lat="37.799948" lon="-122.471538" /><trkpt lat="37.799861" lon="-122.471666" /><trkpt lat="37.799788" lon="-122.471789" /><trkpt lat="37.799715" lon="-122.471913" /><trkpt lat="37.799644" lon="-122.472043" /><trkpt lat="37.799574" lon="-122.472172" /><trkpt lat="37.799475" lon="-122.472174" /><trkpt lat="37.799413" lon="-122.472268" /><trkpt lat="37.799350" lon="-122.472362" /><trkpt lat="37.799247" lon="-122.472518" /><trkpt lat="37.799143" lon="-122.472675" /><trkpt lat="37.799040" lon="-122.472831" /><trkpt lat="37.799012" lon="-122.472887" /><trkpt lat="37.798954" lon="-122.472842" /><trkpt lat="37.798877" lon="-122.472781" /><trkpt lat="37.798800" lon="-122.472720" /><trkpt lat="37.798753" lon="-122.472675" /><trkpt lat="37.798760" lon="-122.472878" /><trkpt lat="37.798768" lon="-122.473081" /><trkpt lat="37.798775" lon="-122.473284" /><trkpt lat="37.798821" lon="-122.473292" /><trkpt lat="37.798885" lon="-122.473281" /><trkpt lat="37.798950" lon="-122.473179" /><trkpt lat="37.798991" lon="-122.473153" /><trkpt lat="37.799098" lon="-122.473117" /><trkpt lat="37.799205" lon="-122.473081" /><trkpt lat="37.799235" lon="-122.473145" /><trkpt lat="37.799326" lon="-122.473286" /><trkpt lat="37.799328" lon="-122.473413" /><trkpt lat="37.799319" lon="-122.473504" /><trkpt lat="37.799310" lon="-122.473576" /><trkpt lat="37.799299" lon="-122.473667" /><trkpt lat="37.799273" lon="-122.473768" /><trkpt lat="37.799248" lon="-122.473854" /><trkpt lat="37.799184" lon="-122.473974" /><trkpt lat="37.799121" lon="-122.474095" /><trkpt lat="37.799096" lon="-122.474190" /><trkpt lat="37.799181" lon="-122.474251" /><trkpt lat="37.799206" lon="-122.474320" /><trkpt lat="37.799359" lon="-122.474397" /><trkpt lat="37.799512" lon="-122.474473" /><trkpt lat="37.799665" lon="-122.474550" /><trkpt lat="37.799732" lon="-122.474563" /><trkpt lat="37.799775" lon="-122.474540" /><trkpt lat="37.799799" lon="-122.474483" /><trkpt lat="37.799789" lon="-122.474421" /><trkpt lat="37.799750" lon="-122.474381" /><trkpt lat="37.799699" lon="-122.474381" /><trkpt lat="37.799663" lon="-122.474418" /><trkpt lat="37.799651" lon="-122.474475" /><trkpt lat="37.799669" lon="-122.474531" /><trkpt lat="37.799814" lon="-122.474570" /><trkpt lat="37.799868" lon="-122.474594" /><trkpt lat="37.799920" lon="-122.474642" /><trkpt lat="37.800033" lon="-122.474614" /><trkpt lat="37.800145" lon="-122.474586" /><trkpt lat="37.800049" lon="-122.474613" /><trkpt lat="37.799952" lon="-122.474640" /><trkpt lat="37.799954" lon="-122.474770" /><trkpt lat="37.800041" lon="-122.474806" /><trkpt lat="37.800127" lon="-122.474841" /><trkpt lat="37.800251" lon="-122.474894" /><trkpt lat="37.800376" lon="-122.474947" /><trkpt lat="37.800500" lon="-122.475000" /><trkpt lat="37.800419" lon="-122.475135" /><trkpt lat="37.800338" lon="-122.475270" /><trkpt lat="37.800257" lon="-122.475405" /><trkpt lat="37.800176" lon="-122.475541" /><trkpt lat="37.800095" lon="-122.475676" /><trkpt lat="37.800014" lon="-122.475811" /><trkpt lat="37.799932" lon="-122.475946" /><trkpt lat="37.799851" lon="-122.476081" /><trkpt lat="37.799770" lon="-122.476216" /><trkpt lat="37.799689" lon="-122.476351" /><trkpt lat="37.799608" lon="-122.476486" /><trkpt lat="37.799527" lon="-122.476622" /><trkpt lat="37.799446" lon="-122.476757" /><trkpt lat="37.799365" lon="-122.476892" /><trkpt lat="37.799284" lon="-122.477027" /><trkpt lat="37.799203" lon="-122.477162" /><trkpt lat="37.799122" lon="-122.477297" /><trkpt lat="37.799041" lon="-122.477432" /><trkpt lat="37.798959" lon="-122.477568" /><trkpt lat="37.798878" lon="-122.477703" /><trkpt lat="37.798797" lon="-122.477838" /><trkpt lat="37.798716" lon="-122.477973" /><trkpt lat="37.798635" lon="-122.478108" /><trkpt lat="37.798554" lon="-122.478243" /><trkpt lat="37.798473" lon="-122.478378" /><trkpt lat="37.798392" lon="-122.478514" /><trkpt lat="37.798311" lon="-122.478649" /><trkpt lat="37.798230" lon="-122.478784" /><trkpt lat="37.798149" lon="-122.478919" /><trkpt lat="37.798068" lon="-122.479054" /><trkpt lat="37.797986" lon="-122.479189" /><trkpt lat="37.797905" lon="-122.479324" /><trkpt lat="37.797824" lon="-122.479459" /><trkpt lat="37.797743" lon="-122.479595" /><trkpt lat="37.797662" lon="-122.479730" /><trkpt lat="37.797581" lon="-122.479865" /><trkpt lat="37.797500" lon="-122.480000" /><trkpt lat="37.797381" lon="-122.479869" /><trkpt lat="37.797262" lon="-122.479739" /><trkpt lat="37.797142" lon="-122.479608" /><trkpt lat="37.797023" lon="-122.479478" /><trkpt lat="37.796904" lon="-122.479347" /><trkpt lat="37.796808" lon="-122.479436" /><trkpt lat="37.796672" lon="-122.479506" /><trkpt lat="37.796537" lon="-122.479576" /><trkpt lat="37.796410" lon="-122.479636" /><trkpt lat="37.796298" lon="-122.479683" /><trkpt lat="37.796211" lon="-122.479717" /><trkpt lat="37.796143" lon="-122.479740" /><trkpt lat="37.796049" lon="-122.479764" /><trkpt lat="37.795971" lon="-122.479771" /><trkpt lat="37.795871" lon="-122.479776" /><trkpt lat="37.795824" lon="-122.479783" /><trkpt lat="37.795782" lon="-122.479805" /><trkpt lat="37.795735" lon="-122.479847" /><trkpt lat="37.795690" lon="-122.479914" /><trkpt lat="37.795654" lon="-122.479975" /><trkpt lat="37.795556" lon="-122.480158" /><trkpt lat="37.795500" lon="-122.480263" /><trkpt lat="37.795477" lon="-122.480326" /><trkpt lat="37.795482" lon="-122.480462" /><trkpt lat="37.795480" lon="-122.480601" /><trkpt lat="37.795468" lon="-122.480715" /><trkpt lat="37.795452" lon="-122.480813" /><trkpt lat="37.795417" lon="-122.480867" /><trkpt lat="37.795360" lon="-122.480897" /><trkpt lat="37.795311" lon="-122.480895" /><trkpt lat="37.795258" lon="-122.480850" /><trkpt lat="37.795204" lon="-122.480788" /><trkpt lat="37.795152" lon="-122.480761" /><trkpt lat="37.795090" lon="-122.480762" /><trkpt lat="37.795043" lon="-122.480802" /><trkpt lat="37.794950" lon="-122.480932" /><trkpt lat="37.794906" lon="-122.480975" /><trkpt lat="37.794849" lon="-122.481008" /><trkpt lat="37.794761" lon="-122.481018" /><trkpt lat="37.794706" lon="-122.480987" /><trkpt lat="37.794647" lon="-122.480928" /><trkpt lat="37.794592" lon="-122.480888" /><trkpt lat="37.794526" lon="-122.480879" /><trkpt lat="37.794480" lon="-122.480898" /><trkpt lat="37.794441" lon="-122.480939" /><trkpt lat="37.794425" lon="-122.481003" /><trkpt lat="37.794436" lon="-122.481104" /><trkpt lat="37.794458" lon="-122.481189" /><trkpt lat="37.794458" lon="-122.481252" /><trkpt lat="37.794447" lon="-122.481332" /><trkpt lat="37.794428" lon="-122.481437" /><trkpt lat="37.794426" lon="-122.481513" /><trkpt lat="37.794436" lon="-122.481575" /><trkpt lat="37.794456" lon="-122.481626" /><trkpt lat="37.794499" lon="-122.481673" /><trkpt lat="37.794567" lon="-122.481724" /><trkpt lat="37.794692" lon="-122.481784" /><trkpt lat="37.794798" lon="-122.481820" /><trkpt lat="37.794908" lon="-122.481845" /><trkpt lat="37.794992" lon="-122.481880" /><trkpt lat="37.795066" lon="-122.481929" /><trkpt lat="37.795110" lon="-122.481976" /><trkpt lat="37.795172" lon="-122.482043" /><trkpt lat="37.795198" lon="-122.482100" /><trkpt lat="37.795169" lon="-122.482169" /><trkpt lat="37.795105" lon="-122.482236" /><trkpt lat="37.795030" lon="-122.482320" /><trkpt lat="37.794941" lon="-122.482413" /><trkpt lat="37.794816" lon="-122.482538" /><trkpt lat="37.794784" lon="-122.482579" /><trkpt lat="37.794763" lon="-122.482669" /></trkseg></trk></gpx>