<?xml version="1.0" encoding="UTF-8"?>
<gpx version="1.1" creator="greatruns-mapmyrun">
<trk><name>sf_candlestick_mclaren</name><trkseg>
<trkpt lat="37.717190" lon="-122.378620"></trkpt>
<trkpt lat="37.717070" lon="-122.378400"></trkpt>
<trkpt lat="37.717060" lon="-122.378340"></trkpt>
<trkpt lat="37.717030" lon="-122.378220"></trkpt>
<trkpt lat="37.716980" lon="-122.377950"></trkpt>
<trkpt lat="37.716940" lon="-122.377800"></trkpt>
<trkpt lat="37.716730" lon="-122.377420"></trkpt>
<trkpt lat="37.716590" lon="-122.377200"></trkpt>
<trkpt lat="37.716420" lon="-122.377070"></trkpt>
<trkpt lat="37.716280" lon="-122.377010"></trkpt>
<trkpt lat="37.716200" lon="-122.376720"></trkpt>
<trkpt lat="37.716010" lon="-122.376410"></trkpt>
<trkpt lat="37.715990" lon="-122.376420"></trkpt>
<trkpt lat="37.715870" lon="-122.376530"></trkpt>
<trkpt lat="37.715870" lon="-122.376530"></trkpt>
<trkpt lat="37.715720" lon="-122.376690"></trkpt>
<trkpt lat="37.715630" lon="-122.376820"></trkpt>
<trkpt lat="37.715460" lon="-122.376950"></trkpt>
<trkpt lat="37.715300" lon="-122.377040"></trkpt>
<trkpt lat="37.715130" lon="-122.377180"></trkpt>
<trkpt lat="37.714980" lon="-122.377350"></trkpt>
<trkpt lat="37.714820" lon="-122.377430"></trkpt>
<trkpt lat="37.714640" lon="-122.377550"></trkpt>
<trkpt lat="37.714480" lon="-122.377660"></trkpt>
<trkpt lat="37.714440" lon="-122.377720"></trkpt>
<trkpt lat="37.714430" lon="-122.377820"></trkpt>
<trkpt lat="37.714440" lon="-122.378100"></trkpt>
<trkpt lat="37.714450" lon="-122.378260"></trkpt>
<trkpt lat="37.714280" lon="-122.378300"></trkpt>
<trkpt lat="37.714260" lon="-122.378640"></trkpt>
<trkpt lat="37.714200" lon="-122.379710"></trkpt>
<trkpt lat="37.714150" lon="-122.380470"></trkpt>
<trkpt lat="37.713680" lon="-122.380470"></trkpt>
<trkpt lat="37.713630" lon="-122.380470"></trkpt>
<trkpt lat="37.713630" lon="-122.380400"></trkpt>
<trkpt lat="37.713610" lon="-122.379900"></trkpt>
<trkpt lat="37.713590" lon="-122.379570"></trkpt>
<trkpt lat="37.713550" lon="-122.379520"></trkpt>
<trkpt lat="37.713420" lon="-122.379430"></trkpt>
<trkpt lat="37.713230" lon="-122.379330"></trkpt>
<trkpt lat="37.713130" lon="-122.379280"></trkpt>
<trkpt lat="37.712980" lon="-122.379240"></trkpt>
<trkpt lat="37.712910" lon="-122.379240"></trkpt>
<trkpt lat="37.712850" lon="-122.379220"></trkpt>
<trkpt lat="37.712960" lon="-122.379150"></trkpt>
<trkpt lat="37.712960" lon="-122.379150"></trkpt>
<trkpt lat="37.712720" lon="-122.379300"></trkpt>
<trkpt lat="37.712630" lon="-122.379370"></trkpt>
<trkpt lat="37.712580" lon="-122.379440"></trkpt>
<trkpt lat="37.712560" lon="-122.379480"></trkpt>
<trkpt lat="37.712460" lon="-122.379510"></trkpt>
<trkpt lat="37.712270" lon="-122.379580"></trkpt>
<trkpt lat="37.712060" lon="-122.379790"></trkpt>
<trkpt lat="37.711810" lon="-122.380010"></trkpt>
<trkpt lat="37.711650" lon="-122.380190"></trkpt>
<trkpt lat="37.711540" lon="-122.380250"></trkpt>
<trkpt lat="37.711430" lon="-122.380340"></trkpt>
<trkpt lat="37.711270" lon="-122.380450"></trkpt>
<trkpt lat="37.711080" lon="-122.380500"></trkpt>
<trkpt lat="37.710920" lon="-122.380490"></trkpt>
<trkpt lat="37.710770" lon="-122.380430"></trkpt>
<trkpt lat="37.710670" lon="-122.380350"></trkpt>
<trkpt lat="37.710450" lon="-122.379960"></trkpt>
<trkpt lat="37.710330" lon="-122.379670"></trkpt>
<trkpt lat="37.710310" lon="-122.379530"></trkpt>
<trkpt lat="37.710280" lon="-122.379450"></trkpt>
<trkpt lat="37.710140" lon="-122.379290"></trkpt>
<trkpt lat="37.710010" lon="-122.379130"></trkpt>
<trkpt lat="37.709900" lon="-122.379030"></trkpt>
<trkpt lat="37.709770" lon="-122.379010"></trkpt>
<trkpt lat="37.709660" lon="-122.379060"></trkpt>
<trkpt lat="37.709540" lon="-122.378980"></trkpt>
<trkpt lat="37.709290" lon="-122.378780"></trkpt>
<trkpt lat="37.709060" lon="-122.378610"></trkpt>
<trkpt lat="37.708840" lon="-122.378440"></trkpt>
<trkpt lat="37.708740" lon="-122.378300"></trkpt>
<trkpt lat="37.708620" lon="-122.378100"></trkpt>
<trkpt lat="37.708560" lon="-122.377980"></trkpt>
<trkpt lat="37.708550" lon="-122.377910"></trkpt>
<trkpt lat="37.708560" lon="-122.377750"></trkpt>
<trkpt lat="37.708700" lon="-122.377240"></trkpt>
<trkpt lat="37.708810" lon="-122.376940"></trkpt>
<trkpt lat="37.708890" lon="-122.376790"></trkpt>
<trkpt lat="37.709080" lon="-122.376610"></trkpt>
<trkpt lat="37.709500" lon="-122.376340"></trkpt>
<trkpt lat="37.709580" lon="-122.376220"></trkpt>
<trkpt lat="37.709620" lon="-122.376090"></trkpt>
<trkpt lat="37.709630" lon="-122.375940"></trkpt>
<trkpt lat="37.709610" lon="-122.375820"></trkpt>
<trkpt lat="37.709470" lon="-122.375540"></trkpt>
<trkpt lat="37.709470" lon="-122.375540"></trkpt>
<trkpt lat="37.709190" lon="-122.375090"></trkpt>
<trkpt lat="37.709020" lon="-122.374770"></trkpt>
<trkpt lat="37.708990" lon="-122.374750"></trkpt>
<trkpt lat="37.708990" lon="-122.374770"></trkpt>
<trkpt lat="37.708990" lon="-122.374780"></trkpt>
<trkpt lat="37.708980" lon="-122.374800"></trkpt>
<trkpt lat="37.708960" lon="-122.374840"></trkpt>
<trkpt lat="37.708920" lon="-122.374860"></trkpt>
<trkpt lat="37.708890" lon="-122.374870"></trkpt>
<trkpt lat="37.708830" lon="-122.374840"></trkpt>
<trkpt lat="37.708800" lon="-122.374790"></trkpt>
<trkpt lat="37.708790" lon="-122.374770"></trkpt>
<trkpt lat="37.708790" lon="-122.374740"></trkpt>
<trkpt lat="37.708710" lon="-122.374730"></trkpt>
<trkpt lat="37.708640" lon="-122.374720"></trkpt>
<trkpt lat="37.708640" lon="-122.374760"></trkpt>
<trkpt lat="37.708600" lon="-122.374920"></trkpt>
<trkpt lat="37.708560" lon="-122.375280"></trkpt>
<trkpt lat="37.708530" lon="-122.375570"></trkpt>
<trkpt lat="37.708500" lon="-122.376090"></trkpt>
<trkpt lat="37.708500" lon="-122.376380"></trkpt>
<trkpt lat="37.708500" lon="-122.376380"></trkpt>
<trkpt lat="37.708540" lon="-122.376740"></trkpt>
<trkpt lat="37.708520" lon="-122.376900"></trkpt>
<trkpt lat="37.708500" lon="-122.377120"></trkpt>
<trkpt lat="37.708510" lon="-122.377220"></trkpt>
<trkpt lat="37.708570" lon="-122.377360"></trkpt>
<trkpt lat="37.708530" lon="-122.377730"></trkpt>
<trkpt lat="37.708520" lon="-122.377930"></trkpt>
<trkpt lat="37.708540" lon="-122.378090"></trkpt>
<trkpt lat="37.708560" lon="-122.378280"></trkpt>
<trkpt lat="37.708580" lon="-122.378590"></trkpt>
<trkpt lat="37.708550" lon="-122.379040"></trkpt>
<trkpt lat="37.708580" lon="-122.379380"></trkpt>
<trkpt lat="37.708600" lon="-122.379490"></trkpt>
<trkpt lat="37.708580" lon="-122.379550"></trkpt>
<trkpt lat="37.708580" lon="-122.379640"></trkpt>
<trkpt lat="37.708600" lon="-122.379760"></trkpt>
<trkpt lat="37.708650" lon="-122.379870"></trkpt>
<trkpt lat="37.708780" lon="-122.380180"></trkpt>
<trkpt lat="37.708870" lon="-122.380390"></trkpt>
<trkpt lat="37.708890" lon="-122.380440"></trkpt>
<trkpt lat="37.708920" lon="-122.380600"></trkpt>
<trkpt lat="37.708920" lon="-122.380840"></trkpt>
<trkpt lat="37.708980" lon="-122.381020"></trkpt>
<trkpt lat="37.709000" lon="-122.381140"></trkpt>
<trkpt lat="37.709000" lon="-122.381260"></trkpt>
<trkpt lat="37.708980" lon="-122.381420"></trkpt>
<trkpt lat="37.709020" lon="-122.381560"></trkpt>
<trkpt lat="37.709070" lon="-122.381600"></trkpt>
<trkpt lat="37.709110" lon="-122.381640"></trkpt>
<trkpt lat="37.709220" lon="-122.382040"></trkpt>
<trkpt lat="37.709240" lon="-122.382120"></trkpt>
<trkpt lat="37.709240" lon="-122.382130"></trkpt>
<trkpt lat="37.709240" lon="-122.382130"></trkpt>
<trkpt lat="37.709270" lon="-122.382920"></trkpt>
<trkpt lat="37.709260" lon="-122.383110"></trkpt>
<trkpt lat="37.709290" lon="-122.383320"></trkpt>
<trkpt lat="37.709280" lon="-122.383610"></trkpt>
<trkpt lat="37.709290" lon="-122.383820"></trkpt>
<trkpt lat="37.709330" lon="-122.384050"></trkpt>
<trkpt lat="37.709410" lon="-122.384390"></trkpt>
<trkpt lat="37.709540" lon="-122.384680"></trkpt>
<trkpt lat="37.709630" lon="-122.384880"></trkpt>
<trkpt lat="37.709850" lon="-122.385230"></trkpt>
<trkpt lat="37.710520" lon="-122.386010"></trkpt>
<trkpt lat="37.710820" lon="-122.386340"></trkpt>
<trkpt lat="37.710870" lon="-122.386440"></trkpt>
<trkpt lat="37.710870" lon="-122.386520"></trkpt>
<trkpt lat="37.710840" lon="-122.386700"></trkpt>
<trkpt lat="37.710760" lon="-122.386790"></trkpt>
<trkpt lat="37.710670" lon="-122.386830"></trkpt>
<trkpt lat="37.710510" lon="-122.386880"></trkpt>
<trkpt lat="37.710330" lon="-122.386870"></trkpt>
<trkpt lat="37.710110" lon="-122.386870"></trkpt>
<trkpt lat="37.710040" lon="-122.386890"></trkpt>
<trkpt lat="37.709940" lon="-122.386970"></trkpt>
<trkpt lat="37.709790" lon="-122.387270"></trkpt>
<trkpt lat="37.709710" lon="-122.387390"></trkpt>
<trkpt lat="37.709570" lon="-122.387540"></trkpt>
<trkpt lat="37.709220" lon="-122.387820"></trkpt>
<trkpt lat="37.709080" lon="-122.387980"></trkpt>
<trkpt lat="37.709080" lon="-122.387980"></trkpt>
<trkpt lat="37.709010" lon="-122.388130"></trkpt>
<trkpt lat="37.709000" lon="-122.388200"></trkpt>
<trkpt lat="37.709020" lon="-122.388360"></trkpt>
<trkpt lat="37.709100" lon="-122.388520"></trkpt>
<trkpt lat="37.709240" lon="-122.388720"></trkpt>
<trkpt lat="37.709400" lon="-122.389080"></trkpt>
<trkpt lat="37.709520" lon="-122.389330"></trkpt>
<trkpt lat="37.709540" lon="-122.389370"></trkpt>
<trkpt lat="37.709680" lon="-122.389500"></trkpt>
<trkpt lat="37.709790" lon="-122.389660"></trkpt>
<trkpt lat="37.709820" lon="-122.389770"></trkpt>
<trkpt lat="37.709800" lon="-122.389860"></trkpt>
<trkpt lat="37.709760" lon="-122.389990"></trkpt>
<trkpt lat="37.709700" lon="-122.390090"></trkpt>
<trkpt lat="37.709500" lon="-122.390360"></trkpt>
<trkpt lat="37.709450" lon="-122.390520"></trkpt>
<trkpt lat="37.709440" lon="-122.390650"></trkpt>
<trkpt lat="37.709450" lon="-122.390740"></trkpt>
<trkpt lat="37.709510" lon="-122.390880"></trkpt>
<trkpt lat="37.709610" lon="-122.391080"></trkpt>
<trkpt lat="37.709800" lon="-122.391470"></trkpt>
<trkpt lat="37.709820" lon="-122.391570"></trkpt>
<trkpt lat="37.709800" lon="-122.391620"></trkpt>
<trkpt lat="37.709760" lon="-122.391660"></trkpt>
<trkpt lat="37.709640" lon="-122.391750"></trkpt>
<trkpt lat="37.709200" lon="-122.392300"></trkpt>
<trkpt lat="37.708490" lon="-122.393190"></trkpt>
<trkpt lat="37.707790" lon="-122.394050"></trkpt>
<trkpt lat="37.707700" lon="-122.394120"></trkpt>
<trkpt lat="37.707600" lon="-122.394180"></trkpt>
<trkpt lat="37.707470" lon="-122.394210"></trkpt>
<trkpt lat="37.707180" lon="-122.394170"></trkpt>
<trkpt lat="37.706860" lon="-122.394080"></trkpt>
<trkpt lat="37.706750" lon="-122.394020"></trkpt>
<trkpt lat="37.705770" lon="-122.393360"></trkpt>
<trkpt lat="37.705750" lon="-122.393350"></trkpt>
</trkseg></trk>
</gpx>
