<?xml version="1.0" encoding="UTF-8"?>
<gpx version="1.1" creator="google-directions">
<trk><name>sf_crissy_to_baker</name><trkseg>
<trkpt lat="37.804410" lon="-122.445100"></trkpt>
<trkpt lat="37.804380" lon="-122.445380"></trkpt>
<trkpt lat="37.804360" lon="-122.445570"></trkpt>
<trkpt lat="37.804490" lon="-122.445580"></trkpt>
<trkpt lat="37.804530" lon="-122.445590"></trkpt>
<trkpt lat="37.805170" lon="-122.445720"></trkpt>
<trkpt lat="37.805270" lon="-122.445750"></trkpt>
<trkpt lat="37.805310" lon="-122.445760"></trkpt>
<trkpt lat="37.805300" lon="-122.445810"></trkpt>
<trkpt lat="37.805240" lon="-122.446300"></trkpt>
<trkpt lat="37.805210" lon="-122.446410"></trkpt>
<trkpt lat="37.805200" lon="-122.446510"></trkpt>
<trkpt lat="37.805170" lon="-122.446730"></trkpt>
<trkpt lat="37.805170" lon="-122.446820"></trkpt>
<trkpt lat="37.805120" lon="-122.447150"></trkpt>
<trkpt lat="37.805110" lon="-122.447210"></trkpt>
<trkpt lat="37.805270" lon="-122.447240"></trkpt>
<trkpt lat="37.805260" lon="-122.447400"></trkpt>
<trkpt lat="37.805220" lon="-122.447720"></trkpt>
<trkpt lat="37.805140" lon="-122.447900"></trkpt>
<trkpt lat="37.805140" lon="-122.447990"></trkpt>
<trkpt lat="37.805120" lon="-122.448060"></trkpt>
<trkpt lat="37.805110" lon="-122.448130"></trkpt>
<trkpt lat="37.805090" lon="-122.448210"></trkpt>
<trkpt lat="37.805080" lon="-122.448290"></trkpt>
<trkpt lat="37.805110" lon="-122.448290"></trkpt>
<trkpt lat="37.805130" lon="-122.448280"></trkpt>
<trkpt lat="37.805140" lon="-122.448280"></trkpt>
<trkpt lat="37.805150" lon="-122.448280"></trkpt>
<trkpt lat="37.805150" lon="-122.448310"></trkpt>
<trkpt lat="37.805130" lon="-122.448450"></trkpt>
<trkpt lat="37.805090" lon="-122.448450"></trkpt>
<trkpt lat="37.805060" lon="-122.448460"></trkpt>
<trkpt lat="37.805040" lon="-122.448590"></trkpt>
<trkpt lat="37.805030" lon="-122.448610"></trkpt>
<trkpt lat="37.805030" lon="-122.448640"></trkpt>
<trkpt lat="37.805010" lon="-122.448710"></trkpt>
<trkpt lat="37.804880" lon="-122.449470"></trkpt>
<trkpt lat="37.804810" lon="-122.449980"></trkpt>
<trkpt lat="37.804790" lon="-122.450110"></trkpt>
<trkpt lat="37.804790" lon="-122.450150"></trkpt>
<trkpt lat="37.804800" lon="-122.450150"></trkpt>
<trkpt lat="37.804790" lon="-122.450220"></trkpt>
<trkpt lat="37.804780" lon="-122.450220"></trkpt>
<trkpt lat="37.804780" lon="-122.450250"></trkpt>
<trkpt lat="37.804690" lon="-122.450880"></trkpt>
<trkpt lat="37.804690" lon="-122.450920"></trkpt>
<trkpt lat="37.804680" lon="-122.450980"></trkpt>
<trkpt lat="37.804670" lon="-122.451050"></trkpt>
<trkpt lat="37.804670" lon="-122.451080"></trkpt>
<trkpt lat="37.804600" lon="-122.451610"></trkpt>
<trkpt lat="37.804610" lon="-122.451740"></trkpt>
<trkpt lat="37.804600" lon="-122.451780"></trkpt>
<trkpt lat="37.804560" lon="-122.451900"></trkpt>
<trkpt lat="37.804540" lon="-122.452060"></trkpt>
<trkpt lat="37.804520" lon="-122.452180"></trkpt>
<trkpt lat="37.804520" lon="-122.452200"></trkpt>
<trkpt lat="37.804480" lon="-122.452530"></trkpt>
<trkpt lat="37.804480" lon="-122.452540"></trkpt>
<trkpt lat="37.804450" lon="-122.452730"></trkpt>
<trkpt lat="37.804420" lon="-122.452970"></trkpt>
<trkpt lat="37.804420" lon="-122.453040"></trkpt>
<trkpt lat="37.804410" lon="-122.453100"></trkpt>
<trkpt lat="37.804400" lon="-122.453120"></trkpt>
<trkpt lat="37.804380" lon="-122.453280"></trkpt>
<trkpt lat="37.804360" lon="-122.453490"></trkpt>
<trkpt lat="37.804340" lon="-122.453590"></trkpt>
<trkpt lat="37.804340" lon="-122.453630"></trkpt>
<trkpt lat="37.804310" lon="-122.453830"></trkpt>
<trkpt lat="37.804290" lon="-122.453940"></trkpt>
<trkpt lat="37.804270" lon="-122.454110"></trkpt>
<trkpt lat="37.804260" lon="-122.454150"></trkpt>
<trkpt lat="37.804260" lon="-122.454270"></trkpt>
<trkpt lat="37.804250" lon="-122.454340"></trkpt>
<trkpt lat="37.804250" lon="-122.454380"></trkpt>
<trkpt lat="37.804240" lon="-122.454470"></trkpt>
<trkpt lat="37.804240" lon="-122.454480"></trkpt>
<trkpt lat="37.804220" lon="-122.454590"></trkpt>
<trkpt lat="37.804200" lon="-122.454720"></trkpt>
<trkpt lat="37.804180" lon="-122.454910"></trkpt>
<trkpt lat="37.804130" lon="-122.455280"></trkpt>
<trkpt lat="37.804090" lon="-122.455620"></trkpt>
<trkpt lat="37.804050" lon="-122.455950"></trkpt>
<trkpt lat="37.804030" lon="-122.456090"></trkpt>
<trkpt lat="37.803960" lon="-122.456640"></trkpt>
<trkpt lat="37.803840" lon="-122.457550"></trkpt>
<trkpt lat="37.803820" lon="-122.457700"></trkpt>
<trkpt lat="37.803710" lon="-122.458590"></trkpt>
<trkpt lat="37.803680" lon="-122.458820"></trkpt>
<trkpt lat="37.803610" lon="-122.459380"></trkpt>
<trkpt lat="37.803560" lon="-122.459710"></trkpt>
<trkpt lat="37.803540" lon="-122.459840"></trkpt>
<trkpt lat="37.803490" lon="-122.459990"></trkpt>
<trkpt lat="37.803470" lon="-122.460050"></trkpt>
<trkpt lat="37.803430" lon="-122.460120"></trkpt>
<trkpt lat="37.803350" lon="-122.460250"></trkpt>
<trkpt lat="37.803290" lon="-122.460330"></trkpt>
<trkpt lat="37.803250" lon="-122.460370"></trkpt>
<trkpt lat="37.803220" lon="-122.460410"></trkpt>
<trkpt lat="37.803160" lon="-122.460490"></trkpt>
<trkpt lat="37.803160" lon="-122.460500"></trkpt>
<trkpt lat="37.803140" lon="-122.460530"></trkpt>
<trkpt lat="37.803120" lon="-122.460550"></trkpt>
<trkpt lat="37.803080" lon="-122.460610"></trkpt>
<trkpt lat="37.803060" lon="-122.460640"></trkpt>
<trkpt lat="37.803030" lon="-122.460690"></trkpt>
<trkpt lat="37.803010" lon="-122.460730"></trkpt>
<trkpt lat="37.802980" lon="-122.460790"></trkpt>
<trkpt lat="37.802960" lon="-122.460840"></trkpt>
<trkpt lat="37.802950" lon="-122.460890"></trkpt>
<trkpt lat="37.802940" lon="-122.460950"></trkpt>
<trkpt lat="37.802940" lon="-122.460960"></trkpt>
<trkpt lat="37.802930" lon="-122.460980"></trkpt>
<trkpt lat="37.802930" lon="-122.461000"></trkpt>
<trkpt lat="37.802930" lon="-122.461050"></trkpt>
<trkpt lat="37.802920" lon="-122.461100"></trkpt>
<trkpt lat="37.802920" lon="-122.461140"></trkpt>
<trkpt lat="37.802920" lon="-122.461170"></trkpt>
<trkpt lat="37.802920" lon="-122.461190"></trkpt>
<trkpt lat="37.802920" lon="-122.461220"></trkpt>
<trkpt lat="37.802930" lon="-122.461280"></trkpt>
<trkpt lat="37.802930" lon="-122.461340"></trkpt>
<trkpt lat="37.802980" lon="-122.461760"></trkpt>
<trkpt lat="37.803020" lon="-122.462130"></trkpt>
<trkpt lat="37.803040" lon="-122.462300"></trkpt>
<trkpt lat="37.803040" lon="-122.462330"></trkpt>
<trkpt lat="37.803040" lon="-122.462360"></trkpt>
<trkpt lat="37.803050" lon="-122.462390"></trkpt>
<trkpt lat="37.803100" lon="-122.462860"></trkpt>
<trkpt lat="37.803120" lon="-122.462990"></trkpt>
<trkpt lat="37.803130" lon="-122.463030"></trkpt>
<trkpt lat="37.803130" lon="-122.463040"></trkpt>
<trkpt lat="37.803150" lon="-122.463250"></trkpt>
<trkpt lat="37.803210" lon="-122.463760"></trkpt>
<trkpt lat="37.803220" lon="-122.463810"></trkpt>
<trkpt lat="37.803290" lon="-122.464450"></trkpt>
<trkpt lat="37.803360" lon="-122.465130"></trkpt>
<trkpt lat="37.803370" lon="-122.465210"></trkpt>
<trkpt lat="37.803400" lon="-122.465500"></trkpt>
<trkpt lat="37.803400" lon="-122.465540"></trkpt>
<trkpt lat="37.803410" lon="-122.465620"></trkpt>
<trkpt lat="37.803540" lon="-122.466460"></trkpt>
<trkpt lat="37.803600" lon="-122.466810"></trkpt>
<trkpt lat="37.803640" lon="-122.467100"></trkpt>
<trkpt lat="37.803650" lon="-122.467170"></trkpt>
<trkpt lat="37.803660" lon="-122.467280"></trkpt>
<trkpt lat="37.803670" lon="-122.467310"></trkpt>
<trkpt lat="37.803670" lon="-122.467330"></trkpt>
<trkpt lat="37.803680" lon="-122.467340"></trkpt>
<trkpt lat="37.803690" lon="-122.467350"></trkpt>
<trkpt lat="37.803700" lon="-122.467370"></trkpt>
<trkpt lat="37.803620" lon="-122.467430"></trkpt>
<trkpt lat="37.803620" lon="-122.467420"></trkpt>
<trkpt lat="37.803590" lon="-122.467490"></trkpt>
<trkpt lat="37.803550" lon="-122.467550"></trkpt>
<trkpt lat="37.803500" lon="-122.467590"></trkpt>
<trkpt lat="37.803470" lon="-122.467610"></trkpt>
<trkpt lat="37.803430" lon="-122.467610"></trkpt>
<trkpt lat="37.803390" lon="-122.467600"></trkpt>
<trkpt lat="37.803350" lon="-122.467580"></trkpt>
<trkpt lat="37.803310" lon="-122.467550"></trkpt>
<trkpt lat="37.803270" lon="-122.467510"></trkpt>
<trkpt lat="37.803180" lon="-122.467430"></trkpt>
<trkpt lat="37.803010" lon="-122.467280"></trkpt>
<trkpt lat="37.802980" lon="-122.467250"></trkpt>
<trkpt lat="37.802840" lon="-122.467120"></trkpt>
<trkpt lat="37.802800" lon="-122.467080"></trkpt>
<trkpt lat="37.802770" lon="-122.467050"></trkpt>
<trkpt lat="37.802720" lon="-122.466990"></trkpt>
<trkpt lat="37.802680" lon="-122.466960"></trkpt>
<trkpt lat="37.802640" lon="-122.466920"></trkpt>
<trkpt lat="37.802610" lon="-122.466900"></trkpt>
<trkpt lat="37.802590" lon="-122.466890"></trkpt>
<trkpt lat="37.802570" lon="-122.466880"></trkpt>
<trkpt lat="37.802540" lon="-122.466870"></trkpt>
<trkpt lat="37.802500" lon="-122.466870"></trkpt>
<trkpt lat="37.802450" lon="-122.466880"></trkpt>
<trkpt lat="37.802410" lon="-122.466880"></trkpt>
<trkpt lat="37.802270" lon="-122.466900"></trkpt>
<trkpt lat="37.802190" lon="-122.466920"></trkpt>
<trkpt lat="37.802110" lon="-122.466930"></trkpt>
<trkpt lat="37.801910" lon="-122.466950"></trkpt>
<trkpt lat="37.801770" lon="-122.466960"></trkpt>
<trkpt lat="37.801760" lon="-122.466960"></trkpt>
<trkpt lat="37.801740" lon="-122.466880"></trkpt>
<trkpt lat="37.801640" lon="-122.466900"></trkpt>
<trkpt lat="37.801640" lon="-122.466920"></trkpt>
<trkpt lat="37.801580" lon="-122.466900"></trkpt>
<trkpt lat="37.801170" lon="-122.466950"></trkpt>
<trkpt lat="37.801140" lon="-122.466950"></trkpt>
<trkpt lat="37.800990" lon="-122.467060"></trkpt>
<trkpt lat="37.800960" lon="-122.467060"></trkpt>
<trkpt lat="37.800780" lon="-122.467080"></trkpt>
<trkpt lat="37.800690" lon="-122.467100"></trkpt>
<trkpt lat="37.800600" lon="-122.467110"></trkpt>
<trkpt lat="37.800560" lon="-122.467110"></trkpt>
<trkpt lat="37.800240" lon="-122.467150"></trkpt>
<trkpt lat="37.800180" lon="-122.467160"></trkpt>
<trkpt lat="37.800050" lon="-122.467180"></trkpt>
<trkpt lat="37.799970" lon="-122.467180"></trkpt>
<trkpt lat="37.799920" lon="-122.467180"></trkpt>
<trkpt lat="37.799860" lon="-122.467180"></trkpt>
<trkpt lat="37.799750" lon="-122.467180"></trkpt>
<trkpt lat="37.799690" lon="-122.467190"></trkpt>
<trkpt lat="37.799680" lon="-122.467130"></trkpt>
<trkpt lat="37.799590" lon="-122.467130"></trkpt>
<trkpt lat="37.799590" lon="-122.467140"></trkpt>
<trkpt lat="37.799520" lon="-122.467160"></trkpt>
<trkpt lat="37.799450" lon="-122.467190"></trkpt>
<trkpt lat="37.799420" lon="-122.467210"></trkpt>
<trkpt lat="37.799390" lon="-122.467230"></trkpt>
<trkpt lat="37.799300" lon="-122.467400"></trkpt>
<trkpt lat="37.799270" lon="-122.467440"></trkpt>
<trkpt lat="37.799250" lon="-122.467480"></trkpt>
<trkpt lat="37.799230" lon="-122.467530"></trkpt>
<trkpt lat="37.799210" lon="-122.467590"></trkpt>
<trkpt lat="37.799180" lon="-122.467670"></trkpt>
<trkpt lat="37.799160" lon="-122.467760"></trkpt>
<trkpt lat="37.799150" lon="-122.467830"></trkpt>
<trkpt lat="37.799120" lon="-122.467850"></trkpt>
<trkpt lat="37.799050" lon="-122.467960"></trkpt>
<trkpt lat="37.799030" lon="-122.467980"></trkpt>
<trkpt lat="37.798910" lon="-122.468100"></trkpt>
<trkpt lat="37.798820" lon="-122.468200"></trkpt>
<trkpt lat="37.798770" lon="-122.468240"></trkpt>
<trkpt lat="37.798660" lon="-122.468340"></trkpt>
<trkpt lat="37.798620" lon="-122.468380"></trkpt>
<trkpt lat="37.798600" lon="-122.468410"></trkpt>
<trkpt lat="37.798440" lon="-122.468530"></trkpt>
<trkpt lat="37.798400" lon="-122.468600"></trkpt>
<trkpt lat="37.798310" lon="-122.468690"></trkpt>
<trkpt lat="37.798170" lon="-122.468830"></trkpt>
<trkpt lat="37.798080" lon="-122.468910"></trkpt>
<trkpt lat="37.798090" lon="-122.468940"></trkpt>
<trkpt lat="37.798000" lon="-122.469000"></trkpt>
<trkpt lat="37.798010" lon="-122.469030"></trkpt>
<trkpt lat="37.797980" lon="-122.469060"></trkpt>
<trkpt lat="37.797960" lon="-122.469090"></trkpt>
<trkpt lat="37.797940" lon="-122.469110"></trkpt>
<trkpt lat="37.797920" lon="-122.469080"></trkpt>
<trkpt lat="37.797890" lon="-122.469120"></trkpt>
<trkpt lat="37.797900" lon="-122.469140"></trkpt>
<trkpt lat="37.797860" lon="-122.469220"></trkpt>
<trkpt lat="37.797850" lon="-122.469250"></trkpt>
<trkpt lat="37.797830" lon="-122.469290"></trkpt>
<trkpt lat="37.797820" lon="-122.469370"></trkpt>
<trkpt lat="37.797820" lon="-122.469440"></trkpt>
<trkpt lat="37.797820" lon="-122.469480"></trkpt>
<trkpt lat="37.797820" lon="-122.469510"></trkpt>
<trkpt lat="37.797820" lon="-122.469610"></trkpt>
<trkpt lat="37.797830" lon="-122.469650"></trkpt>
<trkpt lat="37.797840" lon="-122.469700"></trkpt>
<trkpt lat="37.797840" lon="-122.469720"></trkpt>
<trkpt lat="37.797850" lon="-122.469740"></trkpt>
<trkpt lat="37.797860" lon="-122.469760"></trkpt>
<trkpt lat="37.797870" lon="-122.469790"></trkpt>
<trkpt lat="37.797880" lon="-122.469830"></trkpt>
<trkpt lat="37.797900" lon="-122.469860"></trkpt>
<trkpt lat="37.797920" lon="-122.469900"></trkpt>
<trkpt lat="37.797930" lon="-122.469930"></trkpt>
<trkpt lat="37.797940" lon="-122.469940"></trkpt>
<trkpt lat="37.797970" lon="-122.469980"></trkpt>
<trkpt lat="37.798010" lon="-122.470020"></trkpt>
<trkpt lat="37.798020" lon="-122.470030"></trkpt>
<trkpt lat="37.798030" lon="-122.470040"></trkpt>
<trkpt lat="37.798050" lon="-122.470060"></trkpt>
<trkpt lat="37.798090" lon="-122.470100"></trkpt>
<trkpt lat="37.798160" lon="-122.470160"></trkpt>
<trkpt lat="37.798230" lon="-122.470230"></trkpt>
<trkpt lat="37.798420" lon="-122.470350"></trkpt>
<trkpt lat="37.798440" lon="-122.470360"></trkpt>
<trkpt lat="37.798780" lon="-122.470530"></trkpt>
<trkpt lat="37.798810" lon="-122.470540"></trkpt>
<trkpt lat="37.798940" lon="-122.470600"></trkpt>
<trkpt lat="37.799100" lon="-122.470680"></trkpt>
<trkpt lat="37.799210" lon="-122.470760"></trkpt>
<trkpt lat="37.799240" lon="-122.470790"></trkpt>
<trkpt lat="37.799260" lon="-122.470810"></trkpt>
<trkpt lat="37.799280" lon="-122.470850"></trkpt>
<trkpt lat="37.799310" lon="-122.470890"></trkpt>
<trkpt lat="37.799330" lon="-122.470930"></trkpt>
<trkpt lat="37.799340" lon="-122.470960"></trkpt>
<trkpt lat="37.799340" lon="-122.470970"></trkpt>
<trkpt lat="37.799370" lon="-122.471040"></trkpt>
<trkpt lat="37.799380" lon="-122.471110"></trkpt>
<trkpt lat="37.799380" lon="-122.471120"></trkpt>
<trkpt lat="37.799380" lon="-122.471160"></trkpt>
<trkpt lat="37.799380" lon="-122.471230"></trkpt>
<trkpt lat="37.799380" lon="-122.471300"></trkpt>
<trkpt lat="37.799370" lon="-122.471370"></trkpt>
<trkpt lat="37.799360" lon="-122.471450"></trkpt>
<trkpt lat="37.799350" lon="-122.471520"></trkpt>
<trkpt lat="37.799340" lon="-122.471590"></trkpt>
<trkpt lat="37.799320" lon="-122.471650"></trkpt>
<trkpt lat="37.799300" lon="-122.471720"></trkpt>
<trkpt lat="37.799270" lon="-122.471780"></trkpt>
<trkpt lat="37.799240" lon="-122.471840"></trkpt>
<trkpt lat="37.799210" lon="-122.471900"></trkpt>
<trkpt lat="37.799210" lon="-122.471910"></trkpt>
<trkpt lat="37.799200" lon="-122.471920"></trkpt>
<trkpt lat="37.799150" lon="-122.472000"></trkpt>
<trkpt lat="37.799100" lon="-122.472070"></trkpt>
<trkpt lat="37.799060" lon="-122.472130"></trkpt>
<trkpt lat="37.799030" lon="-122.472180"></trkpt>
<trkpt lat="37.798980" lon="-122.472260"></trkpt>
<trkpt lat="37.798950" lon="-122.472300"></trkpt>
<trkpt lat="37.798860" lon="-122.472440"></trkpt>
<trkpt lat="37.798740" lon="-122.472630"></trkpt>
<trkpt lat="37.798720" lon="-122.472650"></trkpt>
<trkpt lat="37.798710" lon="-122.472670"></trkpt>
<trkpt lat="37.798670" lon="-122.472740"></trkpt>
<trkpt lat="37.798650" lon="-122.472780"></trkpt>
<trkpt lat="37.798620" lon="-122.472830"></trkpt>
<trkpt lat="37.798580" lon="-122.472940"></trkpt>
<trkpt lat="37.798550" lon="-122.473030"></trkpt>
<trkpt lat="37.798520" lon="-122.473120"></trkpt>
<trkpt lat="37.798520" lon="-122.473130"></trkpt>
<trkpt lat="37.798500" lon="-122.473220"></trkpt>
<trkpt lat="37.798500" lon="-122.473260"></trkpt>
<trkpt lat="37.798490" lon="-122.473360"></trkpt>
<trkpt lat="37.798500" lon="-122.473430"></trkpt>
<trkpt lat="37.798500" lon="-122.473500"></trkpt>
<trkpt lat="37.798470" lon="-122.473500"></trkpt>
<trkpt lat="37.798480" lon="-122.473590"></trkpt>
<trkpt lat="37.798520" lon="-122.473840"></trkpt>
<trkpt lat="37.798570" lon="-122.474070"></trkpt>
<trkpt lat="37.798630" lon="-122.474190"></trkpt>
<trkpt lat="37.798650" lon="-122.474250"></trkpt>
<trkpt lat="37.798660" lon="-122.474310"></trkpt>
<trkpt lat="37.798680" lon="-122.474380"></trkpt>
<trkpt lat="37.798710" lon="-122.474490"></trkpt>
<trkpt lat="37.798760" lon="-122.474710"></trkpt>
<trkpt lat="37.798780" lon="-122.474790"></trkpt>
<trkpt lat="37.798790" lon="-122.474900"></trkpt>
<trkpt lat="37.798810" lon="-122.474990"></trkpt>
<trkpt lat="37.798820" lon="-122.475070"></trkpt>
<trkpt lat="37.798850" lon="-122.475210"></trkpt>
<trkpt lat="37.798860" lon="-122.475290"></trkpt>
<trkpt lat="37.798880" lon="-122.475420"></trkpt>
<trkpt lat="37.798880" lon="-122.475470"></trkpt>
<trkpt lat="37.798890" lon="-122.475520"></trkpt>
<trkpt lat="37.798900" lon="-122.475580"></trkpt>
<trkpt lat="37.798910" lon="-122.475650"></trkpt>
<trkpt lat="37.798920" lon="-122.475710"></trkpt>
<trkpt lat="37.798940" lon="-122.475790"></trkpt>
<trkpt lat="37.798960" lon="-122.475920"></trkpt>
<trkpt lat="37.798980" lon="-122.476010"></trkpt>
<trkpt lat="37.798620" lon="-122.476190"></trkpt>
<trkpt lat="37.798560" lon="-122.476210"></trkpt>
<trkpt lat="37.798470" lon="-122.476250"></trkpt>
<trkpt lat="37.798350" lon="-122.476310"></trkpt>
<trkpt lat="37.798280" lon="-122.476340"></trkpt>
<trkpt lat="37.798260" lon="-122.476350"></trkpt>
<trkpt lat="37.798250" lon="-122.476360"></trkpt>
<trkpt lat="37.798230" lon="-122.476370"></trkpt>
<trkpt lat="37.798210" lon="-122.476380"></trkpt>
<trkpt lat="37.798180" lon="-122.476390"></trkpt>
<trkpt lat="37.798080" lon="-122.476440"></trkpt>
<trkpt lat="37.797970" lon="-122.476490"></trkpt>
<trkpt lat="37.797910" lon="-122.476520"></trkpt>
<trkpt lat="37.797850" lon="-122.476550"></trkpt>
<trkpt lat="37.797730" lon="-122.476610"></trkpt>
<trkpt lat="37.797670" lon="-122.476650"></trkpt>
<trkpt lat="37.797630" lon="-122.476780"></trkpt>
<trkpt lat="37.797580" lon="-122.476750"></trkpt>
<trkpt lat="37.797550" lon="-122.476740"></trkpt>
<trkpt lat="37.797520" lon="-122.476740"></trkpt>
<trkpt lat="37.797430" lon="-122.476770"></trkpt>
<trkpt lat="37.797400" lon="-122.476780"></trkpt>
<trkpt lat="37.797320" lon="-122.476800"></trkpt>
<trkpt lat="37.797260" lon="-122.476810"></trkpt>
<trkpt lat="37.797160" lon="-122.476850"></trkpt>
<trkpt lat="37.797120" lon="-122.476860"></trkpt>
<trkpt lat="37.797100" lon="-122.476870"></trkpt>
<trkpt lat="37.797070" lon="-122.476890"></trkpt>
<trkpt lat="37.797040" lon="-122.476910"></trkpt>
<trkpt lat="37.797010" lon="-122.476930"></trkpt>
<trkpt lat="37.796950" lon="-122.476980"></trkpt>
<trkpt lat="37.796890" lon="-122.477030"></trkpt>
<trkpt lat="37.796670" lon="-122.477240"></trkpt>
<trkpt lat="37.796630" lon="-122.477270"></trkpt>
<trkpt lat="37.796570" lon="-122.477330"></trkpt>
<trkpt lat="37.796480" lon="-122.477440"></trkpt>
<trkpt lat="37.796430" lon="-122.477510"></trkpt>
<trkpt lat="37.796400" lon="-122.477550"></trkpt>
<trkpt lat="37.796300" lon="-122.477660"></trkpt>
<trkpt lat="37.796280" lon="-122.477680"></trkpt>
<trkpt lat="37.796270" lon="-122.477680"></trkpt>
<trkpt lat="37.796250" lon="-122.477700"></trkpt>
<trkpt lat="37.796210" lon="-122.477730"></trkpt>
<trkpt lat="37.796130" lon="-122.477770"></trkpt>
<trkpt lat="37.796140" lon="-122.477820"></trkpt>
<trkpt lat="37.796130" lon="-122.477830"></trkpt>
<trkpt lat="37.796130" lon="-122.477840"></trkpt>
<trkpt lat="37.796120" lon="-122.477850"></trkpt>
<trkpt lat="37.796100" lon="-122.477850"></trkpt>
<trkpt lat="37.795970" lon="-122.477840"></trkpt>
<trkpt lat="37.795920" lon="-122.477840"></trkpt>
<trkpt lat="37.795900" lon="-122.477860"></trkpt>
<trkpt lat="37.795880" lon="-122.477880"></trkpt>
<trkpt lat="37.795870" lon="-122.477900"></trkpt>
<trkpt lat="37.795850" lon="-122.477930"></trkpt>
<trkpt lat="37.795850" lon="-122.477940"></trkpt>
<trkpt lat="37.795840" lon="-122.477950"></trkpt>
<trkpt lat="37.795830" lon="-122.477960"></trkpt>
<trkpt lat="37.795800" lon="-122.477970"></trkpt>
<trkpt lat="37.795790" lon="-122.477970"></trkpt>
<trkpt lat="37.795740" lon="-122.477980"></trkpt>
<trkpt lat="37.795690" lon="-122.477970"></trkpt>
<trkpt lat="37.795690" lon="-122.477980"></trkpt>
<trkpt lat="37.795680" lon="-122.477980"></trkpt>
<trkpt lat="37.795680" lon="-122.477990"></trkpt>
<trkpt lat="37.795670" lon="-122.477990"></trkpt>
<trkpt lat="37.795670" lon="-122.478020"></trkpt>
<trkpt lat="37.795660" lon="-122.478030"></trkpt>
<trkpt lat="37.795650" lon="-122.478040"></trkpt>
<trkpt lat="37.795650" lon="-122.478050"></trkpt>
<trkpt lat="37.795640" lon="-122.478060"></trkpt>
<trkpt lat="37.795640" lon="-122.478070"></trkpt>
<trkpt lat="37.795630" lon="-122.478090"></trkpt>
<trkpt lat="37.795630" lon="-122.478100"></trkpt>
<trkpt lat="37.795630" lon="-122.478120"></trkpt>
<trkpt lat="37.795630" lon="-122.478140"></trkpt>
<trkpt lat="37.795640" lon="-122.478160"></trkpt>
<trkpt lat="37.795660" lon="-122.478210"></trkpt>
<trkpt lat="37.795660" lon="-122.478220"></trkpt>
<trkpt lat="37.795650" lon="-122.478230"></trkpt>
<trkpt lat="37.795650" lon="-122.478240"></trkpt>
<trkpt lat="37.795650" lon="-122.478250"></trkpt>
<trkpt lat="37.795640" lon="-122.478250"></trkpt>
<trkpt lat="37.795640" lon="-122.478260"></trkpt>
<trkpt lat="37.795630" lon="-122.478260"></trkpt>
<trkpt lat="37.795620" lon="-122.478260"></trkpt>
<trkpt lat="37.795580" lon="-122.478260"></trkpt>
<trkpt lat="37.795560" lon="-122.478260"></trkpt>
<trkpt lat="37.795560" lon="-122.478270"></trkpt>
<trkpt lat="37.795550" lon="-122.478270"></trkpt>
<trkpt lat="37.795540" lon="-122.478280"></trkpt>
<trkpt lat="37.795540" lon="-122.478290"></trkpt>
<trkpt lat="37.795540" lon="-122.478320"></trkpt>
<trkpt lat="37.795530" lon="-122.478330"></trkpt>
<trkpt lat="37.795520" lon="-122.478340"></trkpt>
<trkpt lat="37.795510" lon="-122.478340"></trkpt>
<trkpt lat="37.795510" lon="-122.478350"></trkpt>
<trkpt lat="37.795500" lon="-122.478350"></trkpt>
<trkpt lat="37.795500" lon="-122.478360"></trkpt>
<trkpt lat="37.795500" lon="-122.478370"></trkpt>
<trkpt lat="37.795500" lon="-122.478380"></trkpt>
<trkpt lat="37.795500" lon="-122.478390"></trkpt>
<trkpt lat="37.795500" lon="-122.478400"></trkpt>
<trkpt lat="37.795510" lon="-122.478410"></trkpt>
<trkpt lat="37.795520" lon="-122.478420"></trkpt>
<trkpt lat="37.795530" lon="-122.478430"></trkpt>
<trkpt lat="37.795540" lon="-122.478440"></trkpt>
<trkpt lat="37.795550" lon="-122.478460"></trkpt>
<trkpt lat="37.795550" lon="-122.478470"></trkpt>
<trkpt lat="37.795550" lon="-122.478500"></trkpt>
<trkpt lat="37.795550" lon="-122.478570"></trkpt>
<trkpt lat="37.795460" lon="-122.478500"></trkpt>
<trkpt lat="37.795390" lon="-122.478470"></trkpt>
<trkpt lat="37.795370" lon="-122.478470"></trkpt>
<trkpt lat="37.795310" lon="-122.478440"></trkpt>
<trkpt lat="37.795240" lon="-122.478410"></trkpt>
<trkpt lat="37.795200" lon="-122.478400"></trkpt>
<trkpt lat="37.795080" lon="-122.478370"></trkpt>
<trkpt lat="37.795040" lon="-122.478370"></trkpt>
<trkpt lat="37.795020" lon="-122.478370"></trkpt>
<trkpt lat="37.794980" lon="-122.478370"></trkpt>
<trkpt lat="37.794940" lon="-122.478380"></trkpt>
<trkpt lat="37.794900" lon="-122.478400"></trkpt>
<trkpt lat="37.794870" lon="-122.478420"></trkpt>
<trkpt lat="37.794850" lon="-122.478430"></trkpt>
<trkpt lat="37.794780" lon="-122.478480"></trkpt>
<trkpt lat="37.794710" lon="-122.478530"></trkpt>
<trkpt lat="37.794690" lon="-122.478540"></trkpt>
<trkpt lat="37.794660" lon="-122.478560"></trkpt>
<trkpt lat="37.794630" lon="-122.478580"></trkpt>
<trkpt lat="37.794590" lon="-122.478580"></trkpt>
<trkpt lat="37.794540" lon="-122.478590"></trkpt>
<trkpt lat="37.794480" lon="-122.478580"></trkpt>
<trkpt lat="37.794410" lon="-122.478550"></trkpt>
<trkpt lat="37.794230" lon="-122.478500"></trkpt>
<trkpt lat="37.794170" lon="-122.478500"></trkpt>
<trkpt lat="37.794120" lon="-122.478510"></trkpt>
<trkpt lat="37.794060" lon="-122.478540"></trkpt>
<trkpt lat="37.794050" lon="-122.478540"></trkpt>
<trkpt lat="37.794000" lon="-122.478580"></trkpt>
<trkpt lat="37.793970" lon="-122.478620"></trkpt>
<trkpt lat="37.793990" lon="-122.478650"></trkpt>
<trkpt lat="37.794080" lon="-122.478850"></trkpt>
<trkpt lat="37.794130" lon="-122.478960"></trkpt>
<trkpt lat="37.794160" lon="-122.479020"></trkpt>
<trkpt lat="37.794180" lon="-122.479080"></trkpt>
<trkpt lat="37.794220" lon="-122.479180"></trkpt>
<trkpt lat="37.794240" lon="-122.479240"></trkpt>
<trkpt lat="37.794250" lon="-122.479280"></trkpt>
<trkpt lat="37.794270" lon="-122.479340"></trkpt>
<trkpt lat="37.794300" lon="-122.479450"></trkpt>
<trkpt lat="37.794310" lon="-122.479510"></trkpt>
<trkpt lat="37.794340" lon="-122.479650"></trkpt>
<trkpt lat="37.794360" lon="-122.479750"></trkpt>
<trkpt lat="37.794370" lon="-122.479840"></trkpt>
<trkpt lat="37.794380" lon="-122.479900"></trkpt>
<trkpt lat="37.794380" lon="-122.479920"></trkpt>
<trkpt lat="37.794380" lon="-122.479940"></trkpt>
<trkpt lat="37.794380" lon="-122.479960"></trkpt>
<trkpt lat="37.794390" lon="-122.479980"></trkpt>
<trkpt lat="37.794390" lon="-122.480040"></trkpt>
<trkpt lat="37.794390" lon="-122.480150"></trkpt>
<trkpt lat="37.794390" lon="-122.480180"></trkpt>
<trkpt lat="37.794390" lon="-122.480200"></trkpt>
<trkpt lat="37.794390" lon="-122.480210"></trkpt>
<trkpt lat="37.794390" lon="-122.480220"></trkpt>
<trkpt lat="37.794380" lon="-122.480280"></trkpt>
<trkpt lat="37.794380" lon="-122.480350"></trkpt>
<trkpt lat="37.794240" lon="-122.480340"></trkpt>
<trkpt lat="37.794170" lon="-122.480340"></trkpt>
<trkpt lat="37.794130" lon="-122.480340"></trkpt>
<trkpt lat="37.794040" lon="-122.480370"></trkpt>
<trkpt lat="37.793980" lon="-122.480380"></trkpt>
<trkpt lat="37.793900" lon="-122.480400"></trkpt>
<trkpt lat="37.793870" lon="-122.480410"></trkpt>
<trkpt lat="37.793930" lon="-122.480520"></trkpt>
<trkpt lat="37.793950" lon="-122.480540"></trkpt>
<trkpt lat="37.793990" lon="-122.480580"></trkpt>
<trkpt lat="37.794030" lon="-122.480600"></trkpt>
<trkpt lat="37.794100" lon="-122.480630"></trkpt>
<trkpt lat="37.794130" lon="-122.480650"></trkpt>
<trkpt lat="37.794170" lon="-122.480700"></trkpt>
<trkpt lat="37.794180" lon="-122.480710"></trkpt>
<trkpt lat="37.794210" lon="-122.480760"></trkpt>
<trkpt lat="37.794230" lon="-122.480800"></trkpt>
<trkpt lat="37.794310" lon="-122.480870"></trkpt>
<trkpt lat="37.794350" lon="-122.480890"></trkpt>
<trkpt lat="37.794400" lon="-122.480900"></trkpt>
<trkpt lat="37.794450" lon="-122.480910"></trkpt>
<trkpt lat="37.794480" lon="-122.480910"></trkpt>
<trkpt lat="37.794500" lon="-122.480910"></trkpt>
<trkpt lat="37.794530" lon="-122.480910"></trkpt>
<trkpt lat="37.794540" lon="-122.480910"></trkpt>
<trkpt lat="37.794560" lon="-122.480910"></trkpt>
<trkpt lat="37.794580" lon="-122.480920"></trkpt>
<trkpt lat="37.794560" lon="-122.480930"></trkpt>
<trkpt lat="37.794550" lon="-122.480940"></trkpt>
<trkpt lat="37.794530" lon="-122.480950"></trkpt>
<trkpt lat="37.794530" lon="-122.480970"></trkpt>
<trkpt lat="37.794520" lon="-122.480980"></trkpt>
<trkpt lat="37.794510" lon="-122.481000"></trkpt>
<trkpt lat="37.794500" lon="-122.481020"></trkpt>
<trkpt lat="37.794480" lon="-122.481110"></trkpt>
<trkpt lat="37.794470" lon="-122.481180"></trkpt>
<trkpt lat="37.794460" lon="-122.481270"></trkpt>
<trkpt lat="37.794430" lon="-122.481370"></trkpt>
<trkpt lat="37.794430" lon="-122.481400"></trkpt>
<trkpt lat="37.794410" lon="-122.481480"></trkpt>
<trkpt lat="37.794410" lon="-122.481510"></trkpt>
<trkpt lat="37.794420" lon="-122.481530"></trkpt>
<trkpt lat="37.794420" lon="-122.481550"></trkpt>
<trkpt lat="37.794430" lon="-122.481570"></trkpt>
<trkpt lat="37.794440" lon="-122.481590"></trkpt>
<trkpt lat="37.794450" lon="-122.481610"></trkpt>
<trkpt lat="37.794470" lon="-122.481630"></trkpt>
<trkpt lat="37.794470" lon="-122.481640"></trkpt>
<trkpt lat="37.794490" lon="-122.481650"></trkpt>
<trkpt lat="37.794510" lon="-122.481670"></trkpt>
<trkpt lat="37.794560" lon="-122.481700"></trkpt>
<trkpt lat="37.794610" lon="-122.481720"></trkpt>
<trkpt lat="37.794670" lon="-122.481750"></trkpt>
<trkpt lat="37.794780" lon="-122.481780"></trkpt>
<trkpt lat="37.794840" lon="-122.481800"></trkpt>
<trkpt lat="37.794870" lon="-122.481810"></trkpt>
<trkpt lat="37.794920" lon="-122.481830"></trkpt>
<trkpt lat="37.794950" lon="-122.481850"></trkpt>
<trkpt lat="37.794970" lon="-122.481860"></trkpt>
<trkpt lat="37.794980" lon="-122.481870"></trkpt>
<trkpt lat="37.795010" lon="-122.481890"></trkpt>
<trkpt lat="37.795050" lon="-122.481920"></trkpt>
<trkpt lat="37.795090" lon="-122.481980"></trkpt>
<trkpt lat="37.795100" lon="-122.481980"></trkpt>
<trkpt lat="37.795130" lon="-122.482030"></trkpt>
<trkpt lat="37.795150" lon="-122.482070"></trkpt>
<trkpt lat="37.795150" lon="-122.482090"></trkpt>
<trkpt lat="37.795160" lon="-122.482110"></trkpt>
<trkpt lat="37.795160" lon="-122.482130"></trkpt>
<trkpt lat="37.795160" lon="-122.482160"></trkpt>
<trkpt lat="37.795150" lon="-122.482180"></trkpt>
<trkpt lat="37.795110" lon="-122.482200"></trkpt>
<trkpt lat="37.795060" lon="-122.482220"></trkpt>
<trkpt lat="37.795040" lon="-122.482230"></trkpt>
<trkpt lat="37.795000" lon="-122.482230"></trkpt>
<trkpt lat="37.794860" lon="-122.482170"></trkpt>
<trkpt lat="37.794840" lon="-122.482160"></trkpt>
<trkpt lat="37.794710" lon="-122.482110"></trkpt>
<trkpt lat="37.794690" lon="-122.482100"></trkpt>
<trkpt lat="37.794670" lon="-122.482100"></trkpt>
<trkpt lat="37.794650" lon="-122.482100"></trkpt>
<trkpt lat="37.794600" lon="-122.482110"></trkpt>
<trkpt lat="37.794560" lon="-122.482130"></trkpt>
<trkpt lat="37.794520" lon="-122.482160"></trkpt>
<trkpt lat="37.794360" lon="-122.482250"></trkpt>
<trkpt lat="37.794190" lon="-122.482340"></trkpt>
<trkpt lat="37.794030" lon="-122.482430"></trkpt>
<trkpt lat="37.793770" lon="-122.482570"></trkpt>
<trkpt lat="37.793690" lon="-122.482600"></trkpt>
<trkpt lat="37.793630" lon="-122.482630"></trkpt>
<trkpt lat="37.793550" lon="-122.482700"></trkpt>
<trkpt lat="37.793540" lon="-122.482710"></trkpt>
<trkpt lat="37.793470" lon="-122.482800"></trkpt>
<trkpt lat="37.793370" lon="-122.482970"></trkpt>
<trkpt lat="37.793270" lon="-122.483130"></trkpt>
<trkpt lat="37.793250" lon="-122.483130"></trkpt>
<trkpt lat="37.793200" lon="-122.483140"></trkpt>
<trkpt lat="37.793150" lon="-122.483150"></trkpt>
<trkpt lat="37.793210" lon="-122.483200"></trkpt>
<trkpt lat="37.793230" lon="-122.483210"></trkpt>
<trkpt lat="37.793240" lon="-122.483220"></trkpt>
<trkpt lat="37.793250" lon="-122.483220"></trkpt>
<trkpt lat="37.793260" lon="-122.483220"></trkpt>
<trkpt lat="37.793280" lon="-122.483220"></trkpt>
<trkpt lat="37.793460" lon="-122.483210"></trkpt>
<trkpt lat="37.793520" lon="-122.483210"></trkpt>
<trkpt lat="37.793550" lon="-122.483220"></trkpt>
<trkpt lat="37.793570" lon="-122.483230"></trkpt>
<trkpt lat="37.793590" lon="-122.483240"></trkpt>
<trkpt lat="37.793590" lon="-122.483250"></trkpt>
<trkpt lat="37.793600" lon="-122.483260"></trkpt>
<trkpt lat="37.793610" lon="-122.483280"></trkpt>
<trkpt lat="37.793620" lon="-122.483290"></trkpt>
<trkpt lat="37.793610" lon="-122.483280"></trkpt>
<trkpt lat="37.793600" lon="-122.483260"></trkpt>
<trkpt lat="37.793590" lon="-122.483250"></trkpt>
<trkpt lat="37.793590" lon="-122.483240"></trkpt>
<trkpt lat="37.793570" lon="-122.483230"></trkpt>
<trkpt lat="37.793550" lon="-122.483220"></trkpt>
<trkpt lat="37.793520" lon="-122.483210"></trkpt>
<trkpt lat="37.793460" lon="-122.483210"></trkpt>
<trkpt lat="37.793280" lon="-122.483220"></trkpt>
<trkpt lat="37.793260" lon="-122.483220"></trkpt>
<trkpt lat="37.793250" lon="-122.483220"></trkpt>
<trkpt lat="37.793240" lon="-122.483220"></trkpt>
<trkpt lat="37.793230" lon="-122.483210"></trkpt>
<trkpt lat="37.793210" lon="-122.483200"></trkpt>
<trkpt lat="37.793150" lon="-122.483150"></trkpt>
<trkpt lat="37.793200" lon="-122.483140"></trkpt>
<trkpt lat="37.793250" lon="-122.483140"></trkpt>
<trkpt lat="37.793270" lon="-122.483130"></trkpt>
<trkpt lat="37.793370" lon="-122.482970"></trkpt>
<trkpt lat="37.793470" lon="-122.482800"></trkpt>
<trkpt lat="37.793540" lon="-122.482710"></trkpt>
<trkpt lat="37.793550" lon="-122.482700"></trkpt>
<trkpt lat="37.793630" lon="-122.482630"></trkpt>
<trkpt lat="37.793690" lon="-122.482600"></trkpt>
<trkpt lat="37.793770" lon="-122.482570"></trkpt>
<trkpt lat="37.794030" lon="-122.482430"></trkpt>
<trkpt lat="37.794190" lon="-122.482340"></trkpt>
<trkpt lat="37.794360" lon="-122.482250"></trkpt>
<trkpt lat="37.794520" lon="-122.482160"></trkpt>
<trkpt lat="37.794560" lon="-122.482130"></trkpt>
<trkpt lat="37.794600" lon="-122.482110"></trkpt>
<trkpt lat="37.794650" lon="-122.482100"></trkpt>
<trkpt lat="37.794670" lon="-122.482100"></trkpt>
<trkpt lat="37.794690" lon="-122.482100"></trkpt>
<trkpt lat="37.794710" lon="-122.482110"></trkpt>
<trkpt lat="37.794840" lon="-122.482160"></trkpt>
<trkpt lat="37.794860" lon="-122.482170"></trkpt>
<trkpt lat="37.795000" lon="-122.482230"></trkpt>
<trkpt lat="37.795040" lon="-122.482230"></trkpt>
<trkpt lat="37.795060" lon="-122.482220"></trkpt>
<trkpt lat="37.795110" lon="-122.482200"></trkpt>
<trkpt lat="37.795150" lon="-122.482180"></trkpt>
<trkpt lat="37.795160" lon="-122.482150"></trkpt>
<trkpt lat="37.795160" lon="-122.482130"></trkpt>
<trkpt lat="37.795160" lon="-122.482110"></trkpt>
<trkpt lat="37.795150" lon="-122.482090"></trkpt>
<trkpt lat="37.795150" lon="-122.482070"></trkpt>
<trkpt lat="37.795130" lon="-122.482030"></trkpt>
<trkpt lat="37.795100" lon="-122.481980"></trkpt>
<trkpt lat="37.795090" lon="-122.481980"></trkpt>
<trkpt lat="37.795050" lon="-122.481920"></trkpt>
<trkpt lat="37.795010" lon="-122.481890"></trkpt>
<trkpt lat="37.794980" lon="-122.481870"></trkpt>
<trkpt lat="37.794970" lon="-122.481860"></trkpt>
<trkpt lat="37.794950" lon="-122.481850"></trkpt>
<trkpt lat="37.794920" lon="-122.481830"></trkpt>
<trkpt lat="37.794870" lon="-122.481810"></trkpt>
<trkpt lat="37.794840" lon="-122.481800"></trkpt>
<trkpt lat="37.794780" lon="-122.481780"></trkpt>
<trkpt lat="37.794670" lon="-122.481750"></trkpt>
<trkpt lat="37.794610" lon="-122.481720"></trkpt>
<trkpt lat="37.794560" lon="-122.481700"></trkpt>
<trkpt lat="37.794510" lon="-122.481670"></trkpt>
<trkpt lat="37.794490" lon="-122.481650"></trkpt>
<trkpt lat="37.794470" lon="-122.481640"></trkpt>
<trkpt lat="37.794470" lon="-122.481630"></trkpt>
<trkpt lat="37.794450" lon="-122.481610"></trkpt>
<trkpt lat="37.794440" lon="-122.481590"></trkpt>
<trkpt lat="37.794430" lon="-122.481570"></trkpt>
<trkpt lat="37.794420" lon="-122.481550"></trkpt>
<trkpt lat="37.794420" lon="-122.481530"></trkpt>
<trkpt lat="37.794410" lon="-122.481510"></trkpt>
<trkpt lat="37.794410" lon="-122.481480"></trkpt>
<trkpt lat="37.794430" lon="-122.481400"></trkpt>
<trkpt lat="37.794430" lon="-122.481370"></trkpt>
<trkpt lat="37.794460" lon="-122.481270"></trkpt>
<trkpt lat="37.794470" lon="-122.481180"></trkpt>
<trkpt lat="37.794480" lon="-122.481110"></trkpt>
<trkpt lat="37.794500" lon="-122.481020"></trkpt>
<trkpt lat="37.794510" lon="-122.481000"></trkpt>
<trkpt lat="37.794520" lon="-122.480980"></trkpt>
<trkpt lat="37.794530" lon="-122.480970"></trkpt>
<trkpt lat="37.794530" lon="-122.480950"></trkpt>
<trkpt lat="37.794550" lon="-122.480940"></trkpt>
<trkpt lat="37.794560" lon="-122.480920"></trkpt>
<trkpt lat="37.794580" lon="-122.480920"></trkpt>
<trkpt lat="37.794560" lon="-122.480910"></trkpt>
<trkpt lat="37.794540" lon="-122.480910"></trkpt>
<trkpt lat="37.794530" lon="-122.480910"></trkpt>
<trkpt lat="37.794500" lon="-122.480910"></trkpt>
<trkpt lat="37.794480" lon="-122.480910"></trkpt>
<trkpt lat="37.794450" lon="-122.480910"></trkpt>
<trkpt lat="37.794400" lon="-122.480900"></trkpt>
<trkpt lat="37.794350" lon="-122.480890"></trkpt>
<trkpt lat="37.794310" lon="-122.480870"></trkpt>
<trkpt lat="37.794230" lon="-122.480800"></trkpt>
<trkpt lat="37.794210" lon="-122.480760"></trkpt>
<trkpt lat="37.794180" lon="-122.480710"></trkpt>
<trkpt lat="37.794170" lon="-122.480700"></trkpt>
<trkpt lat="37.794130" lon="-122.480650"></trkpt>
<trkpt lat="37.794100" lon="-122.480630"></trkpt>
<trkpt lat="37.794030" lon="-122.480600"></trkpt>
<trkpt lat="37.793990" lon="-122.480580"></trkpt>
<trkpt lat="37.793950" lon="-122.480540"></trkpt>
<trkpt lat="37.793930" lon="-122.480520"></trkpt>
<trkpt lat="37.793870" lon="-122.480410"></trkpt>
<trkpt lat="37.793900" lon="-122.480400"></trkpt>
<trkpt lat="37.793980" lon="-122.480380"></trkpt>
<trkpt lat="37.794040" lon="-122.480370"></trkpt>
<trkpt lat="37.794130" lon="-122.480340"></trkpt>
<trkpt lat="37.794170" lon="-122.480340"></trkpt>
<trkpt lat="37.794240" lon="-122.480340"></trkpt>
<trkpt lat="37.794380" lon="-122.480350"></trkpt>
<trkpt lat="37.794380" lon="-122.480280"></trkpt>
<trkpt lat="37.794390" lon="-122.480220"></trkpt>
<trkpt lat="37.794390" lon="-122.480210"></trkpt>
<trkpt lat="37.794390" lon="-122.480200"></trkpt>
<trkpt lat="37.794390" lon="-122.480180"></trkpt>
<trkpt lat="37.794390" lon="-122.480150"></trkpt>
<trkpt lat="37.794390" lon="-122.480040"></trkpt>
<trkpt lat="37.794390" lon="-122.479980"></trkpt>
<trkpt lat="37.794380" lon="-122.479960"></trkpt>
<trkpt lat="37.794380" lon="-122.479940"></trkpt>
<trkpt lat="37.794380" lon="-122.479920"></trkpt>
<trkpt lat="37.794380" lon="-122.479900"></trkpt>
<trkpt lat="37.794370" lon="-122.479840"></trkpt>
<trkpt lat="37.794360" lon="-122.479750"></trkpt>
<trkpt lat="37.794340" lon="-122.479650"></trkpt>
<trkpt lat="37.794310" lon="-122.479510"></trkpt>
<trkpt lat="37.794300" lon="-122.479450"></trkpt>
<trkpt lat="37.794270" lon="-122.479340"></trkpt>
<trkpt lat="37.794250" lon="-122.479280"></trkpt>
<trkpt lat="37.794240" lon="-122.479240"></trkpt>
<trkpt lat="37.794220" lon="-122.479180"></trkpt>
<trkpt lat="37.794180" lon="-122.479080"></trkpt>
<trkpt lat="37.794160" lon="-122.479020"></trkpt>
<trkpt lat="37.794130" lon="-122.478960"></trkpt>
<trkpt lat="37.794080" lon="-122.478850"></trkpt>
<trkpt lat="37.793990" lon="-122.478650"></trkpt>
<trkpt lat="37.793970" lon="-122.478620"></trkpt>
<trkpt lat="37.794000" lon="-122.478580"></trkpt>
<trkpt lat="37.794050" lon="-122.478540"></trkpt>
<trkpt lat="37.794060" lon="-122.478540"></trkpt>
<trkpt lat="37.794120" lon="-122.478510"></trkpt>
<trkpt lat="37.794170" lon="-122.478500"></trkpt>
<trkpt lat="37.794230" lon="-122.478500"></trkpt>
<trkpt lat="37.794410" lon="-122.478550"></trkpt>
<trkpt lat="37.794480" lon="-122.478580"></trkpt>
<trkpt lat="37.794540" lon="-122.478590"></trkpt>
<trkpt lat="37.794590" lon="-122.478580"></trkpt>
<trkpt lat="37.794630" lon="-122.478580"></trkpt>
<trkpt lat="37.794660" lon="-122.478560"></trkpt>
<trkpt lat="37.794690" lon="-122.478540"></trkpt>
<trkpt lat="37.794710" lon="-122.478530"></trkpt>
<trkpt lat="37.794780" lon="-122.478480"></trkpt>
<trkpt lat="37.794850" lon="-122.478430"></trkpt>
<trkpt lat="37.794870" lon="-122.478420"></trkpt>
<trkpt lat="37.794900" lon="-122.478400"></trkpt>
<trkpt lat="37.794940" lon="-122.478380"></trkpt>
<trkpt lat="37.794980" lon="-122.478370"></trkpt>
<trkpt lat="37.795020" lon="-122.478370"></trkpt>
<trkpt lat="37.795040" lon="-122.478370"></trkpt>
<trkpt lat="37.795080" lon="-122.478370"></trkpt>
<trkpt lat="37.795200" lon="-122.478400"></trkpt>
<trkpt lat="37.795240" lon="-122.478410"></trkpt>
<trkpt lat="37.795310" lon="-122.478440"></trkpt>
<trkpt lat="37.795370" lon="-122.478470"></trkpt>
<trkpt lat="37.795390" lon="-122.478470"></trkpt>
<trkpt lat="37.795460" lon="-122.478500"></trkpt>
<trkpt lat="37.795550" lon="-122.478570"></trkpt>
<trkpt lat="37.795550" lon="-122.478500"></trkpt>
<trkpt lat="37.795550" lon="-122.478470"></trkpt>
<trkpt lat="37.795550" lon="-122.478460"></trkpt>
<trkpt lat="37.795540" lon="-122.478440"></trkpt>
<trkpt lat="37.795530" lon="-122.478430"></trkpt>
<trkpt lat="37.795520" lon="-122.478420"></trkpt>
<trkpt lat="37.795510" lon="-122.478410"></trkpt>
<trkpt lat="37.795500" lon="-122.478400"></trkpt>
<trkpt lat="37.795500" lon="-122.478390"></trkpt>
<trkpt lat="37.795500" lon="-122.478380"></trkpt>
<trkpt lat="37.795500" lon="-122.478370"></trkpt>
<trkpt lat="37.795500" lon="-122.478360"></trkpt>
<trkpt lat="37.795500" lon="-122.478350"></trkpt>
<trkpt lat="37.795510" lon="-122.478350"></trkpt>
<trkpt lat="37.795510" lon="-122.478340"></trkpt>
<trkpt lat="37.795520" lon="-122.478340"></trkpt>
<trkpt lat="37.795530" lon="-122.478330"></trkpt>
<trkpt lat="37.795540" lon="-122.478320"></trkpt>
<trkpt lat="37.795540" lon="-122.478290"></trkpt>
<trkpt lat="37.795540" lon="-122.478280"></trkpt>
<trkpt lat="37.795550" lon="-122.478270"></trkpt>
<trkpt lat="37.795560" lon="-122.478270"></trkpt>
<trkpt lat="37.795560" lon="-122.478260"></trkpt>
<trkpt lat="37.795580" lon="-122.478260"></trkpt>
<trkpt lat="37.795620" lon="-122.478260"></trkpt>
<trkpt lat="37.795630" lon="-122.478260"></trkpt>
<trkpt lat="37.795640" lon="-122.478260"></trkpt>
<trkpt lat="37.795640" lon="-122.478250"></trkpt>
<trkpt lat="37.795650" lon="-122.478250"></trkpt>
<trkpt lat="37.795650" lon="-122.478240"></trkpt>
<trkpt lat="37.795650" lon="-122.478230"></trkpt>
<trkpt lat="37.795660" lon="-122.478220"></trkpt>
<trkpt lat="37.795660" lon="-122.478210"></trkpt>
<trkpt lat="37.795640" lon="-122.478160"></trkpt>
<trkpt lat="37.795630" lon="-122.478140"></trkpt>
<trkpt lat="37.795630" lon="-122.478120"></trkpt>
<trkpt lat="37.795630" lon="-122.478100"></trkpt>
<trkpt lat="37.795630" lon="-122.478090"></trkpt>
<trkpt lat="37.795640" lon="-122.478070"></trkpt>
<trkpt lat="37.795640" lon="-122.478060"></trkpt>
<trkpt lat="37.795650" lon="-122.478050"></trkpt>
<trkpt lat="37.795650" lon="-122.478040"></trkpt>
<trkpt lat="37.795660" lon="-122.478030"></trkpt>
<trkpt lat="37.795670" lon="-122.478020"></trkpt>
<trkpt lat="37.795670" lon="-122.477990"></trkpt>
<trkpt lat="37.795680" lon="-122.477990"></trkpt>
<trkpt lat="37.795680" lon="-122.477980"></trkpt>
<trkpt lat="37.795690" lon="-122.477980"></trkpt>
<trkpt lat="37.795690" lon="-122.477970"></trkpt>
<trkpt lat="37.795740" lon="-122.477980"></trkpt>
<trkpt lat="37.795790" lon="-122.477970"></trkpt>
<trkpt lat="37.795800" lon="-122.477970"></trkpt>
<trkpt lat="37.795830" lon="-122.477960"></trkpt>
<trkpt lat="37.795840" lon="-122.477950"></trkpt>
<trkpt lat="37.795850" lon="-122.477940"></trkpt>
<trkpt lat="37.795850" lon="-122.477930"></trkpt>
<trkpt lat="37.795870" lon="-122.477900"></trkpt>
<trkpt lat="37.795880" lon="-122.477880"></trkpt>
<trkpt lat="37.795900" lon="-122.477860"></trkpt>
<trkpt lat="37.795920" lon="-122.477840"></trkpt>
<trkpt lat="37.795970" lon="-122.477840"></trkpt>
<trkpt lat="37.796100" lon="-122.477850"></trkpt>
<trkpt lat="37.796120" lon="-122.477850"></trkpt>
<trkpt lat="37.796130" lon="-122.477840"></trkpt>
<trkpt lat="37.796130" lon="-122.477830"></trkpt>
<trkpt lat="37.796140" lon="-122.477820"></trkpt>
<trkpt lat="37.796130" lon="-122.477770"></trkpt>
<trkpt lat="37.796210" lon="-122.477730"></trkpt>
<trkpt lat="37.796250" lon="-122.477700"></trkpt>
<trkpt lat="37.796270" lon="-122.477680"></trkpt>
<trkpt lat="37.796280" lon="-122.477680"></trkpt>
<trkpt lat="37.796300" lon="-122.477660"></trkpt>
<trkpt lat="37.796400" lon="-122.477550"></trkpt>
<trkpt lat="37.796430" lon="-122.477510"></trkpt>
<trkpt lat="37.796480" lon="-122.477440"></trkpt>
<trkpt lat="37.796570" lon="-122.477330"></trkpt>
<trkpt lat="37.796630" lon="-122.477270"></trkpt>
<trkpt lat="37.796670" lon="-122.477240"></trkpt>
<trkpt lat="37.796890" lon="-122.477030"></trkpt>
<trkpt lat="37.796950" lon="-122.476980"></trkpt>
<trkpt lat="37.797010" lon="-122.476930"></trkpt>
<trkpt lat="37.797040" lon="-122.476910"></trkpt>
<trkpt lat="37.797070" lon="-122.476890"></trkpt>
<trkpt lat="37.797100" lon="-122.476870"></trkpt>
<trkpt lat="37.797120" lon="-122.476860"></trkpt>
<trkpt lat="37.797160" lon="-122.476850"></trkpt>
<trkpt lat="37.797260" lon="-122.476810"></trkpt>
<trkpt lat="37.797320" lon="-122.476800"></trkpt>
<trkpt lat="37.797400" lon="-122.476780"></trkpt>
<trkpt lat="37.797430" lon="-122.476770"></trkpt>
<trkpt lat="37.797520" lon="-122.476740"></trkpt>
<trkpt lat="37.797550" lon="-122.476740"></trkpt>
<trkpt lat="37.797580" lon="-122.476750"></trkpt>
<trkpt lat="37.797630" lon="-122.476780"></trkpt>
<trkpt lat="37.797670" lon="-122.476650"></trkpt>
<trkpt lat="37.797730" lon="-122.476610"></trkpt>
<trkpt lat="37.797850" lon="-122.476550"></trkpt>
<trkpt lat="37.797910" lon="-122.476520"></trkpt>
<trkpt lat="37.797970" lon="-122.476490"></trkpt>
<trkpt lat="37.798080" lon="-122.476440"></trkpt>
<trkpt lat="37.798180" lon="-122.476390"></trkpt>
<trkpt lat="37.798210" lon="-122.476380"></trkpt>
<trkpt lat="37.798230" lon="-122.476370"></trkpt>
<trkpt lat="37.798250" lon="-122.476360"></trkpt>
<trkpt lat="37.798260" lon="-122.476350"></trkpt>
<trkpt lat="37.798280" lon="-122.476340"></trkpt>
<trkpt lat="37.798350" lon="-122.476310"></trkpt>
<trkpt lat="37.798470" lon="-122.476250"></trkpt>
<trkpt lat="37.798560" lon="-122.476210"></trkpt>
<trkpt lat="37.798620" lon="-122.476190"></trkpt>
<trkpt lat="37.798980" lon="-122.476010"></trkpt>
<trkpt lat="37.798960" lon="-122.475920"></trkpt>
<trkpt lat="37.798940" lon="-122.475790"></trkpt>
<trkpt lat="37.798920" lon="-122.475710"></trkpt>
<trkpt lat="37.798910" lon="-122.475650"></trkpt>
<trkpt lat="37.798900" lon="-122.475580"></trkpt>
<trkpt lat="37.798890" lon="-122.475520"></trkpt>
<trkpt lat="37.798880" lon="-122.475470"></trkpt>
<trkpt lat="37.798880" lon="-122.475420"></trkpt>
<trkpt lat="37.798860" lon="-122.475290"></trkpt>
<trkpt lat="37.798850" lon="-122.475210"></trkpt>
<trkpt lat="37.798820" lon="-122.475070"></trkpt>
<trkpt lat="37.798810" lon="-122.474990"></trkpt>
<trkpt lat="37.798790" lon="-122.474900"></trkpt>
<trkpt lat="37.798780" lon="-122.474790"></trkpt>
<trkpt lat="37.798760" lon="-122.474710"></trkpt>
<trkpt lat="37.798710" lon="-122.474490"></trkpt>
<trkpt lat="37.798680" lon="-122.474380"></trkpt>
<trkpt lat="37.798660" lon="-122.474310"></trkpt>
<trkpt lat="37.798650" lon="-122.474250"></trkpt>
<trkpt lat="37.798630" lon="-122.474190"></trkpt>
<trkpt lat="37.798570" lon="-122.474070"></trkpt>
<trkpt lat="37.798520" lon="-122.473840"></trkpt>
<trkpt lat="37.798480" lon="-122.473590"></trkpt>
<trkpt lat="37.798470" lon="-122.473500"></trkpt>
<trkpt lat="37.798500" lon="-122.473500"></trkpt>
<trkpt lat="37.798500" lon="-122.473430"></trkpt>
<trkpt lat="37.798490" lon="-122.473360"></trkpt>
<trkpt lat="37.798500" lon="-122.473260"></trkpt>
<trkpt lat="37.798500" lon="-122.473220"></trkpt>
<trkpt lat="37.798520" lon="-122.473130"></trkpt>
<trkpt lat="37.798520" lon="-122.473120"></trkpt>
<trkpt lat="37.798550" lon="-122.473030"></trkpt>
<trkpt lat="37.798580" lon="-122.472940"></trkpt>
<trkpt lat="37.798620" lon="-122.472830"></trkpt>
<trkpt lat="37.798650" lon="-122.472780"></trkpt>
<trkpt lat="37.798670" lon="-122.472740"></trkpt>
<trkpt lat="37.798710" lon="-122.472670"></trkpt>
<trkpt lat="37.798720" lon="-122.472650"></trkpt>
<trkpt lat="37.798740" lon="-122.472630"></trkpt>
<trkpt lat="37.798860" lon="-122.472440"></trkpt>
<trkpt lat="37.798950" lon="-122.472300"></trkpt>
<trkpt lat="37.798980" lon="-122.472260"></trkpt>
<trkpt lat="37.799030" lon="-122.472180"></trkpt>
<trkpt lat="37.799060" lon="-122.472130"></trkpt>
<trkpt lat="37.799100" lon="-122.472070"></trkpt>
<trkpt lat="37.799150" lon="-122.472000"></trkpt>
<trkpt lat="37.799200" lon="-122.471920"></trkpt>
<trkpt lat="37.799210" lon="-122.471910"></trkpt>
<trkpt lat="37.799210" lon="-122.471900"></trkpt>
<trkpt lat="37.799240" lon="-122.471840"></trkpt>
<trkpt lat="37.799270" lon="-122.471780"></trkpt>
<trkpt lat="37.799300" lon="-122.471720"></trkpt>
<trkpt lat="37.799320" lon="-122.471650"></trkpt>
<trkpt lat="37.799340" lon="-122.471590"></trkpt>
<trkpt lat="37.799350" lon="-122.471520"></trkpt>
<trkpt lat="37.799360" lon="-122.471450"></trkpt>
<trkpt lat="37.799370" lon="-122.471370"></trkpt>
<trkpt lat="37.799380" lon="-122.471300"></trkpt>
<trkpt lat="37.799380" lon="-122.471230"></trkpt>
<trkpt lat="37.799380" lon="-122.471160"></trkpt>
<trkpt lat="37.799380" lon="-122.471120"></trkpt>
<trkpt lat="37.799380" lon="-122.471110"></trkpt>
<trkpt lat="37.799370" lon="-122.471040"></trkpt>
<trkpt lat="37.799340" lon="-122.470970"></trkpt>
<trkpt lat="37.799340" lon="-122.470960"></trkpt>
<trkpt lat="37.799330" lon="-122.470930"></trkpt>
<trkpt lat="37.799310" lon="-122.470890"></trkpt>
<trkpt lat="37.799280" lon="-122.470850"></trkpt>
<trkpt lat="37.799260" lon="-122.470810"></trkpt>
<trkpt lat="37.799240" lon="-122.470790"></trkpt>
<trkpt lat="37.799210" lon="-122.470760"></trkpt>
<trkpt lat="37.799100" lon="-122.470680"></trkpt>
<trkpt lat="37.798940" lon="-122.470600"></trkpt>
<trkpt lat="37.798810" lon="-122.470540"></trkpt>
<trkpt lat="37.798780" lon="-122.470530"></trkpt>
<trkpt lat="37.798440" lon="-122.470360"></trkpt>
<trkpt lat="37.798420" lon="-122.470350"></trkpt>
<trkpt lat="37.798230" lon="-122.470230"></trkpt>
<trkpt lat="37.798160" lon="-122.470160"></trkpt>
<trkpt lat="37.798090" lon="-122.470100"></trkpt>
<trkpt lat="37.798050" lon="-122.470060"></trkpt>
<trkpt lat="37.798030" lon="-122.470040"></trkpt>
<trkpt lat="37.798020" lon="-122.470030"></trkpt>
<trkpt lat="37.798010" lon="-122.470020"></trkpt>
<trkpt lat="37.797970" lon="-122.469980"></trkpt>
<trkpt lat="37.797940" lon="-122.469940"></trkpt>
<trkpt lat="37.797930" lon="-122.469930"></trkpt>
<trkpt lat="37.797920" lon="-122.469900"></trkpt>
<trkpt lat="37.797900" lon="-122.469860"></trkpt>
<trkpt lat="37.797880" lon="-122.469830"></trkpt>
<trkpt lat="37.797870" lon="-122.469790"></trkpt>
<trkpt lat="37.797860" lon="-122.469760"></trkpt>
<trkpt lat="37.797850" lon="-122.469740"></trkpt>
<trkpt lat="37.797840" lon="-122.469720"></trkpt>
<trkpt lat="37.797840" lon="-122.469700"></trkpt>
<trkpt lat="37.797830" lon="-122.469650"></trkpt>
<trkpt lat="37.797820" lon="-122.469610"></trkpt>
<trkpt lat="37.797820" lon="-122.469510"></trkpt>
<trkpt lat="37.797820" lon="-122.469480"></trkpt>
<trkpt lat="37.797820" lon="-122.469440"></trkpt>
<trkpt lat="37.797820" lon="-122.469370"></trkpt>
<trkpt lat="37.797830" lon="-122.469290"></trkpt>
<trkpt lat="37.797850" lon="-122.469250"></trkpt>
<trkpt lat="37.797860" lon="-122.469220"></trkpt>
<trkpt lat="37.797890" lon="-122.469160"></trkpt>
<trkpt lat="37.797900" lon="-122.469140"></trkpt>
<trkpt lat="37.797890" lon="-122.469120"></trkpt>
<trkpt lat="37.797920" lon="-122.469080"></trkpt>
<trkpt lat="37.797940" lon="-122.469110"></trkpt>
<trkpt lat="37.797960" lon="-122.469090"></trkpt>
<trkpt lat="37.797980" lon="-122.469060"></trkpt>
<trkpt lat="37.798010" lon="-122.469030"></trkpt>
<trkpt lat="37.798000" lon="-122.469000"></trkpt>
<trkpt lat="37.798090" lon="-122.468940"></trkpt>
<trkpt lat="37.798100" lon="-122.468960"></trkpt>
<trkpt lat="37.798140" lon="-122.468980"></trkpt>
<trkpt lat="37.798170" lon="-122.468990"></trkpt>
<trkpt lat="37.798220" lon="-122.469010"></trkpt>
<trkpt lat="37.798240" lon="-122.469020"></trkpt>
<trkpt lat="37.798300" lon="-122.469040"></trkpt>
<trkpt lat="37.798390" lon="-122.469100"></trkpt>
<trkpt lat="37.798420" lon="-122.469110"></trkpt>
<trkpt lat="37.798480" lon="-122.469120"></trkpt>
<trkpt lat="37.798570" lon="-122.469120"></trkpt>
<trkpt lat="37.798650" lon="-122.469110"></trkpt>
<trkpt lat="37.798670" lon="-122.469100"></trkpt>
<trkpt lat="37.798710" lon="-122.469090"></trkpt>
<trkpt lat="37.798770" lon="-122.469060"></trkpt>
<trkpt lat="37.798870" lon="-122.469000"></trkpt>
<trkpt lat="37.798970" lon="-122.468930"></trkpt>
<trkpt lat="37.799020" lon="-122.468890"></trkpt>
<trkpt lat="37.799070" lon="-122.468850"></trkpt>
<trkpt lat="37.799120" lon="-122.468810"></trkpt>
<trkpt lat="37.799130" lon="-122.468800"></trkpt>
<trkpt lat="37.799130" lon="-122.468790"></trkpt>
<trkpt lat="37.799170" lon="-122.468770"></trkpt>
<trkpt lat="37.799180" lon="-122.468760"></trkpt>
<trkpt lat="37.799200" lon="-122.468740"></trkpt>
<trkpt lat="37.799220" lon="-122.468720"></trkpt>
<trkpt lat="37.799230" lon="-122.468710"></trkpt>
<trkpt lat="37.799240" lon="-122.468690"></trkpt>
<trkpt lat="37.799260" lon="-122.468620"></trkpt>
<trkpt lat="37.799270" lon="-122.468600"></trkpt>
<trkpt lat="37.799280" lon="-122.468560"></trkpt>
<trkpt lat="37.799270" lon="-122.468490"></trkpt>
<trkpt lat="37.799280" lon="-122.468460"></trkpt>
<trkpt lat="37.799270" lon="-122.468410"></trkpt>
<trkpt lat="37.799270" lon="-122.468380"></trkpt>
<trkpt lat="37.799230" lon="-122.468240"></trkpt>
<trkpt lat="37.799220" lon="-122.468210"></trkpt>
<trkpt lat="37.799210" lon="-122.468180"></trkpt>
<trkpt lat="37.799200" lon="-122.468160"></trkpt>
<trkpt lat="37.799200" lon="-122.468140"></trkpt>
<trkpt lat="37.799190" lon="-122.468120"></trkpt>
<trkpt lat="37.799170" lon="-122.468020"></trkpt>
<trkpt lat="37.799170" lon="-122.468010"></trkpt>
<trkpt lat="37.799160" lon="-122.468000"></trkpt>
<trkpt lat="37.799160" lon="-122.467960"></trkpt>
<trkpt lat="37.799150" lon="-122.467910"></trkpt>
<trkpt lat="37.799150" lon="-122.467870"></trkpt>
<trkpt lat="37.799150" lon="-122.467830"></trkpt>
<trkpt lat="37.799160" lon="-122.467810"></trkpt>
<trkpt lat="37.799160" lon="-122.467760"></trkpt>
<trkpt lat="37.799180" lon="-122.467670"></trkpt>
<trkpt lat="37.799210" lon="-122.467590"></trkpt>
<trkpt lat="37.799230" lon="-122.467530"></trkpt>
<trkpt lat="37.799250" lon="-122.467480"></trkpt>
<trkpt lat="37.799270" lon="-122.467440"></trkpt>
<trkpt lat="37.799300" lon="-122.467400"></trkpt>
<trkpt lat="37.799390" lon="-122.467230"></trkpt>
<trkpt lat="37.799420" lon="-122.467210"></trkpt>
<trkpt lat="37.799440" lon="-122.467200"></trkpt>
<trkpt lat="37.799450" lon="-122.467190"></trkpt>
<trkpt lat="37.799520" lon="-122.467160"></trkpt>
<trkpt lat="37.799590" lon="-122.467140"></trkpt>
<trkpt lat="37.799590" lon="-122.467130"></trkpt>
<trkpt lat="37.799680" lon="-122.467130"></trkpt>
<trkpt lat="37.799690" lon="-122.467190"></trkpt>
<trkpt lat="37.799750" lon="-122.467180"></trkpt>
<trkpt lat="37.799860" lon="-122.467180"></trkpt>
<trkpt lat="37.799920" lon="-122.467180"></trkpt>
<trkpt lat="37.799970" lon="-122.467180"></trkpt>
<trkpt lat="37.800050" lon="-122.467180"></trkpt>
<trkpt lat="37.800180" lon="-122.467160"></trkpt>
<trkpt lat="37.800240" lon="-122.467150"></trkpt>
<trkpt lat="37.800560" lon="-122.467110"></trkpt>
<trkpt lat="37.800600" lon="-122.467110"></trkpt>
<trkpt lat="37.800690" lon="-122.467100"></trkpt>
<trkpt lat="37.800780" lon="-122.467080"></trkpt>
<trkpt lat="37.800960" lon="-122.467060"></trkpt>
<trkpt lat="37.800990" lon="-122.467060"></trkpt>
<trkpt lat="37.801140" lon="-122.466950"></trkpt>
<trkpt lat="37.801170" lon="-122.466950"></trkpt>
<trkpt lat="37.801580" lon="-122.466900"></trkpt>
<trkpt lat="37.801640" lon="-122.466920"></trkpt>
<trkpt lat="37.801640" lon="-122.466900"></trkpt>
<trkpt lat="37.801740" lon="-122.466880"></trkpt>
<trkpt lat="37.801760" lon="-122.466960"></trkpt>
<trkpt lat="37.801910" lon="-122.466950"></trkpt>
<trkpt lat="37.802110" lon="-122.466930"></trkpt>
<trkpt lat="37.802190" lon="-122.466920"></trkpt>
<trkpt lat="37.802270" lon="-122.466900"></trkpt>
<trkpt lat="37.802410" lon="-122.466880"></trkpt>
<trkpt lat="37.802450" lon="-122.466880"></trkpt>
<trkpt lat="37.802500" lon="-122.466870"></trkpt>
<trkpt lat="37.802540" lon="-122.466870"></trkpt>
<trkpt lat="37.802570" lon="-122.466880"></trkpt>
<trkpt lat="37.802590" lon="-122.466890"></trkpt>
<trkpt lat="37.802610" lon="-122.466900"></trkpt>
<trkpt lat="37.802640" lon="-122.466920"></trkpt>
<trkpt lat="37.802680" lon="-122.466960"></trkpt>
<trkpt lat="37.802720" lon="-122.466990"></trkpt>
<trkpt lat="37.802770" lon="-122.467050"></trkpt>
<trkpt lat="37.802800" lon="-122.467080"></trkpt>
<trkpt lat="37.802840" lon="-122.467120"></trkpt>
<trkpt lat="37.802980" lon="-122.467250"></trkpt>
<trkpt lat="37.803010" lon="-122.467280"></trkpt>
<trkpt lat="37.803180" lon="-122.467430"></trkpt>
<trkpt lat="37.803270" lon="-122.467510"></trkpt>
<trkpt lat="37.803310" lon="-122.467550"></trkpt>
<trkpt lat="37.803350" lon="-122.467580"></trkpt>
<trkpt lat="37.803390" lon="-122.467600"></trkpt>
<trkpt lat="37.803430" lon="-122.467610"></trkpt>
<trkpt lat="37.803480" lon="-122.467600"></trkpt>
<trkpt lat="37.803510" lon="-122.467590"></trkpt>
<trkpt lat="37.803550" lon="-122.467550"></trkpt>
<trkpt lat="37.803590" lon="-122.467490"></trkpt>
<trkpt lat="37.803620" lon="-122.467420"></trkpt>
<trkpt lat="37.803620" lon="-122.467430"></trkpt>
<trkpt lat="37.803700" lon="-122.467370"></trkpt>
<trkpt lat="37.803690" lon="-122.467350"></trkpt>
<trkpt lat="37.803680" lon="-122.467340"></trkpt>
<trkpt lat="37.803670" lon="-122.467330"></trkpt>
<trkpt lat="37.803670" lon="-122.467310"></trkpt>
<trkpt lat="37.803660" lon="-122.467280"></trkpt>
<trkpt lat="37.803650" lon="-122.467170"></trkpt>
<trkpt lat="37.803640" lon="-122.467100"></trkpt>
<trkpt lat="37.803600" lon="-122.466810"></trkpt>
<trkpt lat="37.803540" lon="-122.466460"></trkpt>
<trkpt lat="37.803410" lon="-122.465620"></trkpt>
<trkpt lat="37.803400" lon="-122.465540"></trkpt>
<trkpt lat="37.803400" lon="-122.465500"></trkpt>
<trkpt lat="37.803370" lon="-122.465210"></trkpt>
<trkpt lat="37.803360" lon="-122.465130"></trkpt>
<trkpt lat="37.803290" lon="-122.464450"></trkpt>
<trkpt lat="37.803220" lon="-122.463810"></trkpt>
<trkpt lat="37.803210" lon="-122.463760"></trkpt>
<trkpt lat="37.803150" lon="-122.463250"></trkpt>
<trkpt lat="37.803130" lon="-122.463040"></trkpt>
<trkpt lat="37.803120" lon="-122.462990"></trkpt>
<trkpt lat="37.803100" lon="-122.462860"></trkpt>
<trkpt lat="37.803050" lon="-122.462390"></trkpt>
<trkpt lat="37.803040" lon="-122.462360"></trkpt>
<trkpt lat="37.803040" lon="-122.462330"></trkpt>
<trkpt lat="37.803040" lon="-122.462300"></trkpt>
<trkpt lat="37.803020" lon="-122.462130"></trkpt>
<trkpt lat="37.802980" lon="-122.461760"></trkpt>
<trkpt lat="37.802930" lon="-122.461340"></trkpt>
<trkpt lat="37.802930" lon="-122.461280"></trkpt>
<trkpt lat="37.802920" lon="-122.461220"></trkpt>
<trkpt lat="37.802920" lon="-122.461190"></trkpt>
<trkpt lat="37.802920" lon="-122.461170"></trkpt>
<trkpt lat="37.802920" lon="-122.461140"></trkpt>
<trkpt lat="37.802920" lon="-122.461100"></trkpt>
<trkpt lat="37.802930" lon="-122.461050"></trkpt>
<trkpt lat="37.802930" lon="-122.461000"></trkpt>
<trkpt lat="37.802930" lon="-122.460980"></trkpt>
<trkpt lat="37.802940" lon="-122.460960"></trkpt>
<trkpt lat="37.802940" lon="-122.460950"></trkpt>
<trkpt lat="37.802950" lon="-122.460890"></trkpt>
<trkpt lat="37.802960" lon="-122.460840"></trkpt>
<trkpt lat="37.802980" lon="-122.460790"></trkpt>
<trkpt lat="37.803010" lon="-122.460730"></trkpt>
<trkpt lat="37.803030" lon="-122.460690"></trkpt>
<trkpt lat="37.803060" lon="-122.460640"></trkpt>
<trkpt lat="37.803080" lon="-122.460610"></trkpt>
<trkpt lat="37.803120" lon="-122.460550"></trkpt>
<trkpt lat="37.803140" lon="-122.460530"></trkpt>
<trkpt lat="37.803160" lon="-122.460500"></trkpt>
<trkpt lat="37.803160" lon="-122.460490"></trkpt>
<trkpt lat="37.803220" lon="-122.460410"></trkpt>
<trkpt lat="37.803250" lon="-122.460370"></trkpt>
<trkpt lat="37.803290" lon="-122.460330"></trkpt>
<trkpt lat="37.803350" lon="-122.460250"></trkpt>
<trkpt lat="37.803430" lon="-122.460120"></trkpt>
<trkpt lat="37.803470" lon="-122.460050"></trkpt>
<trkpt lat="37.803490" lon="-122.459990"></trkpt>
<trkpt lat="37.803540" lon="-122.459840"></trkpt>
<trkpt lat="37.803560" lon="-122.459710"></trkpt>
<trkpt lat="37.803610" lon="-122.459380"></trkpt>
<trkpt lat="37.803680" lon="-122.458820"></trkpt>
<trkpt lat="37.803710" lon="-122.458590"></trkpt>
<trkpt lat="37.803820" lon="-122.457700"></trkpt>
<trkpt lat="37.803840" lon="-122.457550"></trkpt>
<trkpt lat="37.803960" lon="-122.456640"></trkpt>
<trkpt lat="37.804030" lon="-122.456090"></trkpt>
<trkpt lat="37.804050" lon="-122.455950"></trkpt>
<trkpt lat="37.804090" lon="-122.455620"></trkpt>
<trkpt lat="37.804130" lon="-122.455280"></trkpt>
<trkpt lat="37.804180" lon="-122.454910"></trkpt>
<trkpt lat="37.804200" lon="-122.454720"></trkpt>
<trkpt lat="37.804220" lon="-122.454590"></trkpt>
<trkpt lat="37.804240" lon="-122.454480"></trkpt>
<trkpt lat="37.804240" lon="-122.454470"></trkpt>
<trkpt lat="37.804250" lon="-122.454380"></trkpt>
<trkpt lat="37.804250" lon="-122.454340"></trkpt>
<trkpt lat="37.804260" lon="-122.454270"></trkpt>
<trkpt lat="37.804260" lon="-122.454150"></trkpt>
<trkpt lat="37.804270" lon="-122.454110"></trkpt>
<trkpt lat="37.804290" lon="-122.453940"></trkpt>
<trkpt lat="37.804310" lon="-122.453830"></trkpt>
<trkpt lat="37.804340" lon="-122.453620"></trkpt>
<trkpt lat="37.804340" lon="-122.453600"></trkpt>
<trkpt lat="37.804360" lon="-122.453490"></trkpt>
<trkpt lat="37.804380" lon="-122.453280"></trkpt>
<trkpt lat="37.804400" lon="-122.453120"></trkpt>
<trkpt lat="37.804410" lon="-122.453100"></trkpt>
<trkpt lat="37.804420" lon="-122.453040"></trkpt>
<trkpt lat="37.804420" lon="-122.452970"></trkpt>
<trkpt lat="37.804450" lon="-122.452730"></trkpt>
<trkpt lat="37.804480" lon="-122.452540"></trkpt>
<trkpt lat="37.804480" lon="-122.452530"></trkpt>
<trkpt lat="37.804520" lon="-122.452200"></trkpt>
<trkpt lat="37.804520" lon="-122.452180"></trkpt>
<trkpt lat="37.804540" lon="-122.452060"></trkpt>
<trkpt lat="37.804560" lon="-122.451900"></trkpt>
<trkpt lat="37.804600" lon="-122.451780"></trkpt>
<trkpt lat="37.804610" lon="-122.451740"></trkpt>
<trkpt lat="37.804600" lon="-122.451610"></trkpt>
<trkpt lat="37.804670" lon="-122.451080"></trkpt>
<trkpt lat="37.804670" lon="-122.451050"></trkpt>
<trkpt lat="37.804680" lon="-122.450980"></trkpt>
<trkpt lat="37.804690" lon="-122.450920"></trkpt>
<trkpt lat="37.804690" lon="-122.450880"></trkpt>
<trkpt lat="37.804780" lon="-122.450250"></trkpt>
<trkpt lat="37.804780" lon="-122.450220"></trkpt>
<trkpt lat="37.804790" lon="-122.450220"></trkpt>
<trkpt lat="37.804800" lon="-122.450150"></trkpt>
<trkpt lat="37.804790" lon="-122.450150"></trkpt>
<trkpt lat="37.804790" lon="-122.450110"></trkpt>
<trkpt lat="37.804810" lon="-122.449980"></trkpt>
<trkpt lat="37.804880" lon="-122.449470"></trkpt>
<trkpt lat="37.805010" lon="-122.448710"></trkpt>
<trkpt lat="37.805030" lon="-122.448640"></trkpt>
<trkpt lat="37.805030" lon="-122.448610"></trkpt>
<trkpt lat="37.805040" lon="-122.448590"></trkpt>
<trkpt lat="37.805060" lon="-122.448460"></trkpt>
<trkpt lat="37.805090" lon="-122.448450"></trkpt>
<trkpt lat="37.805130" lon="-122.448450"></trkpt>
<trkpt lat="37.805150" lon="-122.448310"></trkpt>
<trkpt lat="37.805150" lon="-122.448280"></trkpt>
<trkpt lat="37.805140" lon="-122.448280"></trkpt>
<trkpt lat="37.805130" lon="-122.448280"></trkpt>
<trkpt lat="37.805110" lon="-122.448290"></trkpt>
<trkpt lat="37.805080" lon="-122.448290"></trkpt>
<trkpt lat="37.805090" lon="-122.448210"></trkpt>
<trkpt lat="37.805110" lon="-122.448130"></trkpt>
<trkpt lat="37.805120" lon="-122.448060"></trkpt>
<trkpt lat="37.805140" lon="-122.447990"></trkpt>
<trkpt lat="37.805140" lon="-122.447900"></trkpt>
<trkpt lat="37.805220" lon="-122.447720"></trkpt>
<trkpt lat="37.805260" lon="-122.447400"></trkpt>
<trkpt lat="37.805270" lon="-122.447240"></trkpt>
<trkpt lat="37.805110" lon="-122.447210"></trkpt>
<trkpt lat="37.805120" lon="-122.447150"></trkpt>
<trkpt lat="37.805170" lon="-122.446820"></trkpt>
<trkpt lat="37.805170" lon="-122.446730"></trkpt>
<trkpt lat="37.805200" lon="-122.446510"></trkpt>
<trkpt lat="37.805210" lon="-122.446410"></trkpt>
<trkpt lat="37.805240" lon="-122.446300"></trkpt>
<trkpt lat="37.805300" lon="-122.445810"></trkpt>
<trkpt lat="37.805310" lon="-122.445760"></trkpt>
<trkpt lat="37.805270" lon="-122.445750"></trkpt>
<trkpt lat="37.805170" lon="-122.445720"></trkpt>
<trkpt lat="37.804530" lon="-122.445590"></trkpt>
<trkpt lat="37.804490" lon="-122.445580"></trkpt>
<trkpt lat="37.804360" lon="-122.445570"></trkpt>
<trkpt lat="37.804380" lon="-122.445380"></trkpt>
<trkpt lat="37.804410" lon="-122.445100"></trkpt>
</trkseg></trk>
</gpx>
