<?xml version="1.0" encoding="UTF-8"?>
<gpx version="1.1" creator="greatruns-mapmyrun">
<trk><name>sf_crissy_fort_point</name><trkseg>
<trkpt lat="37.803400" lon="-122.431720"></trkpt>
<trkpt lat="37.803490" lon="-122.431580"></trkpt>
<trkpt lat="37.803530" lon="-122.431610"></trkpt>
<trkpt lat="37.803590" lon="-122.431630"></trkpt>
<trkpt lat="37.803900" lon="-122.431640"></trkpt>
<trkpt lat="37.804170" lon="-122.431680"></trkpt>
<trkpt lat="37.804520" lon="-122.431800"></trkpt>
<trkpt lat="37.804830" lon="-122.431840"></trkpt>
<trkpt lat="37.805070" lon="-122.431930"></trkpt>
<trkpt lat="37.805180" lon="-122.431960"></trkpt>
<trkpt lat="37.805180" lon="-122.431960"></trkpt>
<trkpt lat="37.805250" lon="-122.431980"></trkpt>
<trkpt lat="37.805300" lon="-122.432030"></trkpt>
<trkpt lat="37.805330" lon="-122.431980"></trkpt>
<trkpt lat="37.805350" lon="-122.431860"></trkpt>
<trkpt lat="37.805460" lon="-122.431880"></trkpt>
<trkpt lat="37.805600" lon="-122.431920"></trkpt>
<trkpt lat="37.805680" lon="-122.431860"></trkpt>
<trkpt lat="37.805730" lon="-122.431840"></trkpt>
<trkpt lat="37.805870" lon="-122.431870"></trkpt>
<trkpt lat="37.805900" lon="-122.431900"></trkpt>
<trkpt lat="37.805890" lon="-122.432070"></trkpt>
<trkpt lat="37.805910" lon="-122.432180"></trkpt>
<trkpt lat="37.805860" lon="-122.432450"></trkpt>
<trkpt lat="37.805720" lon="-122.432560"></trkpt>
<trkpt lat="37.805680" lon="-122.432610"></trkpt>
<trkpt lat="37.805500" lon="-122.433650"></trkpt>
<trkpt lat="37.805520" lon="-122.433780"></trkpt>
<trkpt lat="37.805590" lon="-122.433880"></trkpt>
<trkpt lat="37.805680" lon="-122.433940"></trkpt>
<trkpt lat="37.806860" lon="-122.434180"></trkpt>
<trkpt lat="37.806860" lon="-122.434180"></trkpt>
<trkpt lat="37.806890" lon="-122.434200"></trkpt>
<trkpt lat="37.806940" lon="-122.434250"></trkpt>
<trkpt lat="37.806940" lon="-122.434330"></trkpt>
<trkpt lat="37.806890" lon="-122.434810"></trkpt>
<trkpt lat="37.806810" lon="-122.435450"></trkpt>
<trkpt lat="37.806810" lon="-122.435690"></trkpt>
<trkpt lat="37.806780" lon="-122.435870"></trkpt>
<trkpt lat="37.807190" lon="-122.435940"></trkpt>
<trkpt lat="37.807250" lon="-122.435960"></trkpt>
<trkpt lat="37.807250" lon="-122.435960"></trkpt>
<trkpt lat="37.807340" lon="-122.435980"></trkpt>
<trkpt lat="37.807360" lon="-122.436020"></trkpt>
<trkpt lat="37.806590" lon="-122.442130"></trkpt>
<trkpt lat="37.806590" lon="-122.442130"></trkpt>
<trkpt lat="37.806550" lon="-122.442340"></trkpt>
<trkpt lat="37.806540" lon="-122.442350"></trkpt>
<trkpt lat="37.806520" lon="-122.442350"></trkpt>
<trkpt lat="37.806130" lon="-122.442290"></trkpt>
<trkpt lat="37.805910" lon="-122.442250"></trkpt>
<trkpt lat="37.805900" lon="-122.442310"></trkpt>
<trkpt lat="37.805680" lon="-122.444020"></trkpt>
<trkpt lat="37.805400" lon="-122.446240"></trkpt>
<trkpt lat="37.805150" lon="-122.448390"></trkpt>
<trkpt lat="37.805150" lon="-122.448390"></trkpt>
<trkpt lat="37.805010" lon="-122.448990"></trkpt>
<trkpt lat="37.804860" lon="-122.449790"></trkpt>
<trkpt lat="37.804700" lon="-122.450940"></trkpt>
<trkpt lat="37.804500" lon="-122.452540"></trkpt>
<trkpt lat="37.804550" lon="-122.452560"></trkpt>
<trkpt lat="37.804650" lon="-122.452560"></trkpt>
<trkpt lat="37.804740" lon="-122.452530"></trkpt>
<trkpt lat="37.804800" lon="-122.452490"></trkpt>
<trkpt lat="37.804860" lon="-122.452520"></trkpt>
<trkpt lat="37.804950" lon="-122.452580"></trkpt>
<trkpt lat="37.805050" lon="-122.452690"></trkpt>
<trkpt lat="37.805120" lon="-122.452810"></trkpt>
<trkpt lat="37.805210" lon="-122.453080"></trkpt>
<trkpt lat="37.805260" lon="-122.453130"></trkpt>
<trkpt lat="37.805390" lon="-122.453200"></trkpt>
<trkpt lat="37.805450" lon="-122.453250"></trkpt>
<trkpt lat="37.805550" lon="-122.453420"></trkpt>
<trkpt lat="37.805600" lon="-122.453520"></trkpt>
<trkpt lat="37.805600" lon="-122.453780"></trkpt>
<trkpt lat="37.805670" lon="-122.453480"></trkpt>
<trkpt lat="37.805670" lon="-122.453480"></trkpt>
<trkpt lat="37.805600" lon="-122.453780"></trkpt>
<trkpt lat="37.805500" lon="-122.454560"></trkpt>
<trkpt lat="37.805320" lon="-122.456010"></trkpt>
<trkpt lat="37.805320" lon="-122.456010"></trkpt>
<trkpt lat="37.804830" lon="-122.459840"></trkpt>
<trkpt lat="37.804680" lon="-122.461030"></trkpt>
<trkpt lat="37.804710" lon="-122.461360"></trkpt>
<trkpt lat="37.804600" lon="-122.463530"></trkpt>
<trkpt lat="37.804580" lon="-122.464310"></trkpt>
<trkpt lat="37.804620" lon="-122.464980"></trkpt>
<trkpt lat="37.804710" lon="-122.465600"></trkpt>
<trkpt lat="37.804900" lon="-122.466520"></trkpt>
<trkpt lat="37.804960" lon="-122.466750"></trkpt>
<trkpt lat="37.805090" lon="-122.466990"></trkpt>
<trkpt lat="37.805760" lon="-122.468050"></trkpt>
<trkpt lat="37.806160" lon="-122.468540"></trkpt>
<trkpt lat="37.806300" lon="-122.468740"></trkpt>
<trkpt lat="37.806340" lon="-122.468750"></trkpt>
<trkpt lat="37.806390" lon="-122.468760"></trkpt>
<trkpt lat="37.806390" lon="-122.468760"></trkpt>
<trkpt lat="37.806510" lon="-122.468800"></trkpt>
<trkpt lat="37.806980" lon="-122.469050"></trkpt>
<trkpt lat="37.807530" lon="-122.469420"></trkpt>
<trkpt lat="37.807700" lon="-122.469560"></trkpt>
<trkpt lat="37.807780" lon="-122.469670"></trkpt>
<trkpt lat="37.808110" lon="-122.470090"></trkpt>
<trkpt lat="37.808480" lon="-122.470640"></trkpt>
<trkpt lat="37.808480" lon="-122.470640"></trkpt>
<trkpt lat="37.808720" lon="-122.471290"></trkpt>
<trkpt lat="37.808750" lon="-122.471410"></trkpt>
<trkpt lat="37.808820" lon="-122.472170"></trkpt>
<trkpt lat="37.808930" lon="-122.472740"></trkpt>
<trkpt lat="37.809000" lon="-122.473390"></trkpt>
<trkpt lat="37.809000" lon="-122.474040"></trkpt>
<trkpt lat="37.809070" lon="-122.474810"></trkpt>
<trkpt lat="37.809270" lon="-122.475620"></trkpt>
<trkpt lat="37.809430" lon="-122.476000"></trkpt>
<trkpt lat="37.809470" lon="-122.476080"></trkpt>
<trkpt lat="37.809540" lon="-122.476140"></trkpt>
<trkpt lat="37.810070" lon="-122.476420"></trkpt>
<trkpt lat="37.810150" lon="-122.476410"></trkpt>
<trkpt lat="37.810310" lon="-122.476450"></trkpt>
<trkpt lat="37.810460" lon="-122.476500"></trkpt>
<trkpt lat="37.810490" lon="-122.476550"></trkpt>
<trkpt lat="37.810480" lon="-122.476600"></trkpt>
<trkpt lat="37.810480" lon="-122.476600"></trkpt>
<trkpt lat="37.810390" lon="-122.476770"></trkpt>
<trkpt lat="37.810310" lon="-122.476690"></trkpt>
<trkpt lat="37.810070" lon="-122.476420"></trkpt>
<trkpt lat="37.809540" lon="-122.476140"></trkpt>
<trkpt lat="37.809470" lon="-122.476080"></trkpt>
<trkpt lat="37.809340" lon="-122.475820"></trkpt>
<trkpt lat="37.809270" lon="-122.475620"></trkpt>
<trkpt lat="37.809130" lon="-122.475060"></trkpt>
<trkpt lat="37.809070" lon="-122.474810"></trkpt>
<trkpt lat="37.809010" lon="-122.474240"></trkpt>
<trkpt lat="37.809000" lon="-122.473490"></trkpt>
<trkpt lat="37.808960" lon="-122.472960"></trkpt>
<trkpt lat="37.808820" lon="-122.472170"></trkpt>
<trkpt lat="37.808750" lon="-122.471410"></trkpt>
<trkpt lat="37.808720" lon="-122.471290"></trkpt>
<trkpt lat="37.808480" lon="-122.470640"></trkpt>
<trkpt lat="37.808480" lon="-122.470640"></trkpt>
<trkpt lat="37.808110" lon="-122.470090"></trkpt>
<trkpt lat="37.807780" lon="-122.469670"></trkpt>
<trkpt lat="37.807700" lon="-122.469560"></trkpt>
<trkpt lat="37.807530" lon="-122.469420"></trkpt>
<trkpt lat="37.807220" lon="-122.469200"></trkpt>
<trkpt lat="37.806980" lon="-122.469050"></trkpt>
<trkpt lat="37.806510" lon="-122.468800"></trkpt>
<trkpt lat="37.806390" lon="-122.468760"></trkpt>
<trkpt lat="37.806390" lon="-122.468760"></trkpt>
<trkpt lat="37.806300" lon="-122.468740"></trkpt>
<trkpt lat="37.806160" lon="-122.468540"></trkpt>
<trkpt lat="37.805980" lon="-122.468330"></trkpt>
<trkpt lat="37.805760" lon="-122.468050"></trkpt>
<trkpt lat="37.805360" lon="-122.467430"></trkpt>
<trkpt lat="37.805000" lon="-122.466840"></trkpt>
<trkpt lat="37.804930" lon="-122.466670"></trkpt>
<trkpt lat="37.804770" lon="-122.465920"></trkpt>
<trkpt lat="37.804660" lon="-122.465290"></trkpt>
<trkpt lat="37.804600" lon="-122.464650"></trkpt>
<trkpt lat="37.804590" lon="-122.463920"></trkpt>
<trkpt lat="37.804650" lon="-122.462750"></trkpt>
<trkpt lat="37.804700" lon="-122.461170"></trkpt>
<trkpt lat="37.804690" lon="-122.460890"></trkpt>
<trkpt lat="37.805320" lon="-122.456010"></trkpt>
<trkpt lat="37.805320" lon="-122.456010"></trkpt>
<trkpt lat="37.805500" lon="-122.454560"></trkpt>
<trkpt lat="37.805600" lon="-122.453780"></trkpt>
<trkpt lat="37.805670" lon="-122.453480"></trkpt>
<trkpt lat="37.805670" lon="-122.453480"></trkpt>
<trkpt lat="37.805870" lon="-122.452790"></trkpt>
<trkpt lat="37.805940" lon="-122.452480"></trkpt>
<trkpt lat="37.806000" lon="-122.451990"></trkpt>
<trkpt lat="37.806160" lon="-122.450720"></trkpt>
<trkpt lat="37.806190" lon="-122.450460"></trkpt>
<trkpt lat="37.806050" lon="-122.450430"></trkpt>
<trkpt lat="37.805510" lon="-122.449480"></trkpt>
<trkpt lat="37.805070" lon="-122.448720"></trkpt>
<trkpt lat="37.805140" lon="-122.448450"></trkpt>
<trkpt lat="37.805150" lon="-122.448390"></trkpt>
<trkpt lat="37.805150" lon="-122.448390"></trkpt>
<trkpt lat="37.805470" lon="-122.445680"></trkpt>
<trkpt lat="37.805910" lon="-122.442250"></trkpt>
<trkpt lat="37.806520" lon="-122.442350"></trkpt>
<trkpt lat="37.806540" lon="-122.442340"></trkpt>
<trkpt lat="37.806550" lon="-122.442330"></trkpt>
<trkpt lat="37.806590" lon="-122.442130"></trkpt>
<trkpt lat="37.806590" lon="-122.442130"></trkpt>
<trkpt lat="37.807360" lon="-122.436050"></trkpt>
<trkpt lat="37.807350" lon="-122.436000"></trkpt>
<trkpt lat="37.807320" lon="-122.435970"></trkpt>
<trkpt lat="37.807250" lon="-122.435960"></trkpt>
<trkpt lat="37.807250" lon="-122.435960"></trkpt>
<trkpt lat="37.806780" lon="-122.435870"></trkpt>
<trkpt lat="37.806810" lon="-122.435450"></trkpt>
<trkpt lat="37.806940" lon="-122.434290"></trkpt>
<trkpt lat="37.806910" lon="-122.434220"></trkpt>
<trkpt lat="37.806860" lon="-122.434180"></trkpt>
<trkpt lat="37.806860" lon="-122.434180"></trkpt>
<trkpt lat="37.805680" lon="-122.433940"></trkpt>
<trkpt lat="37.805590" lon="-122.433880"></trkpt>
<trkpt lat="37.805520" lon="-122.433780"></trkpt>
<trkpt lat="37.805500" lon="-122.433650"></trkpt>
<trkpt lat="37.805680" lon="-122.432610"></trkpt>
<trkpt lat="37.805720" lon="-122.432560"></trkpt>
<trkpt lat="37.805860" lon="-122.432450"></trkpt>
<trkpt lat="37.805910" lon="-122.432180"></trkpt>
<trkpt lat="37.805890" lon="-122.432070"></trkpt>
<trkpt lat="37.805900" lon="-122.431900"></trkpt>
<trkpt lat="37.805870" lon="-122.431870"></trkpt>
<trkpt lat="37.805730" lon="-122.431840"></trkpt>
<trkpt lat="37.805680" lon="-122.431860"></trkpt>
<trkpt lat="37.805600" lon="-122.431920"></trkpt>
<trkpt lat="37.805350" lon="-122.431860"></trkpt>
<trkpt lat="37.805330" lon="-122.431980"></trkpt>
<trkpt lat="37.805300" lon="-122.432030"></trkpt>
<trkpt lat="37.805250" lon="-122.431980"></trkpt>
<trkpt lat="37.805180" lon="-122.431960"></trkpt>
<trkpt lat="37.805180" lon="-122.431960"></trkpt>
<trkpt lat="37.805070" lon="-122.431930"></trkpt>
<trkpt lat="37.804830" lon="-122.431840"></trkpt>
<trkpt lat="37.804520" lon="-122.431800"></trkpt>
<trkpt lat="37.804170" lon="-122.431680"></trkpt>
<trkpt lat="37.803900" lon="-122.431640"></trkpt>
<trkpt lat="37.803590" lon="-122.431630"></trkpt>
<trkpt lat="37.803530" lon="-122.431610"></trkpt>
<trkpt lat="37.803490" lon="-122.431580"></trkpt>
<trkpt lat="37.803400" lon="-122.431720"></trkpt>
</trkseg></trk>
</gpx>
