<?xml version='1.0' encoding='utf-8'?>
<gpx version="1.1" creator="RunCast" xmlns="http://www.topografix.com/GPX/1/1"><trk><name>sf_embarcadero_loop</name><trkseg><trkpt lat="37.795023" lon="-122.394352" /><trkpt lat="37.795131" lon="-122.394446" /><trkpt lat="37.795223" lon="-122.394515" /><trkpt lat="37.795319" lon="-122.394580" /><trkpt lat="37.795464" lon="-122.394660" /><trkpt lat="37.795609" lon="-122.394740" /><trkpt lat="37.795712" lon="-122.394809" /><trkpt lat="37.795827" lon="-122.394881" /><trkpt lat="37.795955" lon="-122.394976" /><trkpt lat="37.796081" lon="-122.395080" /><trkpt lat="37.796228" lon="-122.395205" /><trkpt lat="37.796374" lon="-122.395331" /><trkpt lat="37.796521" lon="-122.395456" /><trkpt lat="37.796600" lon="-122.395523" /><trkpt lat="37.796684" lon="-122.395430" /><trkpt lat="37.796768" lon="-122.395336" /><trkpt lat="37.796850" lon="-122.395398" /><trkpt lat="37.796932" lon="-122.395460" /><trkpt lat="37.797040" lon="-122.395561" /><trkpt lat="37.797138" lon="-122.395650" /><trkpt lat="37.797235" lon="-122.395740" /><trkpt lat="37.797333" lon="-122.395829" /><trkpt lat="37.797419" lon="-122.395908" /><trkpt lat="37.797505" lon="-122.395987" /><trkpt lat="37.797593" lon="-122.396068" /><trkpt lat="37.797681" lon="-122.396148" /><trkpt lat="37.797823" lon="-122.396277" /><trkpt lat="37.797965" lon="-122.396406" /><trkpt lat="37.798082" lon="-122.396511" /><trkpt lat="37.798192" lon="-122.396607" /><trkpt lat="37.798303" lon="-122.396702" /><trkpt lat="37.798413" lon="-122.396798" /><trkpt lat="37.798502" lon="-122.396887" /><trkpt lat="37.798592" lon="-122.396976" /><trkpt lat="37.798688" lon="-122.397119" /><trkpt lat="37.798783" lon="-122.397262" /><trkpt lat="37.798879" lon="-122.397405" /><trkpt lat="37.798974" lon="-122.397548" /><trkpt lat="37.799070" lon="-122.397691" /><trkpt lat="37.799212" lon="-122.397815" /><trkpt lat="37.799353" lon="-122.397939" /><trkpt lat="37.799495" lon="-122.398063" /><trkpt lat="37.799636" lon="-122.398188" /><trkpt lat="37.799778" lon="-122.398312" /><trkpt lat="37.799920" lon="-122.398436" /><trkpt lat="37.800061" lon="-122.398560" /><trkpt lat="37.800203" lon="-122.398684" /><trkpt lat="37.800344" lon="-122.398809" /><trkpt lat="37.800486" lon="-122.398933" /><trkpt lat="37.800627" lon="-122.399057" /><trkpt lat="37.800769" lon="-122.399181" /><trkpt lat="37.800848" lon="-122.399261" /><trkpt lat="37.800939" lon="-122.399343" /><trkpt lat="37.801085" lon="-122.399471" /><trkpt lat="37.801231" lon="-122.399600" /><trkpt lat="37.801376" lon="-122.399728" /><trkpt lat="37.801522" lon="-122.399857" /><trkpt lat="37.801668" lon="-122.399985" /><trkpt lat="37.801812" lon="-122.400111" /><trkpt lat="37.801955" lon="-122.400237" /><trkpt lat="37.802099" lon="-122.400363" /><trkpt lat="37.802243" lon="-122.400489" /><trkpt lat="37.802387" lon="-122.400615" /><trkpt lat="37.802530" lon="-122.400741" /><trkpt lat="37.802674" lon="-122.400867" /><trkpt lat="37.802825" lon="-122.400848" /><trkpt lat="37.802977" lon="-122.400830" /><trkpt lat="37.803058" lon="-122.400902" /><trkpt lat="37.803179" lon="-122.401013" /><trkpt lat="37.803299" lon="-122.401125" /><trkpt lat="37.803420" lon="-122.401236" /><trkpt lat="37.803525" lon="-122.401326" /><trkpt lat="37.803629" lon="-122.401417" /><trkpt lat="37.803739" lon="-122.401515" /><trkpt lat="37.803850" lon="-122.401614" /><trkpt lat="37.803961" lon="-122.401713" /><trkpt lat="37.804071" lon="-122.401811" /><trkpt lat="37.804166" lon="-122.401904" /><trkpt lat="37.804243" lon="-122.401987" /><trkpt lat="37.804321" lon="-122.402070" /><trkpt lat="37.804399" lon="-122.402155" /><trkpt lat="37.804439" lon="-122.402204" /><trkpt lat="37.804535" lon="-122.402334" /><trkpt lat="37.804630" lon="-122.402463" /><trkpt lat="37.804725" lon="-122.402593" /><trkpt lat="37.804821" lon="-122.402723" /><trkpt lat="37.804877" lon="-122.402802" /><trkpt lat="37.804919" lon="-122.402861" /><trkpt lat="37.805020" lon="-122.403003" /><trkpt lat="37.805120" lon="-122.403145" /><trkpt lat="37.805199" lon="-122.403258" /><trkpt lat="37.805242" lon="-122.403320" /><trkpt lat="37.805346" lon="-122.403465" /><trkpt lat="37.805451" lon="-122.403611" /><trkpt lat="37.805555" lon="-122.403756" /><trkpt lat="37.805659" lon="-122.403901" /><trkpt lat="37.805763" lon="-122.404046" /><trkpt lat="37.805868" lon="-122.404192" /><trkpt lat="37.805972" lon="-122.404337" /><trkpt lat="37.806024" lon="-122.404409" /><trkpt lat="37.806107" lon="-122.404554" /><trkpt lat="37.806190" lon="-122.404700" /><trkpt lat="37.806273" lon="-122.404845" /><trkpt lat="37.806350" lon="-122.404993" /><trkpt lat="37.806435" lon="-122.405152" /><trkpt lat="37.806520" lon="-122.405312" /><trkpt lat="37.806605" lon="-122.405472" /><trkpt lat="37.806690" lon="-122.405631" /><trkpt lat="37.806761" lon="-122.405777" /><trkpt lat="37.806831" lon="-122.405922" /><trkpt lat="37.806859" lon="-122.405988" /><trkpt lat="37.806917" lon="-122.406125" /><trkpt lat="37.807009" lon="-122.406312" /><trkpt lat="37.807100" lon="-122.406499" /><trkpt lat="37.807192" lon="-122.406686" /><trkpt lat="37.807271" lon="-122.406848" /><trkpt lat="37.807351" lon="-122.407010" /><trkpt lat="37.807406" lon="-122.407140" /><trkpt lat="37.807434" lon="-122.407254" /><trkpt lat="37.807462" lon="-122.407368" /><trkpt lat="37.807496" lon="-122.407507" /><trkpt lat="37.807531" lon="-122.407645" /><trkpt lat="37.807558" lon="-122.407865" /><trkpt lat="37.807585" lon="-122.408085" /><trkpt lat="37.807612" lon="-122.408305" /><trkpt lat="37.807639" lon="-122.408525" /><trkpt lat="37.807666" lon="-122.408745" /><trkpt lat="37.807693" lon="-122.408965" /><trkpt lat="37.807720" lon="-122.409186" /><trkpt lat="37.807747" lon="-122.409406" /><trkpt lat="37.807774" lon="-122.409626" /><trkpt lat="37.807801" lon="-122.409846" /><trkpt lat="37.807828" lon="-122.410066" /><trkpt lat="37.807855" lon="-122.410286" /><trkpt lat="37.807882" lon="-122.410506" /><trkpt lat="37.807909" lon="-122.410726" /><trkpt lat="37.807894" lon="-122.410819" /><trkpt lat="37.807868" lon="-122.411016" /><trkpt lat="37.807843" lon="-122.411205" /><trkpt lat="37.807818" lon="-122.411394" /><trkpt lat="37.807794" lon="-122.411583" /><trkpt lat="37.807769" lon="-122.411772" /><trkpt lat="37.807744" lon="-122.411961" /><trkpt lat="37.807902" lon="-122.412059" /><trkpt lat="37.808060" lon="-122.412158" /><trkpt lat="37.808218" lon="-122.412257" /><trkpt lat="37.808376" lon="-122.412355" /><trkpt lat="37.808534" lon="-122.412453" /><trkpt lat="37.808692" lon="-122.412552" /><trkpt lat="37.808768" lon="-122.412579" /><trkpt lat="37.808821" lon="-122.412629" /><trkpt lat="37.808844" lon="-122.412709" /><trkpt lat="37.808850" lon="-122.412924" /><trkpt lat="37.808856" lon="-122.413139" /><trkpt lat="37.808862" lon="-122.413337" /><trkpt lat="37.808869" lon="-122.413535" /><trkpt lat="37.808875" lon="-122.413734" /><trkpt lat="37.808882" lon="-122.413932" /><trkpt lat="37.808888" lon="-122.414130" /><trkpt lat="37.808895" lon="-122.414311" /><trkpt lat="37.808901" lon="-122.414493" /><trkpt lat="37.808906" lon="-122.414684" /><trkpt lat="37.808910" lon="-122.414876" /><trkpt lat="37.808915" lon="-122.415067" /><trkpt lat="37.808923" lon="-122.415162" /><trkpt lat="37.808932" lon="-122.415250" /><trkpt lat="37.808949" lon="-122.415356" /><trkpt lat="37.808956" lon="-122.415439" /><trkpt lat="37.808962" lon="-122.415593" /><trkpt lat="37.808969" lon="-122.415747" /><trkpt lat="37.808973" lon="-122.415843" /><trkpt lat="37.808870" lon="-122.416017" /><trkpt lat="37.808766" lon="-122.416191" /><trkpt lat="37.808663" lon="-122.416365" /><trkpt lat="37.808559" lon="-122.416539" /><trkpt lat="37.808456" lon="-122.416713" /><trkpt lat="37.808352" lon="-122.416888" /><trkpt lat="37.808249" lon="-122.417062" /><trkpt lat="37.808145" lon="-122.417236" /><trkpt lat="37.808042" lon="-122.417410" /><trkpt lat="37.807938" lon="-122.417584" /><trkpt lat="37.807835" lon="-122.417758" /><trkpt lat="37.807731" lon="-122.417932" /><trkpt lat="37.807628" lon="-122.418106" /><trkpt lat="37.807524" lon="-122.418280" /><trkpt lat="37.807421" lon="-122.418454" /><trkpt lat="37.807317" lon="-122.418629" /><trkpt lat="37.807214" lon="-122.418803" /><trkpt lat="37.807110" lon="-122.418977" /><trkpt lat="37.807007" lon="-122.419151" /><trkpt lat="37.806903" lon="-122.419325" /><trkpt lat="37.806800" lon="-122.419499" /><trkpt lat="37.806785" lon="-122.419622" /><trkpt lat="37.806762" lon="-122.419795" /><trkpt lat="37.806738" lon="-122.419968" /><trkpt lat="37.806714" lon="-122.420142" /><trkpt lat="37.806691" lon="-122.420317" /><trkpt lat="37.806671" lon="-122.420464" /><trkpt lat="37.806587" lon="-122.420554" /><trkpt lat="37.806432" lon="-122.420524" /><trkpt lat="37.806277" lon="-122.420493" /><trkpt lat="37.806123" lon="-122.420463" /><trkpt lat="37.805968" lon="-122.420432" /><trkpt lat="37.805813" lon="-122.420402" /><trkpt lat="37.805728" lon="-122.420384" /><trkpt lat="37.805654" lon="-122.420370" /><trkpt lat="37.805522" lon="-122.420343" /><trkpt lat="37.805389" lon="-122.420315" /><trkpt lat="37.805257" lon="-122.420288" /><trkpt lat="37.805135" lon="-122.420263" /><trkpt lat="37.805013" lon="-122.420238" /><trkpt lat="37.804891" lon="-122.420213" /><trkpt lat="37.804801" lon="-122.420194" /><trkpt lat="37.804722" lon="-122.420179" /><trkpt lat="37.804722" lon="-122.420179" /><trkpt lat="37.804801" lon="-122.420194" /><trkpt lat="37.804891" lon="-122.420213" /><trkpt lat="37.805013" lon="-122.420238" /><trkpt lat="37.805135" lon="-122.420263" /><trkpt lat="37.805257" lon="-122.420288" /><trkpt lat="37.805389" lon="-122.420315" /><trkpt lat="37.805522" lon="-122.420343" /><trkpt lat="37.805654" lon="-122.420370" /><trkpt lat="37.805728" lon="-122.420384" /><trkpt lat="37.805813" lon="-122.420402" /><trkpt lat="37.805968" lon="-122.420432" /><trkpt lat="37.806123" lon="-122.420463" /><trkpt lat="37.806277" lon="-122.420493" /><trkpt lat="37.806432" lon="-122.420524" /><trkpt lat="37.806587" lon="-122.420554" /><trkpt lat="37.806654" lon="-122.420562" /><trkpt lat="37.806671" lon="-122.420464" /><trkpt lat="37.806691" lon="-122.420317" /><trkpt lat="37.806714" lon="-122.420142" /><trkpt lat="37.806738" lon="-122.419968" /><trkpt lat="37.806762" lon="-122.419795" /><trkpt lat="37.806785" lon="-122.419622" /><trkpt lat="37.806800" lon="-122.419499" /><trkpt lat="37.806727" lon="-122.419481" /><trkpt lat="37.806612" lon="-122.419316" /><trkpt lat="37.806498" lon="-122.419151" /><trkpt lat="37.806384" lon="-122.418985" /><trkpt lat="37.806269" lon="-122.418820" /><trkpt lat="37.806196" lon="-122.418710" /><trkpt lat="37.806131" lon="-122.418612" /><trkpt lat="37.806066" lon="-122.418515" /><trkpt lat="37.805981" lon="-122.418388" /><trkpt lat="37.805914" lon="-122.418291" /><trkpt lat="37.805807" lon="-122.418139" /><trkpt lat="37.805701" lon="-122.417986" /><trkpt lat="37.805594" lon="-122.417834" /><trkpt lat="37.805533" lon="-122.417747" /><trkpt lat="37.805472" lon="-122.417660" /><trkpt lat="37.805370" lon="-122.417515" /><trkpt lat="37.805312" lon="-122.417370" /><trkpt lat="37.805265" lon="-122.417295" /><trkpt lat="37.805185" lon="-122.417163" /><trkpt lat="37.805117" lon="-122.417046" /><trkpt lat="37.805048" lon="-122.416948" /><trkpt lat="37.804978" lon="-122.416850" /><trkpt lat="37.804863" lon="-122.416687" /><trkpt lat="37.804748" lon="-122.416524" /><trkpt lat="37.804640" lon="-122.416372" /><trkpt lat="37.804532" lon="-122.416220" /><trkpt lat="37.804442" lon="-122.416096" /><trkpt lat="37.804365" lon="-122.415984" /><trkpt lat="37.804312" lon="-122.415908" /><trkpt lat="37.804203" lon="-122.415753" /><trkpt lat="37.804094" lon="-122.415599" /><trkpt lat="37.803985" lon="-122.415445" /><trkpt lat="37.803876" lon="-122.415290" /><trkpt lat="37.803801" lon="-122.415183" /><trkpt lat="37.803725" lon="-122.415075" /><trkpt lat="37.803634" lon="-122.414977" /><trkpt lat="37.803542" lon="-122.414880" /><trkpt lat="37.803471" lon="-122.414776" /><trkpt lat="37.803400" lon="-122.414672" /><trkpt lat="37.803369" lon="-122.414626" /><trkpt lat="37.803309" lon="-122.414538" /><trkpt lat="37.803250" lon="-122.414451" /><trkpt lat="37.803150" lon="-122.414305" /><trkpt lat="37.803050" lon="-122.414158" /><trkpt lat="37.802950" lon="-122.414012" /><trkpt lat="37.802850" lon="-122.413865" /><trkpt lat="37.802751" lon="-122.413720" /><trkpt lat="37.802688" lon="-122.413630" /><trkpt lat="37.802623" lon="-122.413538" /><trkpt lat="37.802517" lon="-122.413386" /><trkpt lat="37.802411" lon="-122.413234" /><trkpt lat="37.802305" lon="-122.413081" /><trkpt lat="37.802199" lon="-122.412929" /><trkpt lat="37.802102" lon="-122.412827" /><trkpt lat="37.802005" lon="-122.412725" /><trkpt lat="37.801918" lon="-122.412603" /><trkpt lat="37.801812" lon="-122.412447" /><trkpt lat="37.801701" lon="-122.412289" /><trkpt lat="37.801590" lon="-122.412130" /><trkpt lat="37.801479" lon="-122.411972" /><trkpt lat="37.801368" lon="-122.411813" /><trkpt lat="37.801257" lon="-122.411655" /><trkpt lat="37.801197" lon="-122.411570" /><trkpt lat="37.801118" lon="-122.411458" /><trkpt lat="37.801056" lon="-122.411367" /><trkpt lat="37.800956" lon="-122.411221" /><trkpt lat="37.800855" lon="-122.411076" /><trkpt lat="37.800755" lon="-122.410930" /><trkpt lat="37.800657" lon="-122.410787" /><trkpt lat="37.800559" lon="-122.410643" /><trkpt lat="37.800461" lon="-122.410500" /><trkpt lat="37.800393" lon="-122.410398" /><trkpt lat="37.800314" lon="-122.410286" /><trkpt lat="37.800247" lon="-122.410189" /><trkpt lat="37.800143" lon="-122.410037" /><trkpt lat="37.800038" lon="-122.409885" /><trkpt lat="37.799934" lon="-122.409733" /><trkpt lat="37.799830" lon="-122.409580" /><trkpt lat="37.799725" lon="-122.409428" /><trkpt lat="37.799621" lon="-122.409276" /><trkpt lat="37.799548" lon="-122.409148" /><trkpt lat="37.799504" lon="-122.409079" /><trkpt lat="37.799438" lon="-122.408978" /><trkpt lat="37.799323" lon="-122.408814" /><trkpt lat="37.799229" lon="-122.408678" /><trkpt lat="37.799148" lon="-122.408560" /><trkpt lat="37.799066" lon="-122.408442" /><trkpt lat="37.798985" lon="-122.408324" /><trkpt lat="37.798879" lon="-122.408169" /><trkpt lat="37.798772" lon="-122.408014" /><trkpt lat="37.798698" lon="-122.407903" /><trkpt lat="37.798632" lon="-122.407812" /><trkpt lat="37.798522" lon="-122.407660" /><trkpt lat="37.798420" lon="-122.407518" /><trkpt lat="37.798319" lon="-122.407377" /><trkpt lat="37.798217" lon="-122.407235" /><trkpt lat="37.798358" lon="-122.407117" /><trkpt lat="37.798500" lon="-122.407000" /><trkpt lat="37.798460" lon="-122.406838" /><trkpt lat="37.798421" lon="-122.406677" /><trkpt lat="37.798381" lon="-122.406515" /><trkpt lat="37.798342" lon="-122.406353" /><trkpt lat="37.798302" lon="-122.406191" /><trkpt lat="37.798263" lon="-122.406030" /><trkpt lat="37.798223" lon="-122.405868" /><trkpt lat="37.798184" lon="-122.405706" /><trkpt lat="37.798144" lon="-122.405544" /><trkpt lat="37.798105" lon="-122.405383" /><trkpt lat="37.798065" lon="-122.405221" /><trkpt lat="37.798026" lon="-122.405059" /><trkpt lat="37.797986" lon="-122.404898" /><trkpt lat="37.797947" lon="-122.404736" /><trkpt lat="37.797907" lon="-122.404574" /><trkpt lat="37.797868" lon="-122.404412" /><trkpt lat="37.797828" lon="-122.404251" /><trkpt lat="37.797789" lon="-122.404089" /><trkpt lat="37.797749" lon="-122.403927" /><trkpt lat="37.797710" lon="-122.403765" /><trkpt lat="37.797670" lon="-122.403604" /><trkpt lat="37.797631" lon="-122.403442" /><trkpt lat="37.797591" lon="-122.403280" /><trkpt lat="37.797552" lon="-122.403119" /><trkpt lat="37.797512" lon="-122.402957" /><trkpt lat="37.797473" lon="-122.402795" /><trkpt lat="37.797433" lon="-122.402633" /><trkpt lat="37.797394" lon="-122.402472" /><trkpt lat="37.797354" lon="-122.402310" /><trkpt lat="37.797315" lon="-122.402148" /><trkpt lat="37.797275" lon="-122.401986" /><trkpt lat="37.797236" lon="-122.401825" /><trkpt lat="37.797196" lon="-122.401663" /><trkpt lat="37.797157" lon="-122.401501" /><trkpt lat="37.797117" lon="-122.401340" /><trkpt lat="37.797078" lon="-122.401178" /><trkpt lat="37.797038" lon="-122.401016" /><trkpt lat="37.796999" lon="-122.400854" /><trkpt lat="37.796959" lon="-122.400693" /><trkpt lat="37.796920" lon="-122.400531" /><trkpt lat="37.796880" lon="-122.400369" /><trkpt lat="37.796841" lon="-122.400207" /><trkpt lat="37.796801" lon="-122.400046" /><trkpt lat="37.796762" lon="-122.399884" /><trkpt lat="37.796722" lon="-122.399722" /><trkpt lat="37.796683" lon="-122.399560" /><trkpt lat="37.796643" lon="-122.399399" /><trkpt lat="37.796604" lon="-122.399237" /><trkpt lat="37.796564" lon="-122.399075" /><trkpt lat="37.796525" lon="-122.398914" /><trkpt lat="37.796485" lon="-122.398752" /><trkpt lat="37.796446" lon="-122.398590" /><trkpt lat="37.796406" lon="-122.398428" /><trkpt lat="37.796367" lon="-122.398267" /><trkpt lat="37.796327" lon="-122.398105" /><trkpt lat="37.796288" lon="-122.397943" /><trkpt lat="37.796248" lon="-122.397781" /><trkpt lat="37.796209" lon="-122.397620" /><trkpt lat="37.796169" lon="-122.397458" /><trkpt lat="37.796130" lon="-122.397296" /><trkpt lat="37.796090" lon="-122.397135" /><trkpt lat="37.796051" lon="-122.396973" /><trkpt lat="37.796011" lon="-122.396811" /><trkpt lat="37.795972" lon="-122.396649" /><trkpt lat="37.795932" lon="-122.396488" /><trkpt lat="37.795893" lon="-122.396326" /><trkpt lat="37.795853" lon="-122.396164" /><trkpt lat="37.795814" lon="-122.396002" /><trkpt lat="37.795774" lon="-122.395841" /><trkpt lat="37.795735" lon="-122.395679" /><trkpt lat="37.795695" lon="-122.395517" /><trkpt lat="37.795656" lon="-122.395356" /><trkpt lat="37.795616" lon="-122.395194" /><trkpt lat="37.795577" lon="-122.395032" /><trkpt lat="37.795537" lon="-122.394870" /><trkpt lat="37.795498" lon="-122.394709" /><trkpt lat="37.795458" lon="-122.394547" /><trkpt lat="37.795419" lon="-122.394385" /><trkpt lat="37.795379" lon="-122.394223" /><trkpt lat="37.795340" lon="-122.394062" /><trkpt lat="37.795300" lon="-122.393900" /></trkseg></trk></gpx>