<?xml version="1.0" encoding="UTF-8"?>
<gpx version="1.1" creator="google-directions">
<trk><name>sf_embarcadero_loop</name><trkseg>
<trkpt lat="37.789100" lon="-122.389840"></trkpt>
<trkpt lat="37.789270" lon="-122.390050"></trkpt>
<trkpt lat="37.789390" lon="-122.390180"></trkpt>
<trkpt lat="37.789560" lon="-122.390400"></trkpt>
<trkpt lat="37.789570" lon="-122.390410"></trkpt>
<trkpt lat="37.789590" lon="-122.390440"></trkpt>
<trkpt lat="37.789830" lon="-122.390730"></trkpt>
<trkpt lat="37.789830" lon="-122.390740"></trkpt>
<trkpt lat="37.789850" lon="-122.390750"></trkpt>
<trkpt lat="37.789970" lon="-122.390910"></trkpt>
<trkpt lat="37.790020" lon="-122.390970"></trkpt>
<trkpt lat="37.789980" lon="-122.391010"></trkpt>
<trkpt lat="37.790080" lon="-122.391130"></trkpt>
<trkpt lat="37.790110" lon="-122.391090"></trkpt>
<trkpt lat="37.790150" lon="-122.391140"></trkpt>
<trkpt lat="37.790220" lon="-122.391040"></trkpt>
<trkpt lat="37.790240" lon="-122.391020"></trkpt>
<trkpt lat="37.790230" lon="-122.391000"></trkpt>
<trkpt lat="37.790260" lon="-122.390960"></trkpt>
<trkpt lat="37.790370" lon="-122.390830"></trkpt>
<trkpt lat="37.790440" lon="-122.390710"></trkpt>
<trkpt lat="37.790460" lon="-122.390690"></trkpt>
<trkpt lat="37.790500" lon="-122.390640"></trkpt>
<trkpt lat="37.790620" lon="-122.390490"></trkpt>
<trkpt lat="37.790650" lon="-122.390450"></trkpt>
<trkpt lat="37.790740" lon="-122.390350"></trkpt>
<trkpt lat="37.790790" lon="-122.390290"></trkpt>
<trkpt lat="37.790820" lon="-122.390330"></trkpt>
<trkpt lat="37.790880" lon="-122.390410"></trkpt>
<trkpt lat="37.790930" lon="-122.390470"></trkpt>
<trkpt lat="37.790970" lon="-122.390510"></trkpt>
<trkpt lat="37.790990" lon="-122.390540"></trkpt>
<trkpt lat="37.791010" lon="-122.390560"></trkpt>
<trkpt lat="37.791050" lon="-122.390590"></trkpt>
<trkpt lat="37.791100" lon="-122.390640"></trkpt>
<trkpt lat="37.791170" lon="-122.390740"></trkpt>
<trkpt lat="37.791190" lon="-122.390760"></trkpt>
<trkpt lat="37.791230" lon="-122.390800"></trkpt>
<trkpt lat="37.791280" lon="-122.390830"></trkpt>
<trkpt lat="37.791380" lon="-122.390900"></trkpt>
<trkpt lat="37.791540" lon="-122.391000"></trkpt>
<trkpt lat="37.791640" lon="-122.391040"></trkpt>
<trkpt lat="37.791690" lon="-122.391070"></trkpt>
<trkpt lat="37.791720" lon="-122.391080"></trkpt>
<trkpt lat="37.791740" lon="-122.391100"></trkpt>
<trkpt lat="37.791930" lon="-122.391170"></trkpt>
<trkpt lat="37.791950" lon="-122.391180"></trkpt>
<trkpt lat="37.792110" lon="-122.391240"></trkpt>
<trkpt lat="37.792120" lon="-122.391240"></trkpt>
<trkpt lat="37.792200" lon="-122.391270"></trkpt>
<trkpt lat="37.792180" lon="-122.391290"></trkpt>
<trkpt lat="37.792370" lon="-122.391380"></trkpt>
<trkpt lat="37.792390" lon="-122.391350"></trkpt>
<trkpt lat="37.792630" lon="-122.391530"></trkpt>
<trkpt lat="37.792680" lon="-122.391570"></trkpt>
<trkpt lat="37.792740" lon="-122.391620"></trkpt>
<trkpt lat="37.792790" lon="-122.391670"></trkpt>
<trkpt lat="37.792980" lon="-122.391900"></trkpt>
<trkpt lat="37.793080" lon="-122.392020"></trkpt>
<trkpt lat="37.793220" lon="-122.392190"></trkpt>
<trkpt lat="37.793300" lon="-122.392290"></trkpt>
<trkpt lat="37.793500" lon="-122.392510"></trkpt>
<trkpt lat="37.793570" lon="-122.392590"></trkpt>
<trkpt lat="37.793650" lon="-122.392500"></trkpt>
<trkpt lat="37.793680" lon="-122.392530"></trkpt>
<trkpt lat="37.793760" lon="-122.392420"></trkpt>
<trkpt lat="37.793730" lon="-122.392390"></trkpt>
<trkpt lat="37.793770" lon="-122.392340"></trkpt>
<trkpt lat="37.793890" lon="-122.392370"></trkpt>
<trkpt lat="37.793990" lon="-122.392460"></trkpt>
<trkpt lat="37.794090" lon="-122.392530"></trkpt>
<trkpt lat="37.794160" lon="-122.392600"></trkpt>
<trkpt lat="37.794210" lon="-122.392650"></trkpt>
<trkpt lat="37.794250" lon="-122.392700"></trkpt>
<trkpt lat="37.794330" lon="-122.392790"></trkpt>
<trkpt lat="37.794410" lon="-122.392870"></trkpt>
<trkpt lat="37.794460" lon="-122.392930"></trkpt>
<trkpt lat="37.794540" lon="-122.393030"></trkpt>
<trkpt lat="37.794630" lon="-122.393110"></trkpt>
<trkpt lat="37.794870" lon="-122.393310"></trkpt>
<trkpt lat="37.794920" lon="-122.393360"></trkpt>
<trkpt lat="37.795010" lon="-122.393440"></trkpt>
<trkpt lat="37.795060" lon="-122.393490"></trkpt>
<trkpt lat="37.795100" lon="-122.393520"></trkpt>
<trkpt lat="37.795210" lon="-122.393650"></trkpt>
<trkpt lat="37.795300" lon="-122.393740"></trkpt>
<trkpt lat="37.795620" lon="-122.394040"></trkpt>
<trkpt lat="37.795620" lon="-122.394020"></trkpt>
<trkpt lat="37.795610" lon="-122.393970"></trkpt>
<trkpt lat="37.795590" lon="-122.393970"></trkpt>
<trkpt lat="37.795550" lon="-122.393920"></trkpt>
<trkpt lat="37.795510" lon="-122.393910"></trkpt>
<trkpt lat="37.795510" lon="-122.393890"></trkpt>
<trkpt lat="37.795510" lon="-122.393910"></trkpt>
<trkpt lat="37.795550" lon="-122.393920"></trkpt>
<trkpt lat="37.795590" lon="-122.393970"></trkpt>
<trkpt lat="37.795610" lon="-122.393970"></trkpt>
<trkpt lat="37.795620" lon="-122.394020"></trkpt>
<trkpt lat="37.795650" lon="-122.394020"></trkpt>
<trkpt lat="37.795660" lon="-122.394040"></trkpt>
<trkpt lat="37.795700" lon="-122.394040"></trkpt>
<trkpt lat="37.795730" lon="-122.394100"></trkpt>
<trkpt lat="37.795740" lon="-122.394100"></trkpt>
<trkpt lat="37.795760" lon="-122.394120"></trkpt>
<trkpt lat="37.795760" lon="-122.394140"></trkpt>
<trkpt lat="37.795790" lon="-122.394140"></trkpt>
<trkpt lat="37.795820" lon="-122.394180"></trkpt>
<trkpt lat="37.795830" lon="-122.394180"></trkpt>
<trkpt lat="37.795840" lon="-122.394200"></trkpt>
<trkpt lat="37.795890" lon="-122.394230"></trkpt>
<trkpt lat="37.795890" lon="-122.394260"></trkpt>
<trkpt lat="37.795920" lon="-122.394260"></trkpt>
<trkpt lat="37.795930" lon="-122.394290"></trkpt>
<trkpt lat="37.795930" lon="-122.394330"></trkpt>
<trkpt lat="37.795990" lon="-122.394380"></trkpt>
<trkpt lat="37.796050" lon="-122.394440"></trkpt>
<trkpt lat="37.796130" lon="-122.394660"></trkpt>
<trkpt lat="37.796270" lon="-122.394740"></trkpt>
<trkpt lat="37.796340" lon="-122.394810"></trkpt>
<trkpt lat="37.796360" lon="-122.394830"></trkpt>
<trkpt lat="37.796530" lon="-122.394880"></trkpt>
<trkpt lat="37.796770" lon="-122.395100"></trkpt>
<trkpt lat="37.796850" lon="-122.395340"></trkpt>
<trkpt lat="37.796940" lon="-122.395380"></trkpt>
<trkpt lat="37.797000" lon="-122.395440"></trkpt>
<trkpt lat="37.797050" lon="-122.395480"></trkpt>
<trkpt lat="37.797130" lon="-122.395570"></trkpt>
<trkpt lat="37.797310" lon="-122.395740"></trkpt>
<trkpt lat="37.797400" lon="-122.395850"></trkpt>
<trkpt lat="37.797490" lon="-122.395940"></trkpt>
<trkpt lat="37.797540" lon="-122.395980"></trkpt>
<trkpt lat="37.797550" lon="-122.395990"></trkpt>
<trkpt lat="37.797560" lon="-122.396000"></trkpt>
<trkpt lat="37.797600" lon="-122.396030"></trkpt>
<trkpt lat="37.797630" lon="-122.396060"></trkpt>
<trkpt lat="37.797720" lon="-122.396110"></trkpt>
<trkpt lat="37.797770" lon="-122.396150"></trkpt>
<trkpt lat="37.797830" lon="-122.396190"></trkpt>
<trkpt lat="37.797860" lon="-122.396220"></trkpt>
<trkpt lat="37.798010" lon="-122.396270"></trkpt>
<trkpt lat="37.798070" lon="-122.396320"></trkpt>
<trkpt lat="37.798160" lon="-122.396420"></trkpt>
<trkpt lat="37.798190" lon="-122.396460"></trkpt>
<trkpt lat="37.798240" lon="-122.396500"></trkpt>
<trkpt lat="37.798280" lon="-122.396540"></trkpt>
<trkpt lat="37.798470" lon="-122.396610"></trkpt>
<trkpt lat="37.798620" lon="-122.396750"></trkpt>
<trkpt lat="37.798710" lon="-122.396890"></trkpt>
<trkpt lat="37.798760" lon="-122.396950"></trkpt>
<trkpt lat="37.798960" lon="-122.397140"></trkpt>
<trkpt lat="37.799160" lon="-122.397320"></trkpt>
<trkpt lat="37.799200" lon="-122.397350"></trkpt>
<trkpt lat="37.799260" lon="-122.397390"></trkpt>
<trkpt lat="37.799330" lon="-122.397450"></trkpt>
<trkpt lat="37.799410" lon="-122.397560"></trkpt>
<trkpt lat="37.799440" lon="-122.397590"></trkpt>
<trkpt lat="37.799510" lon="-122.397640"></trkpt>
<trkpt lat="37.799570" lon="-122.397690"></trkpt>
<trkpt lat="37.799710" lon="-122.397820"></trkpt>
<trkpt lat="37.799770" lon="-122.397890"></trkpt>
<trkpt lat="37.799950" lon="-122.398040"></trkpt>
<trkpt lat="37.800120" lon="-122.398190"></trkpt>
<trkpt lat="37.800360" lon="-122.398410"></trkpt>
<trkpt lat="37.800440" lon="-122.398470"></trkpt>
<trkpt lat="37.800490" lon="-122.398510"></trkpt>
<trkpt lat="37.800560" lon="-122.398580"></trkpt>
<trkpt lat="37.800590" lon="-122.398610"></trkpt>
<trkpt lat="37.800690" lon="-122.398700"></trkpt>
<trkpt lat="37.800760" lon="-122.398780"></trkpt>
<trkpt lat="37.800880" lon="-122.398890"></trkpt>
<trkpt lat="37.800940" lon="-122.398940"></trkpt>
<trkpt lat="37.801060" lon="-122.399070"></trkpt>
<trkpt lat="37.801110" lon="-122.399060"></trkpt>
<trkpt lat="37.801200" lon="-122.399140"></trkpt>
<trkpt lat="37.801280" lon="-122.399200"></trkpt>
<trkpt lat="37.801310" lon="-122.399230"></trkpt>
<trkpt lat="37.801340" lon="-122.399170"></trkpt>
<trkpt lat="37.801530" lon="-122.398830"></trkpt>
<trkpt lat="37.801340" lon="-122.399170"></trkpt>
<trkpt lat="37.801310" lon="-122.399220"></trkpt>
<trkpt lat="37.801450" lon="-122.399340"></trkpt>
<trkpt lat="37.801520" lon="-122.399400"></trkpt>
<trkpt lat="37.801750" lon="-122.399610"></trkpt>
<trkpt lat="37.801820" lon="-122.399680"></trkpt>
<trkpt lat="37.802230" lon="-122.400040"></trkpt>
<trkpt lat="37.802260" lon="-122.400070"></trkpt>
<trkpt lat="37.802500" lon="-122.400270"></trkpt>
<trkpt lat="37.802530" lon="-122.400290"></trkpt>
<trkpt lat="37.803090" lon="-122.400790"></trkpt>
<trkpt lat="37.803150" lon="-122.400850"></trkpt>
<trkpt lat="37.803380" lon="-122.401060"></trkpt>
<trkpt lat="37.803450" lon="-122.401140"></trkpt>
<trkpt lat="37.803540" lon="-122.401220"></trkpt>
<trkpt lat="37.803610" lon="-122.401320"></trkpt>
<trkpt lat="37.803660" lon="-122.401370"></trkpt>
<trkpt lat="37.803680" lon="-122.401390"></trkpt>
<trkpt lat="37.803980" lon="-122.401660"></trkpt>
<trkpt lat="37.804000" lon="-122.401680"></trkpt>
<trkpt lat="37.804050" lon="-122.401730"></trkpt>
<trkpt lat="37.804070" lon="-122.401740"></trkpt>
<trkpt lat="37.804150" lon="-122.401830"></trkpt>
<trkpt lat="37.804170" lon="-122.401850"></trkpt>
<trkpt lat="37.804320" lon="-122.402010"></trkpt>
<trkpt lat="37.804360" lon="-122.402060"></trkpt>
<trkpt lat="37.804420" lon="-122.402130"></trkpt>
<trkpt lat="37.804440" lon="-122.402160"></trkpt>
<trkpt lat="37.804460" lon="-122.402180"></trkpt>
<trkpt lat="37.804500" lon="-122.402230"></trkpt>
<trkpt lat="37.804540" lon="-122.402270"></trkpt>
<trkpt lat="37.804590" lon="-122.402340"></trkpt>
<trkpt lat="37.804730" lon="-122.402530"></trkpt>
<trkpt lat="37.804830" lon="-122.402660"></trkpt>
<trkpt lat="37.804830" lon="-122.402670"></trkpt>
<trkpt lat="37.804860" lon="-122.402700"></trkpt>
<trkpt lat="37.804950" lon="-122.402780"></trkpt>
<trkpt lat="37.805120" lon="-122.403020"></trkpt>
<trkpt lat="37.805170" lon="-122.403100"></trkpt>
<trkpt lat="37.805210" lon="-122.403150"></trkpt>
<trkpt lat="37.805270" lon="-122.403220"></trkpt>
<trkpt lat="37.805330" lon="-122.403300"></trkpt>
<trkpt lat="37.805450" lon="-122.403480"></trkpt>
<trkpt lat="37.805470" lon="-122.403500"></trkpt>
<trkpt lat="37.805540" lon="-122.403600"></trkpt>
<trkpt lat="37.805600" lon="-122.403680"></trkpt>
<trkpt lat="37.805800" lon="-122.403950"></trkpt>
<trkpt lat="37.805880" lon="-122.404040"></trkpt>
<trkpt lat="37.806150" lon="-122.404420"></trkpt>
<trkpt lat="37.806210" lon="-122.404520"></trkpt>
<trkpt lat="37.806320" lon="-122.404710"></trkpt>
<trkpt lat="37.806350" lon="-122.404750"></trkpt>
<trkpt lat="37.806390" lon="-122.404870"></trkpt>
<trkpt lat="37.806490" lon="-122.405060"></trkpt>
<trkpt lat="37.806550" lon="-122.405180"></trkpt>
<trkpt lat="37.806620" lon="-122.405320"></trkpt>
<trkpt lat="37.806710" lon="-122.405420"></trkpt>
<trkpt lat="37.806750" lon="-122.405500"></trkpt>
<trkpt lat="37.806780" lon="-122.405580"></trkpt>
<trkpt lat="37.806840" lon="-122.405710"></trkpt>
<trkpt lat="37.806870" lon="-122.405780"></trkpt>
<trkpt lat="37.806950" lon="-122.405900"></trkpt>
<trkpt lat="37.806990" lon="-122.405990"></trkpt>
<trkpt lat="37.807090" lon="-122.406190"></trkpt>
<trkpt lat="37.807160" lon="-122.406330"></trkpt>
<trkpt lat="37.807210" lon="-122.406510"></trkpt>
<trkpt lat="37.807400" lon="-122.406920"></trkpt>
<trkpt lat="37.807430" lon="-122.407070"></trkpt>
<trkpt lat="37.807450" lon="-122.407100"></trkpt>
<trkpt lat="37.807490" lon="-122.407220"></trkpt>
<trkpt lat="37.807520" lon="-122.407280"></trkpt>
<trkpt lat="37.807540" lon="-122.407430"></trkpt>
<trkpt lat="37.807550" lon="-122.407540"></trkpt>
<trkpt lat="37.807550" lon="-122.407550"></trkpt>
<trkpt lat="37.807570" lon="-122.407580"></trkpt>
<trkpt lat="37.807620" lon="-122.407730"></trkpt>
<trkpt lat="37.807770" lon="-122.408070"></trkpt>
<trkpt lat="37.807940" lon="-122.408480"></trkpt>
<trkpt lat="37.808110" lon="-122.408850"></trkpt>
<trkpt lat="37.808130" lon="-122.408910"></trkpt>
<trkpt lat="37.808150" lon="-122.408970"></trkpt>
<trkpt lat="37.808200" lon="-122.409000"></trkpt>
<trkpt lat="37.808220" lon="-122.409000"></trkpt>
<trkpt lat="37.808240" lon="-122.409040"></trkpt>
<trkpt lat="37.808260" lon="-122.409060"></trkpt>
<trkpt lat="37.808280" lon="-122.409080"></trkpt>
<trkpt lat="37.808300" lon="-122.409100"></trkpt>
<trkpt lat="37.808330" lon="-122.409120"></trkpt>
<trkpt lat="37.808350" lon="-122.409140"></trkpt>
<trkpt lat="37.808460" lon="-122.409640"></trkpt>
<trkpt lat="37.808480" lon="-122.409800"></trkpt>
<trkpt lat="37.808510" lon="-122.410140"></trkpt>
<trkpt lat="37.808540" lon="-122.410360"></trkpt>
<trkpt lat="37.808570" lon="-122.410560"></trkpt>
<trkpt lat="37.808610" lon="-122.410810"></trkpt>
<trkpt lat="37.808630" lon="-122.410880"></trkpt>
<trkpt lat="37.808650" lon="-122.411040"></trkpt>
<trkpt lat="37.808710" lon="-122.411540"></trkpt>
<trkpt lat="37.808710" lon="-122.411610"></trkpt>
<trkpt lat="37.808770" lon="-122.412000"></trkpt>
<trkpt lat="37.808810" lon="-122.412320"></trkpt>
<trkpt lat="37.808760" lon="-122.412380"></trkpt>
<trkpt lat="37.808740" lon="-122.412400"></trkpt>
<trkpt lat="37.808700" lon="-122.412420"></trkpt>
<trkpt lat="37.808690" lon="-122.412430"></trkpt>
<trkpt lat="37.808680" lon="-122.412430"></trkpt>
<trkpt lat="37.808670" lon="-122.412430"></trkpt>
<trkpt lat="37.808660" lon="-122.412440"></trkpt>
<trkpt lat="37.808630" lon="-122.412430"></trkpt>
<trkpt lat="37.808510" lon="-122.412420"></trkpt>
<trkpt lat="37.808490" lon="-122.412420"></trkpt>
<trkpt lat="37.808520" lon="-122.412570"></trkpt>
<trkpt lat="37.808580" lon="-122.412580"></trkpt>
<trkpt lat="37.808570" lon="-122.412680"></trkpt>
<trkpt lat="37.808550" lon="-122.412850"></trkpt>
<trkpt lat="37.808540" lon="-122.412890"></trkpt>
<trkpt lat="37.808540" lon="-122.412960"></trkpt>
<trkpt lat="37.808460" lon="-122.413530"></trkpt>
<trkpt lat="37.808410" lon="-122.413990"></trkpt>
<trkpt lat="37.808400" lon="-122.414080"></trkpt>
<trkpt lat="37.808380" lon="-122.414080"></trkpt>
<trkpt lat="37.808370" lon="-122.414110"></trkpt>
<trkpt lat="37.808350" lon="-122.414240"></trkpt>
<trkpt lat="37.808350" lon="-122.414260"></trkpt>
<trkpt lat="37.808360" lon="-122.414270"></trkpt>
<trkpt lat="37.808280" lon="-122.414900"></trkpt>
<trkpt lat="37.808270" lon="-122.415000"></trkpt>
<trkpt lat="37.808220" lon="-122.415350"></trkpt>
<trkpt lat="37.808190" lon="-122.415600"></trkpt>
<trkpt lat="37.808190" lon="-122.415710"></trkpt>
<trkpt lat="37.808170" lon="-122.415710"></trkpt>
<trkpt lat="37.808160" lon="-122.415750"></trkpt>
<trkpt lat="37.808140" lon="-122.415890"></trkpt>
<trkpt lat="37.808140" lon="-122.415910"></trkpt>
<trkpt lat="37.808160" lon="-122.415910"></trkpt>
<trkpt lat="37.808090" lon="-122.416350"></trkpt>
<trkpt lat="37.808050" lon="-122.416650"></trkpt>
<trkpt lat="37.808020" lon="-122.416860"></trkpt>
<trkpt lat="37.808010" lon="-122.416920"></trkpt>
<trkpt lat="37.808000" lon="-122.417050"></trkpt>
<trkpt lat="37.807960" lon="-122.417360"></trkpt>
<trkpt lat="37.807950" lon="-122.417400"></trkpt>
<trkpt lat="37.807940" lon="-122.417530"></trkpt>
<trkpt lat="37.807950" lon="-122.417530"></trkpt>
<trkpt lat="37.807930" lon="-122.417660"></trkpt>
<trkpt lat="37.807930" lon="-122.417670"></trkpt>
<trkpt lat="37.807920" lon="-122.417710"></trkpt>
<trkpt lat="37.807910" lon="-122.417770"></trkpt>
<trkpt lat="37.807910" lon="-122.417780"></trkpt>
<trkpt lat="37.807890" lon="-122.417960"></trkpt>
<trkpt lat="37.807870" lon="-122.418050"></trkpt>
<trkpt lat="37.807870" lon="-122.418130"></trkpt>
<trkpt lat="37.807870" lon="-122.418170"></trkpt>
<trkpt lat="37.807850" lon="-122.418240"></trkpt>
<trkpt lat="37.807840" lon="-122.418310"></trkpt>
<trkpt lat="37.807840" lon="-122.418370"></trkpt>
<trkpt lat="37.807760" lon="-122.418980"></trkpt>
<trkpt lat="37.807760" lon="-122.419020"></trkpt>
<trkpt lat="37.807740" lon="-122.419010"></trkpt>
<trkpt lat="37.807740" lon="-122.419040"></trkpt>
<trkpt lat="37.807720" lon="-122.419200"></trkpt>
<trkpt lat="37.807720" lon="-122.419240"></trkpt>
<trkpt lat="37.807640" lon="-122.419870"></trkpt>
<trkpt lat="37.807630" lon="-122.419960"></trkpt>
<trkpt lat="37.807610" lon="-122.420100"></trkpt>
<trkpt lat="37.807610" lon="-122.420200"></trkpt>
<trkpt lat="37.807590" lon="-122.420330"></trkpt>
<trkpt lat="37.807580" lon="-122.420450"></trkpt>
<trkpt lat="37.807570" lon="-122.420610"></trkpt>
<trkpt lat="37.807560" lon="-122.420660"></trkpt>
<trkpt lat="37.807560" lon="-122.420690"></trkpt>
<trkpt lat="37.807530" lon="-122.420680"></trkpt>
<trkpt lat="37.807530" lon="-122.420690"></trkpt>
<trkpt lat="37.807510" lon="-122.420830"></trkpt>
<trkpt lat="37.807500" lon="-122.420860"></trkpt>
<trkpt lat="37.807490" lon="-122.420890"></trkpt>
<trkpt lat="37.807480" lon="-122.421110"></trkpt>
<trkpt lat="37.807450" lon="-122.421230"></trkpt>
<trkpt lat="37.807380" lon="-122.421830"></trkpt>
<trkpt lat="37.807440" lon="-122.422030"></trkpt>
<trkpt lat="37.807430" lon="-122.422080"></trkpt>
<trkpt lat="37.807390" lon="-122.422070"></trkpt>
<trkpt lat="37.807350" lon="-122.422050"></trkpt>
<trkpt lat="37.807280" lon="-122.422090"></trkpt>
<trkpt lat="37.807030" lon="-122.422350"></trkpt>
<trkpt lat="37.807280" lon="-122.422090"></trkpt>
<trkpt lat="37.807350" lon="-122.422050"></trkpt>
<trkpt lat="37.807390" lon="-122.422070"></trkpt>
<trkpt lat="37.807430" lon="-122.422080"></trkpt>
<trkpt lat="37.807440" lon="-122.422030"></trkpt>
<trkpt lat="37.807380" lon="-122.421830"></trkpt>
<trkpt lat="37.807450" lon="-122.421230"></trkpt>
<trkpt lat="37.807480" lon="-122.421110"></trkpt>
<trkpt lat="37.807490" lon="-122.420890"></trkpt>
<trkpt lat="37.807500" lon="-122.420860"></trkpt>
<trkpt lat="37.807510" lon="-122.420830"></trkpt>
<trkpt lat="37.807530" lon="-122.420680"></trkpt>
<trkpt lat="37.807560" lon="-122.420690"></trkpt>
<trkpt lat="37.807560" lon="-122.420660"></trkpt>
<trkpt lat="37.807570" lon="-122.420610"></trkpt>
<trkpt lat="37.807580" lon="-122.420450"></trkpt>
<trkpt lat="37.807590" lon="-122.420330"></trkpt>
<trkpt lat="37.807610" lon="-122.420200"></trkpt>
<trkpt lat="37.807610" lon="-122.420100"></trkpt>
<trkpt lat="37.807630" lon="-122.419960"></trkpt>
<trkpt lat="37.807640" lon="-122.419870"></trkpt>
<trkpt lat="37.807720" lon="-122.419240"></trkpt>
<trkpt lat="37.807720" lon="-122.419200"></trkpt>
<trkpt lat="37.807720" lon="-122.419180"></trkpt>
<trkpt lat="37.807740" lon="-122.419040"></trkpt>
<trkpt lat="37.807740" lon="-122.419010"></trkpt>
<trkpt lat="37.807760" lon="-122.419020"></trkpt>
<trkpt lat="37.807770" lon="-122.418970"></trkpt>
<trkpt lat="37.807840" lon="-122.418370"></trkpt>
<trkpt lat="37.807840" lon="-122.418310"></trkpt>
<trkpt lat="37.807850" lon="-122.418240"></trkpt>
<trkpt lat="37.807870" lon="-122.418170"></trkpt>
<trkpt lat="37.807870" lon="-122.418110"></trkpt>
<trkpt lat="37.807870" lon="-122.418050"></trkpt>
<trkpt lat="37.807890" lon="-122.417960"></trkpt>
<trkpt lat="37.807910" lon="-122.417790"></trkpt>
<trkpt lat="37.807910" lon="-122.417770"></trkpt>
<trkpt lat="37.807920" lon="-122.417710"></trkpt>
<trkpt lat="37.807930" lon="-122.417670"></trkpt>
<trkpt lat="37.807930" lon="-122.417660"></trkpt>
<trkpt lat="37.807950" lon="-122.417530"></trkpt>
<trkpt lat="37.807940" lon="-122.417530"></trkpt>
<trkpt lat="37.807950" lon="-122.417400"></trkpt>
<trkpt lat="37.807960" lon="-122.417370"></trkpt>
<trkpt lat="37.807960" lon="-122.417340"></trkpt>
<trkpt lat="37.808000" lon="-122.417050"></trkpt>
<trkpt lat="37.808010" lon="-122.416920"></trkpt>
<trkpt lat="37.808020" lon="-122.416860"></trkpt>
<trkpt lat="37.808050" lon="-122.416650"></trkpt>
<trkpt lat="37.808090" lon="-122.416350"></trkpt>
<trkpt lat="37.808160" lon="-122.415910"></trkpt>
<trkpt lat="37.808140" lon="-122.415910"></trkpt>
<trkpt lat="37.808160" lon="-122.415750"></trkpt>
<trkpt lat="37.808170" lon="-122.415710"></trkpt>
<trkpt lat="37.808190" lon="-122.415710"></trkpt>
<trkpt lat="37.808190" lon="-122.415600"></trkpt>
<trkpt lat="37.808220" lon="-122.415350"></trkpt>
<trkpt lat="37.808270" lon="-122.415000"></trkpt>
<trkpt lat="37.808280" lon="-122.414900"></trkpt>
<trkpt lat="37.808360" lon="-122.414280"></trkpt>
<trkpt lat="37.808360" lon="-122.414270"></trkpt>
<trkpt lat="37.808350" lon="-122.414260"></trkpt>
<trkpt lat="37.808350" lon="-122.414240"></trkpt>
<trkpt lat="37.808370" lon="-122.414110"></trkpt>
<trkpt lat="37.808380" lon="-122.414080"></trkpt>
<trkpt lat="37.808400" lon="-122.414080"></trkpt>
<trkpt lat="37.808410" lon="-122.413990"></trkpt>
<trkpt lat="37.808460" lon="-122.413530"></trkpt>
<trkpt lat="37.808540" lon="-122.412960"></trkpt>
<trkpt lat="37.808540" lon="-122.412890"></trkpt>
<trkpt lat="37.808550" lon="-122.412850"></trkpt>
<trkpt lat="37.808570" lon="-122.412680"></trkpt>
<trkpt lat="37.808580" lon="-122.412580"></trkpt>
<trkpt lat="37.808520" lon="-122.412570"></trkpt>
<trkpt lat="37.808490" lon="-122.412420"></trkpt>
<trkpt lat="37.808500" lon="-122.412420"></trkpt>
<trkpt lat="37.808510" lon="-122.412420"></trkpt>
<trkpt lat="37.808650" lon="-122.412480"></trkpt>
<trkpt lat="37.808630" lon="-122.412430"></trkpt>
<trkpt lat="37.808660" lon="-122.412440"></trkpt>
<trkpt lat="37.808670" lon="-122.412430"></trkpt>
<trkpt lat="37.808680" lon="-122.412430"></trkpt>
<trkpt lat="37.808690" lon="-122.412430"></trkpt>
<trkpt lat="37.808700" lon="-122.412420"></trkpt>
<trkpt lat="37.808750" lon="-122.412390"></trkpt>
<trkpt lat="37.808770" lon="-122.412370"></trkpt>
<trkpt lat="37.808810" lon="-122.412320"></trkpt>
<trkpt lat="37.808770" lon="-122.412000"></trkpt>
<trkpt lat="37.808710" lon="-122.411610"></trkpt>
<trkpt lat="37.808710" lon="-122.411540"></trkpt>
<trkpt lat="37.808650" lon="-122.411040"></trkpt>
<trkpt lat="37.808630" lon="-122.410880"></trkpt>
<trkpt lat="37.808610" lon="-122.410810"></trkpt>
<trkpt lat="37.808570" lon="-122.410560"></trkpt>
<trkpt lat="37.808540" lon="-122.410360"></trkpt>
<trkpt lat="37.808510" lon="-122.410140"></trkpt>
<trkpt lat="37.808480" lon="-122.409800"></trkpt>
<trkpt lat="37.808460" lon="-122.409640"></trkpt>
<trkpt lat="37.808350" lon="-122.409140"></trkpt>
<trkpt lat="37.808330" lon="-122.409120"></trkpt>
<trkpt lat="37.808300" lon="-122.409100"></trkpt>
<trkpt lat="37.808280" lon="-122.409080"></trkpt>
<trkpt lat="37.808260" lon="-122.409060"></trkpt>
<trkpt lat="37.808240" lon="-122.409040"></trkpt>
<trkpt lat="37.808220" lon="-122.409000"></trkpt>
<trkpt lat="37.808200" lon="-122.409000"></trkpt>
<trkpt lat="37.808150" lon="-122.408970"></trkpt>
<trkpt lat="37.808130" lon="-122.408910"></trkpt>
<trkpt lat="37.808110" lon="-122.408850"></trkpt>
<trkpt lat="37.807940" lon="-122.408480"></trkpt>
<trkpt lat="37.807770" lon="-122.408070"></trkpt>
<trkpt lat="37.807620" lon="-122.407730"></trkpt>
<trkpt lat="37.807570" lon="-122.407580"></trkpt>
<trkpt lat="37.807550" lon="-122.407550"></trkpt>
<trkpt lat="37.807550" lon="-122.407530"></trkpt>
<trkpt lat="37.807540" lon="-122.407430"></trkpt>
<trkpt lat="37.807520" lon="-122.407280"></trkpt>
<trkpt lat="37.807490" lon="-122.407220"></trkpt>
<trkpt lat="37.807450" lon="-122.407100"></trkpt>
<trkpt lat="37.807430" lon="-122.407070"></trkpt>
<trkpt lat="37.807400" lon="-122.406920"></trkpt>
<trkpt lat="37.807210" lon="-122.406510"></trkpt>
<trkpt lat="37.807160" lon="-122.406330"></trkpt>
<trkpt lat="37.807090" lon="-122.406190"></trkpt>
<trkpt lat="37.806990" lon="-122.405990"></trkpt>
<trkpt lat="37.806940" lon="-122.405890"></trkpt>
<trkpt lat="37.806870" lon="-122.405780"></trkpt>
<trkpt lat="37.806840" lon="-122.405710"></trkpt>
<trkpt lat="37.806780" lon="-122.405580"></trkpt>
<trkpt lat="37.806750" lon="-122.405500"></trkpt>
<trkpt lat="37.806710" lon="-122.405420"></trkpt>
<trkpt lat="37.806620" lon="-122.405320"></trkpt>
<trkpt lat="37.806550" lon="-122.405180"></trkpt>
<trkpt lat="37.806490" lon="-122.405060"></trkpt>
<trkpt lat="37.806390" lon="-122.404870"></trkpt>
<trkpt lat="37.806350" lon="-122.404750"></trkpt>
<trkpt lat="37.806320" lon="-122.404710"></trkpt>
<trkpt lat="37.806210" lon="-122.404520"></trkpt>
<trkpt lat="37.806150" lon="-122.404420"></trkpt>
<trkpt lat="37.805880" lon="-122.404040"></trkpt>
<trkpt lat="37.805800" lon="-122.403950"></trkpt>
<trkpt lat="37.805600" lon="-122.403680"></trkpt>
<trkpt lat="37.805540" lon="-122.403600"></trkpt>
<trkpt lat="37.805460" lon="-122.403490"></trkpt>
<trkpt lat="37.805460" lon="-122.403480"></trkpt>
<trkpt lat="37.805330" lon="-122.403300"></trkpt>
<trkpt lat="37.805270" lon="-122.403220"></trkpt>
<trkpt lat="37.805210" lon="-122.403150"></trkpt>
<trkpt lat="37.805170" lon="-122.403100"></trkpt>
<trkpt lat="37.805120" lon="-122.403020"></trkpt>
<trkpt lat="37.804950" lon="-122.402780"></trkpt>
<trkpt lat="37.804860" lon="-122.402700"></trkpt>
<trkpt lat="37.804830" lon="-122.402670"></trkpt>
<trkpt lat="37.804830" lon="-122.402660"></trkpt>
<trkpt lat="37.804730" lon="-122.402530"></trkpt>
<trkpt lat="37.804590" lon="-122.402340"></trkpt>
<trkpt lat="37.804540" lon="-122.402270"></trkpt>
<trkpt lat="37.804500" lon="-122.402230"></trkpt>
<trkpt lat="37.804460" lon="-122.402180"></trkpt>
<trkpt lat="37.804440" lon="-122.402160"></trkpt>
<trkpt lat="37.804420" lon="-122.402130"></trkpt>
<trkpt lat="37.804360" lon="-122.402060"></trkpt>
<trkpt lat="37.804320" lon="-122.402010"></trkpt>
<trkpt lat="37.804170" lon="-122.401850"></trkpt>
<trkpt lat="37.804150" lon="-122.401830"></trkpt>
<trkpt lat="37.804070" lon="-122.401740"></trkpt>
<trkpt lat="37.804050" lon="-122.401730"></trkpt>
<trkpt lat="37.804000" lon="-122.401680"></trkpt>
<trkpt lat="37.803990" lon="-122.401670"></trkpt>
<trkpt lat="37.803980" lon="-122.401660"></trkpt>
<trkpt lat="37.803680" lon="-122.401390"></trkpt>
<trkpt lat="37.803660" lon="-122.401370"></trkpt>
<trkpt lat="37.803610" lon="-122.401320"></trkpt>
<trkpt lat="37.803540" lon="-122.401220"></trkpt>
<trkpt lat="37.803450" lon="-122.401140"></trkpt>
<trkpt lat="37.803380" lon="-122.401060"></trkpt>
<trkpt lat="37.803150" lon="-122.400850"></trkpt>
<trkpt lat="37.803090" lon="-122.400790"></trkpt>
<trkpt lat="37.802530" lon="-122.400290"></trkpt>
<trkpt lat="37.802500" lon="-122.400270"></trkpt>
<trkpt lat="37.802260" lon="-122.400070"></trkpt>
<trkpt lat="37.802230" lon="-122.400040"></trkpt>
<trkpt lat="37.801820" lon="-122.399680"></trkpt>
<trkpt lat="37.801750" lon="-122.399610"></trkpt>
<trkpt lat="37.801520" lon="-122.399400"></trkpt>
<trkpt lat="37.801450" lon="-122.399340"></trkpt>
<trkpt lat="37.801310" lon="-122.399220"></trkpt>
<trkpt lat="37.801340" lon="-122.399170"></trkpt>
<trkpt lat="37.801530" lon="-122.398830"></trkpt>
<trkpt lat="37.801340" lon="-122.399170"></trkpt>
<trkpt lat="37.801310" lon="-122.399230"></trkpt>
<trkpt lat="37.801280" lon="-122.399200"></trkpt>
<trkpt lat="37.801200" lon="-122.399140"></trkpt>
<trkpt lat="37.801110" lon="-122.399060"></trkpt>
<trkpt lat="37.801000" lon="-122.399020"></trkpt>
<trkpt lat="37.800940" lon="-122.398940"></trkpt>
<trkpt lat="37.800880" lon="-122.398890"></trkpt>
<trkpt lat="37.800760" lon="-122.398780"></trkpt>
<trkpt lat="37.800590" lon="-122.398610"></trkpt>
<trkpt lat="37.800560" lon="-122.398580"></trkpt>
<trkpt lat="37.800490" lon="-122.398510"></trkpt>
<trkpt lat="37.800440" lon="-122.398470"></trkpt>
<trkpt lat="37.800360" lon="-122.398410"></trkpt>
<trkpt lat="37.800120" lon="-122.398190"></trkpt>
<trkpt lat="37.799950" lon="-122.398040"></trkpt>
<trkpt lat="37.799770" lon="-122.397890"></trkpt>
<trkpt lat="37.799710" lon="-122.397820"></trkpt>
<trkpt lat="37.799570" lon="-122.397690"></trkpt>
<trkpt lat="37.799510" lon="-122.397640"></trkpt>
<trkpt lat="37.799440" lon="-122.397590"></trkpt>
<trkpt lat="37.799410" lon="-122.397560"></trkpt>
<trkpt lat="37.799330" lon="-122.397450"></trkpt>
<trkpt lat="37.799260" lon="-122.397390"></trkpt>
<trkpt lat="37.799200" lon="-122.397350"></trkpt>
<trkpt lat="37.799160" lon="-122.397320"></trkpt>
<trkpt lat="37.798960" lon="-122.397140"></trkpt>
<trkpt lat="37.798760" lon="-122.396950"></trkpt>
<trkpt lat="37.798670" lon="-122.396860"></trkpt>
<trkpt lat="37.798620" lon="-122.396750"></trkpt>
<trkpt lat="37.798470" lon="-122.396610"></trkpt>
<trkpt lat="37.798280" lon="-122.396540"></trkpt>
<trkpt lat="37.798240" lon="-122.396500"></trkpt>
<trkpt lat="37.798190" lon="-122.396460"></trkpt>
<trkpt lat="37.798120" lon="-122.396390"></trkpt>
<trkpt lat="37.798070" lon="-122.396320"></trkpt>
<trkpt lat="37.797980" lon="-122.396240"></trkpt>
<trkpt lat="37.797860" lon="-122.396220"></trkpt>
<trkpt lat="37.797830" lon="-122.396190"></trkpt>
<trkpt lat="37.797770" lon="-122.396150"></trkpt>
<trkpt lat="37.797720" lon="-122.396110"></trkpt>
<trkpt lat="37.797630" lon="-122.396060"></trkpt>
<trkpt lat="37.797600" lon="-122.396030"></trkpt>
<trkpt lat="37.797560" lon="-122.396000"></trkpt>
<trkpt lat="37.797550" lon="-122.395990"></trkpt>
<trkpt lat="37.797540" lon="-122.395980"></trkpt>
<trkpt lat="37.797490" lon="-122.395940"></trkpt>
<trkpt lat="37.797400" lon="-122.395850"></trkpt>
<trkpt lat="37.797310" lon="-122.395740"></trkpt>
<trkpt lat="37.797130" lon="-122.395570"></trkpt>
<trkpt lat="37.797050" lon="-122.395480"></trkpt>
<trkpt lat="37.797000" lon="-122.395440"></trkpt>
<trkpt lat="37.796940" lon="-122.395380"></trkpt>
<trkpt lat="37.796780" lon="-122.395260"></trkpt>
<trkpt lat="37.796770" lon="-122.395100"></trkpt>
<trkpt lat="37.796530" lon="-122.394880"></trkpt>
<trkpt lat="37.796360" lon="-122.394830"></trkpt>
<trkpt lat="37.796340" lon="-122.394810"></trkpt>
<trkpt lat="37.796270" lon="-122.394740"></trkpt>
<trkpt lat="37.796060" lon="-122.394600"></trkpt>
<trkpt lat="37.796050" lon="-122.394440"></trkpt>
<trkpt lat="37.795990" lon="-122.394380"></trkpt>
<trkpt lat="37.795930" lon="-122.394330"></trkpt>
<trkpt lat="37.795930" lon="-122.394290"></trkpt>
<trkpt lat="37.795920" lon="-122.394260"></trkpt>
<trkpt lat="37.795890" lon="-122.394260"></trkpt>
<trkpt lat="37.795890" lon="-122.394230"></trkpt>
<trkpt lat="37.795840" lon="-122.394200"></trkpt>
<trkpt lat="37.795830" lon="-122.394180"></trkpt>
<trkpt lat="37.795820" lon="-122.394180"></trkpt>
<trkpt lat="37.795790" lon="-122.394140"></trkpt>
<trkpt lat="37.795760" lon="-122.394140"></trkpt>
<trkpt lat="37.795760" lon="-122.394120"></trkpt>
<trkpt lat="37.795740" lon="-122.394100"></trkpt>
<trkpt lat="37.795730" lon="-122.394100"></trkpt>
<trkpt lat="37.795700" lon="-122.394040"></trkpt>
<trkpt lat="37.795660" lon="-122.394040"></trkpt>
<trkpt lat="37.795650" lon="-122.394020"></trkpt>
<trkpt lat="37.795620" lon="-122.394020"></trkpt>
<trkpt lat="37.795610" lon="-122.393970"></trkpt>
<trkpt lat="37.795590" lon="-122.393970"></trkpt>
<trkpt lat="37.795550" lon="-122.393920"></trkpt>
<trkpt lat="37.795510" lon="-122.393910"></trkpt>
<trkpt lat="37.795510" lon="-122.393890"></trkpt>
<trkpt lat="37.795510" lon="-122.393910"></trkpt>
<trkpt lat="37.795550" lon="-122.393920"></trkpt>
<trkpt lat="37.795590" lon="-122.393970"></trkpt>
<trkpt lat="37.795610" lon="-122.393970"></trkpt>
<trkpt lat="37.795620" lon="-122.394020"></trkpt>
<trkpt lat="37.795620" lon="-122.394040"></trkpt>
<trkpt lat="37.795340" lon="-122.393790"></trkpt>
<trkpt lat="37.795300" lon="-122.393740"></trkpt>
<trkpt lat="37.795210" lon="-122.393650"></trkpt>
<trkpt lat="37.795100" lon="-122.393520"></trkpt>
<trkpt lat="37.795060" lon="-122.393490"></trkpt>
<trkpt lat="37.795010" lon="-122.393440"></trkpt>
<trkpt lat="37.794920" lon="-122.393360"></trkpt>
<trkpt lat="37.794870" lon="-122.393310"></trkpt>
<trkpt lat="37.794740" lon="-122.393180"></trkpt>
<trkpt lat="37.794620" lon="-122.393100"></trkpt>
<trkpt lat="37.794540" lon="-122.393030"></trkpt>
<trkpt lat="37.794460" lon="-122.392930"></trkpt>
<trkpt lat="37.794410" lon="-122.392870"></trkpt>
<trkpt lat="37.794330" lon="-122.392790"></trkpt>
<trkpt lat="37.794250" lon="-122.392700"></trkpt>
<trkpt lat="37.794210" lon="-122.392650"></trkpt>
<trkpt lat="37.794160" lon="-122.392600"></trkpt>
<trkpt lat="37.794070" lon="-122.392520"></trkpt>
<trkpt lat="37.793990" lon="-122.392460"></trkpt>
<trkpt lat="37.793890" lon="-122.392370"></trkpt>
<trkpt lat="37.793770" lon="-122.392340"></trkpt>
<trkpt lat="37.793730" lon="-122.392390"></trkpt>
<trkpt lat="37.793760" lon="-122.392420"></trkpt>
<trkpt lat="37.793680" lon="-122.392530"></trkpt>
<trkpt lat="37.793650" lon="-122.392500"></trkpt>
<trkpt lat="37.793570" lon="-122.392590"></trkpt>
<trkpt lat="37.793500" lon="-122.392510"></trkpt>
<trkpt lat="37.793300" lon="-122.392290"></trkpt>
<trkpt lat="37.793220" lon="-122.392190"></trkpt>
<trkpt lat="37.793080" lon="-122.392020"></trkpt>
<trkpt lat="37.792980" lon="-122.391900"></trkpt>
<trkpt lat="37.792790" lon="-122.391670"></trkpt>
<trkpt lat="37.792740" lon="-122.391620"></trkpt>
<trkpt lat="37.792680" lon="-122.391570"></trkpt>
<trkpt lat="37.792630" lon="-122.391530"></trkpt>
<trkpt lat="37.792390" lon="-122.391350"></trkpt>
<trkpt lat="37.792370" lon="-122.391380"></trkpt>
<trkpt lat="37.792180" lon="-122.391290"></trkpt>
<trkpt lat="37.792200" lon="-122.391270"></trkpt>
<trkpt lat="37.792110" lon="-122.391240"></trkpt>
<trkpt lat="37.791950" lon="-122.391180"></trkpt>
<trkpt lat="37.791930" lon="-122.391170"></trkpt>
<trkpt lat="37.791740" lon="-122.391100"></trkpt>
<trkpt lat="37.791720" lon="-122.391080"></trkpt>
<trkpt lat="37.791690" lon="-122.391070"></trkpt>
<trkpt lat="37.791640" lon="-122.391040"></trkpt>
<trkpt lat="37.791540" lon="-122.391000"></trkpt>
<trkpt lat="37.791380" lon="-122.390900"></trkpt>
<trkpt lat="37.791280" lon="-122.390830"></trkpt>
<trkpt lat="37.791230" lon="-122.390800"></trkpt>
<trkpt lat="37.791190" lon="-122.390760"></trkpt>
<trkpt lat="37.791170" lon="-122.390740"></trkpt>
<trkpt lat="37.791100" lon="-122.390640"></trkpt>
<trkpt lat="37.791050" lon="-122.390590"></trkpt>
<trkpt lat="37.791010" lon="-122.390560"></trkpt>
<trkpt lat="37.790990" lon="-122.390540"></trkpt>
<trkpt lat="37.790970" lon="-122.390510"></trkpt>
<trkpt lat="37.790930" lon="-122.390470"></trkpt>
<trkpt lat="37.790880" lon="-122.390410"></trkpt>
<trkpt lat="37.790820" lon="-122.390330"></trkpt>
<trkpt lat="37.790790" lon="-122.390290"></trkpt>
<trkpt lat="37.790740" lon="-122.390350"></trkpt>
<trkpt lat="37.790650" lon="-122.390450"></trkpt>
<trkpt lat="37.790620" lon="-122.390490"></trkpt>
<trkpt lat="37.790500" lon="-122.390640"></trkpt>
<trkpt lat="37.790460" lon="-122.390690"></trkpt>
<trkpt lat="37.790440" lon="-122.390710"></trkpt>
<trkpt lat="37.790370" lon="-122.390830"></trkpt>
<trkpt lat="37.790260" lon="-122.390960"></trkpt>
<trkpt lat="37.790230" lon="-122.391000"></trkpt>
<trkpt lat="37.790240" lon="-122.391020"></trkpt>
<trkpt lat="37.790220" lon="-122.391040"></trkpt>
<trkpt lat="37.790150" lon="-122.391140"></trkpt>
<trkpt lat="37.790110" lon="-122.391090"></trkpt>
<trkpt lat="37.790080" lon="-122.391130"></trkpt>
<trkpt lat="37.789980" lon="-122.391010"></trkpt>
<trkpt lat="37.790020" lon="-122.390970"></trkpt>
<trkpt lat="37.789970" lon="-122.390910"></trkpt>
<trkpt lat="37.789850" lon="-122.390750"></trkpt>
<trkpt lat="37.789830" lon="-122.390740"></trkpt>
<trkpt lat="37.789830" lon="-122.390730"></trkpt>
<trkpt lat="37.789590" lon="-122.390440"></trkpt>
<trkpt lat="37.789570" lon="-122.390410"></trkpt>
<trkpt lat="37.789560" lon="-122.390400"></trkpt>
<trkpt lat="37.789390" lon="-122.390180"></trkpt>
<trkpt lat="37.789270" lon="-122.390050"></trkpt>
<trkpt lat="37.789100" lon="-122.389840"></trkpt>
</trkseg></trk>
</gpx>
