<?xml version="1.0" encoding="UTF-8"?>
<gpx version="1.1" creator="google-directions">
<trk><name>sf_glen_canyon_twin_peaks</name><trkseg>
<trkpt lat="37.739550" lon="-122.446670"></trkpt>
<trkpt lat="37.739620" lon="-122.446620"></trkpt>
<trkpt lat="37.739660" lon="-122.446590"></trkpt>
<trkpt lat="37.739780" lon="-122.446510"></trkpt>
<trkpt lat="37.739880" lon="-122.446430"></trkpt>
<trkpt lat="37.739910" lon="-122.446420"></trkpt>
<trkpt lat="37.739930" lon="-122.446400"></trkpt>
<trkpt lat="37.739940" lon="-122.446400"></trkpt>
<trkpt lat="37.740000" lon="-122.446350"></trkpt>
<trkpt lat="37.740030" lon="-122.446330"></trkpt>
<trkpt lat="37.740130" lon="-122.446250"></trkpt>
<trkpt lat="37.740150" lon="-122.446300"></trkpt>
<trkpt lat="37.740200" lon="-122.446380"></trkpt>
<trkpt lat="37.740220" lon="-122.446430"></trkpt>
<trkpt lat="37.740270" lon="-122.446550"></trkpt>
<trkpt lat="37.740320" lon="-122.446650"></trkpt>
<trkpt lat="37.740330" lon="-122.446690"></trkpt>
<trkpt lat="37.740360" lon="-122.446770"></trkpt>
<trkpt lat="37.740370" lon="-122.446820"></trkpt>
<trkpt lat="37.740390" lon="-122.446890"></trkpt>
<trkpt lat="37.740420" lon="-122.446970"></trkpt>
<trkpt lat="37.740440" lon="-122.447070"></trkpt>
<trkpt lat="37.740470" lon="-122.447150"></trkpt>
<trkpt lat="37.740480" lon="-122.447180"></trkpt>
<trkpt lat="37.740480" lon="-122.447200"></trkpt>
<trkpt lat="37.740490" lon="-122.447220"></trkpt>
<trkpt lat="37.740490" lon="-122.447240"></trkpt>
<trkpt lat="37.740500" lon="-122.447250"></trkpt>
<trkpt lat="37.740500" lon="-122.447260"></trkpt>
<trkpt lat="37.740500" lon="-122.447270"></trkpt>
<trkpt lat="37.740500" lon="-122.447280"></trkpt>
<trkpt lat="37.740510" lon="-122.447290"></trkpt>
<trkpt lat="37.740510" lon="-122.447300"></trkpt>
<trkpt lat="37.740530" lon="-122.447360"></trkpt>
<trkpt lat="37.740540" lon="-122.447380"></trkpt>
<trkpt lat="37.740550" lon="-122.447400"></trkpt>
<trkpt lat="37.740550" lon="-122.447420"></trkpt>
<trkpt lat="37.740550" lon="-122.447430"></trkpt>
<trkpt lat="37.740560" lon="-122.447440"></trkpt>
<trkpt lat="37.740560" lon="-122.447450"></trkpt>
<trkpt lat="37.740560" lon="-122.447460"></trkpt>
<trkpt lat="37.740570" lon="-122.447460"></trkpt>
<trkpt lat="37.740570" lon="-122.447470"></trkpt>
<trkpt lat="37.740570" lon="-122.447480"></trkpt>
<trkpt lat="37.740580" lon="-122.447490"></trkpt>
<trkpt lat="37.740580" lon="-122.447500"></trkpt>
<trkpt lat="37.740590" lon="-122.447510"></trkpt>
<trkpt lat="37.740590" lon="-122.447520"></trkpt>
<trkpt lat="37.740610" lon="-122.447570"></trkpt>
<trkpt lat="37.740620" lon="-122.447590"></trkpt>
<trkpt lat="37.740630" lon="-122.447610"></trkpt>
<trkpt lat="37.740640" lon="-122.447630"></trkpt>
<trkpt lat="37.740640" lon="-122.447650"></trkpt>
<trkpt lat="37.740670" lon="-122.447710"></trkpt>
<trkpt lat="37.740700" lon="-122.447760"></trkpt>
<trkpt lat="37.740720" lon="-122.447800"></trkpt>
<trkpt lat="37.740750" lon="-122.447850"></trkpt>
<trkpt lat="37.740780" lon="-122.447890"></trkpt>
<trkpt lat="37.740810" lon="-122.447940"></trkpt>
<trkpt lat="37.740840" lon="-122.447980"></trkpt>
<trkpt lat="37.740850" lon="-122.448000"></trkpt>
<trkpt lat="37.740860" lon="-122.448010"></trkpt>
<trkpt lat="37.740870" lon="-122.448020"></trkpt>
<trkpt lat="37.740880" lon="-122.448030"></trkpt>
<trkpt lat="37.740890" lon="-122.448040"></trkpt>
<trkpt lat="37.740930" lon="-122.448100"></trkpt>
<trkpt lat="37.740940" lon="-122.448120"></trkpt>
<trkpt lat="37.740960" lon="-122.448130"></trkpt>
<trkpt lat="37.740970" lon="-122.448150"></trkpt>
<trkpt lat="37.740980" lon="-122.448160"></trkpt>
<trkpt lat="37.741000" lon="-122.448180"></trkpt>
<trkpt lat="37.741010" lon="-122.448190"></trkpt>
<trkpt lat="37.741050" lon="-122.448240"></trkpt>
<trkpt lat="37.741070" lon="-122.448260"></trkpt>
<trkpt lat="37.741150" lon="-122.448340"></trkpt>
<trkpt lat="37.741170" lon="-122.448360"></trkpt>
<trkpt lat="37.741210" lon="-122.448390"></trkpt>
<trkpt lat="37.741290" lon="-122.448450"></trkpt>
<trkpt lat="37.741320" lon="-122.448470"></trkpt>
<trkpt lat="37.741350" lon="-122.448490"></trkpt>
<trkpt lat="37.741370" lon="-122.448500"></trkpt>
<trkpt lat="37.741370" lon="-122.448510"></trkpt>
<trkpt lat="37.741470" lon="-122.448570"></trkpt>
<trkpt lat="37.741520" lon="-122.448590"></trkpt>
<trkpt lat="37.741580" lon="-122.448620"></trkpt>
<trkpt lat="37.741610" lon="-122.448630"></trkpt>
<trkpt lat="37.741650" lon="-122.448640"></trkpt>
<trkpt lat="37.741760" lon="-122.448670"></trkpt>
<trkpt lat="37.741780" lon="-122.448680"></trkpt>
<trkpt lat="37.741790" lon="-122.448680"></trkpt>
<trkpt lat="37.741820" lon="-122.448680"></trkpt>
<trkpt lat="37.741800" lon="-122.448560"></trkpt>
<trkpt lat="37.741790" lon="-122.448480"></trkpt>
<trkpt lat="37.741790" lon="-122.448410"></trkpt>
<trkpt lat="37.741770" lon="-122.448270"></trkpt>
<trkpt lat="37.741760" lon="-122.448180"></trkpt>
<trkpt lat="37.741750" lon="-122.448090"></trkpt>
<trkpt lat="37.741750" lon="-122.448030"></trkpt>
<trkpt lat="37.741750" lon="-122.448000"></trkpt>
<trkpt lat="37.741750" lon="-122.447990"></trkpt>
<trkpt lat="37.741740" lon="-122.447870"></trkpt>
<trkpt lat="37.741720" lon="-122.447730"></trkpt>
<trkpt lat="37.741680" lon="-122.447710"></trkpt>
<trkpt lat="37.741660" lon="-122.447710"></trkpt>
<trkpt lat="37.741640" lon="-122.447700"></trkpt>
<trkpt lat="37.741630" lon="-122.447700"></trkpt>
<trkpt lat="37.741630" lon="-122.447690"></trkpt>
<trkpt lat="37.741620" lon="-122.447690"></trkpt>
<trkpt lat="37.741610" lon="-122.447680"></trkpt>
<trkpt lat="37.741600" lon="-122.447680"></trkpt>
<trkpt lat="37.741580" lon="-122.447670"></trkpt>
<trkpt lat="37.741570" lon="-122.447660"></trkpt>
<trkpt lat="37.741550" lon="-122.447650"></trkpt>
<trkpt lat="37.741540" lon="-122.447640"></trkpt>
<trkpt lat="37.741520" lon="-122.447630"></trkpt>
<trkpt lat="37.741510" lon="-122.447620"></trkpt>
<trkpt lat="37.741490" lon="-122.447610"></trkpt>
<trkpt lat="37.741480" lon="-122.447600"></trkpt>
<trkpt lat="37.741470" lon="-122.447590"></trkpt>
<trkpt lat="37.741460" lon="-122.447580"></trkpt>
<trkpt lat="37.741470" lon="-122.447590"></trkpt>
<trkpt lat="37.741480" lon="-122.447600"></trkpt>
<trkpt lat="37.741490" lon="-122.447610"></trkpt>
<trkpt lat="37.741510" lon="-122.447620"></trkpt>
<trkpt lat="37.741520" lon="-122.447630"></trkpt>
<trkpt lat="37.741540" lon="-122.447640"></trkpt>
<trkpt lat="37.741550" lon="-122.447650"></trkpt>
<trkpt lat="37.741570" lon="-122.447660"></trkpt>
<trkpt lat="37.741580" lon="-122.447670"></trkpt>
<trkpt lat="37.741600" lon="-122.447680"></trkpt>
<trkpt lat="37.741610" lon="-122.447680"></trkpt>
<trkpt lat="37.741620" lon="-122.447690"></trkpt>
<trkpt lat="37.741630" lon="-122.447690"></trkpt>
<trkpt lat="37.741630" lon="-122.447700"></trkpt>
<trkpt lat="37.741640" lon="-122.447700"></trkpt>
<trkpt lat="37.741660" lon="-122.447710"></trkpt>
<trkpt lat="37.741680" lon="-122.447710"></trkpt>
<trkpt lat="37.741720" lon="-122.447730"></trkpt>
<trkpt lat="37.741840" lon="-122.447770"></trkpt>
<trkpt lat="37.741850" lon="-122.447920"></trkpt>
<trkpt lat="37.741850" lon="-122.447980"></trkpt>
<trkpt lat="37.741850" lon="-122.447990"></trkpt>
<trkpt lat="37.741850" lon="-122.448010"></trkpt>
<trkpt lat="37.741860" lon="-122.448070"></trkpt>
<trkpt lat="37.741870" lon="-122.448160"></trkpt>
<trkpt lat="37.741880" lon="-122.448250"></trkpt>
<trkpt lat="37.741890" lon="-122.448390"></trkpt>
<trkpt lat="37.741900" lon="-122.448460"></trkpt>
<trkpt lat="37.741910" lon="-122.448590"></trkpt>
<trkpt lat="37.741920" lon="-122.448690"></trkpt>
<trkpt lat="37.741930" lon="-122.448720"></trkpt>
<trkpt lat="37.741930" lon="-122.448740"></trkpt>
<trkpt lat="37.741950" lon="-122.448930"></trkpt>
<trkpt lat="37.741960" lon="-122.448950"></trkpt>
<trkpt lat="37.741960" lon="-122.448970"></trkpt>
<trkpt lat="37.741960" lon="-122.448980"></trkpt>
<trkpt lat="37.742000" lon="-122.449240"></trkpt>
<trkpt lat="37.742020" lon="-122.449300"></trkpt>
<trkpt lat="37.742030" lon="-122.449330"></trkpt>
<trkpt lat="37.742040" lon="-122.449360"></trkpt>
<trkpt lat="37.742070" lon="-122.449420"></trkpt>
<trkpt lat="37.742090" lon="-122.449460"></trkpt>
<trkpt lat="37.742090" lon="-122.449470"></trkpt>
<trkpt lat="37.742110" lon="-122.449510"></trkpt>
<trkpt lat="37.742140" lon="-122.449570"></trkpt>
<trkpt lat="37.742210" lon="-122.449720"></trkpt>
<trkpt lat="37.742310" lon="-122.449910"></trkpt>
<trkpt lat="37.742330" lon="-122.449960"></trkpt>
<trkpt lat="37.742340" lon="-122.449980"></trkpt>
<trkpt lat="37.742350" lon="-122.450000"></trkpt>
<trkpt lat="37.742350" lon="-122.450010"></trkpt>
<trkpt lat="37.742360" lon="-122.450020"></trkpt>
<trkpt lat="37.742370" lon="-122.450040"></trkpt>
<trkpt lat="37.742380" lon="-122.450060"></trkpt>
<trkpt lat="37.742390" lon="-122.450090"></trkpt>
<trkpt lat="37.742480" lon="-122.450270"></trkpt>
<trkpt lat="37.742500" lon="-122.450310"></trkpt>
<trkpt lat="37.742520" lon="-122.450340"></trkpt>
<trkpt lat="37.742530" lon="-122.450370"></trkpt>
<trkpt lat="37.742560" lon="-122.450410"></trkpt>
<trkpt lat="37.742580" lon="-122.450440"></trkpt>
<trkpt lat="37.742610" lon="-122.450480"></trkpt>
<trkpt lat="37.742650" lon="-122.450540"></trkpt>
<trkpt lat="37.742670" lon="-122.450570"></trkpt>
<trkpt lat="37.742730" lon="-122.450630"></trkpt>
<trkpt lat="37.742750" lon="-122.450670"></trkpt>
<trkpt lat="37.742780" lon="-122.450710"></trkpt>
<trkpt lat="37.742810" lon="-122.450760"></trkpt>
<trkpt lat="37.742850" lon="-122.450790"></trkpt>
<trkpt lat="37.742880" lon="-122.450810"></trkpt>
<trkpt lat="37.742900" lon="-122.450830"></trkpt>
<trkpt lat="37.742920" lon="-122.450850"></trkpt>
<trkpt lat="37.743010" lon="-122.450910"></trkpt>
<trkpt lat="37.743040" lon="-122.450930"></trkpt>
<trkpt lat="37.743070" lon="-122.450960"></trkpt>
<trkpt lat="37.743150" lon="-122.451040"></trkpt>
<trkpt lat="37.743210" lon="-122.451090"></trkpt>
<trkpt lat="37.743310" lon="-122.451190"></trkpt>
<trkpt lat="37.743570" lon="-122.451440"></trkpt>
<trkpt lat="37.743620" lon="-122.451480"></trkpt>
<trkpt lat="37.743640" lon="-122.451450"></trkpt>
<trkpt lat="37.743660" lon="-122.451440"></trkpt>
<trkpt lat="37.743660" lon="-122.451430"></trkpt>
<trkpt lat="37.743670" lon="-122.451420"></trkpt>
<trkpt lat="37.743680" lon="-122.451410"></trkpt>
<trkpt lat="37.743690" lon="-122.451400"></trkpt>
<trkpt lat="37.743700" lon="-122.451400"></trkpt>
<trkpt lat="37.743710" lon="-122.451390"></trkpt>
<trkpt lat="37.743720" lon="-122.451380"></trkpt>
<trkpt lat="37.743730" lon="-122.451370"></trkpt>
<trkpt lat="37.743750" lon="-122.451360"></trkpt>
<trkpt lat="37.743760" lon="-122.451350"></trkpt>
<trkpt lat="37.743770" lon="-122.451340"></trkpt>
<trkpt lat="37.743790" lon="-122.451330"></trkpt>
<trkpt lat="37.743800" lon="-122.451330"></trkpt>
<trkpt lat="37.743810" lon="-122.451320"></trkpt>
<trkpt lat="37.743820" lon="-122.451320"></trkpt>
<trkpt lat="37.743830" lon="-122.451320"></trkpt>
<trkpt lat="37.743840" lon="-122.451310"></trkpt>
<trkpt lat="37.743850" lon="-122.451310"></trkpt>
<trkpt lat="37.743860" lon="-122.451300"></trkpt>
<trkpt lat="37.743870" lon="-122.451300"></trkpt>
<trkpt lat="37.743880" lon="-122.451290"></trkpt>
<trkpt lat="37.743890" lon="-122.451290"></trkpt>
<trkpt lat="37.743900" lon="-122.451290"></trkpt>
<trkpt lat="37.743910" lon="-122.451290"></trkpt>
<trkpt lat="37.743920" lon="-122.451280"></trkpt>
<trkpt lat="37.743930" lon="-122.451280"></trkpt>
<trkpt lat="37.743940" lon="-122.451280"></trkpt>
<trkpt lat="37.743950" lon="-122.451280"></trkpt>
<trkpt lat="37.743960" lon="-122.451270"></trkpt>
<trkpt lat="37.743970" lon="-122.451270"></trkpt>
<trkpt lat="37.743980" lon="-122.451270"></trkpt>
<trkpt lat="37.743990" lon="-122.451270"></trkpt>
<trkpt lat="37.744000" lon="-122.451270"></trkpt>
<trkpt lat="37.744010" lon="-122.451270"></trkpt>
<trkpt lat="37.744030" lon="-122.451270"></trkpt>
<trkpt lat="37.744040" lon="-122.451270"></trkpt>
<trkpt lat="37.744050" lon="-122.451270"></trkpt>
<trkpt lat="37.744060" lon="-122.451270"></trkpt>
<trkpt lat="37.744080" lon="-122.451270"></trkpt>
<trkpt lat="37.744090" lon="-122.451270"></trkpt>
<trkpt lat="37.744110" lon="-122.451270"></trkpt>
<trkpt lat="37.744130" lon="-122.451280"></trkpt>
<trkpt lat="37.744140" lon="-122.451280"></trkpt>
<trkpt lat="37.744150" lon="-122.451280"></trkpt>
<trkpt lat="37.744170" lon="-122.451290"></trkpt>
<trkpt lat="37.744180" lon="-122.451290"></trkpt>
<trkpt lat="37.744190" lon="-122.451300"></trkpt>
<trkpt lat="37.744210" lon="-122.451300"></trkpt>
<trkpt lat="37.744220" lon="-122.451300"></trkpt>
<trkpt lat="37.744230" lon="-122.451310"></trkpt>
<trkpt lat="37.744240" lon="-122.451320"></trkpt>
<trkpt lat="37.744250" lon="-122.451320"></trkpt>
<trkpt lat="37.744260" lon="-122.451320"></trkpt>
<trkpt lat="37.744270" lon="-122.451330"></trkpt>
<trkpt lat="37.744280" lon="-122.451330"></trkpt>
<trkpt lat="37.744280" lon="-122.451340"></trkpt>
<trkpt lat="37.744290" lon="-122.451340"></trkpt>
<trkpt lat="37.744300" lon="-122.451340"></trkpt>
<trkpt lat="37.744300" lon="-122.451350"></trkpt>
<trkpt lat="37.744320" lon="-122.451360"></trkpt>
<trkpt lat="37.744330" lon="-122.451370"></trkpt>
<trkpt lat="37.744340" lon="-122.451380"></trkpt>
<trkpt lat="37.744350" lon="-122.451390"></trkpt>
<trkpt lat="37.744380" lon="-122.451410"></trkpt>
<trkpt lat="37.744400" lon="-122.451430"></trkpt>
<trkpt lat="37.744410" lon="-122.451440"></trkpt>
<trkpt lat="37.744490" lon="-122.451510"></trkpt>
<trkpt lat="37.744510" lon="-122.451530"></trkpt>
<trkpt lat="37.744600" lon="-122.451590"></trkpt>
<trkpt lat="37.744650" lon="-122.451640"></trkpt>
<trkpt lat="37.744710" lon="-122.451690"></trkpt>
<trkpt lat="37.744780" lon="-122.451770"></trkpt>
<trkpt lat="37.744840" lon="-122.451830"></trkpt>
<trkpt lat="37.744940" lon="-122.451920"></trkpt>
<trkpt lat="37.744990" lon="-122.451980"></trkpt>
<trkpt lat="37.745070" lon="-122.452050"></trkpt>
<trkpt lat="37.745140" lon="-122.452100"></trkpt>
<trkpt lat="37.745160" lon="-122.452110"></trkpt>
<trkpt lat="37.745180" lon="-122.452130"></trkpt>
<trkpt lat="37.745200" lon="-122.452150"></trkpt>
<trkpt lat="37.745210" lon="-122.452120"></trkpt>
<trkpt lat="37.745240" lon="-122.452070"></trkpt>
<trkpt lat="37.745270" lon="-122.452000"></trkpt>
<trkpt lat="37.745330" lon="-122.451860"></trkpt>
<trkpt lat="37.745390" lon="-122.451720"></trkpt>
<trkpt lat="37.745410" lon="-122.451660"></trkpt>
<trkpt lat="37.745400" lon="-122.451650"></trkpt>
<trkpt lat="37.745470" lon="-122.451470"></trkpt>
<trkpt lat="37.745470" lon="-122.451480"></trkpt>
<trkpt lat="37.745480" lon="-122.451480"></trkpt>
<trkpt lat="37.745490" lon="-122.451450"></trkpt>
<trkpt lat="37.745510" lon="-122.451390"></trkpt>
<trkpt lat="37.745480" lon="-122.451400"></trkpt>
<trkpt lat="37.745460" lon="-122.451410"></trkpt>
<trkpt lat="37.745460" lon="-122.451400"></trkpt>
<trkpt lat="37.745440" lon="-122.451340"></trkpt>
<trkpt lat="37.745430" lon="-122.451330"></trkpt>
<trkpt lat="37.745440" lon="-122.451330"></trkpt>
<trkpt lat="37.745460" lon="-122.451320"></trkpt>
<trkpt lat="37.745530" lon="-122.451300"></trkpt>
<trkpt lat="37.745560" lon="-122.451200"></trkpt>
<trkpt lat="37.745580" lon="-122.451160"></trkpt>
<trkpt lat="37.745580" lon="-122.451150"></trkpt>
<trkpt lat="37.745610" lon="-122.451080"></trkpt>
<trkpt lat="37.745640" lon="-122.450980"></trkpt>
<trkpt lat="37.745650" lon="-122.450960"></trkpt>
<trkpt lat="37.745660" lon="-122.450930"></trkpt>
<trkpt lat="37.745690" lon="-122.450830"></trkpt>
<trkpt lat="37.745690" lon="-122.450810"></trkpt>
<trkpt lat="37.745720" lon="-122.450750"></trkpt>
<trkpt lat="37.745750" lon="-122.450640"></trkpt>
<trkpt lat="37.745750" lon="-122.450630"></trkpt>
<trkpt lat="37.745770" lon="-122.450560"></trkpt>
<trkpt lat="37.745820" lon="-122.450290"></trkpt>
<trkpt lat="37.745840" lon="-122.450190"></trkpt>
<trkpt lat="37.745860" lon="-122.450100"></trkpt>
<trkpt lat="37.745870" lon="-122.450010"></trkpt>
<trkpt lat="37.745870" lon="-122.449980"></trkpt>
<trkpt lat="37.745920" lon="-122.449590"></trkpt>
<trkpt lat="37.745930" lon="-122.449470"></trkpt>
<trkpt lat="37.745960" lon="-122.449300"></trkpt>
<trkpt lat="37.745980" lon="-122.449190"></trkpt>
<trkpt lat="37.746000" lon="-122.449100"></trkpt>
<trkpt lat="37.746010" lon="-122.449040"></trkpt>
<trkpt lat="37.746030" lon="-122.448980"></trkpt>
<trkpt lat="37.746040" lon="-122.448910"></trkpt>
<trkpt lat="37.746060" lon="-122.448830"></trkpt>
<trkpt lat="37.746170" lon="-122.448400"></trkpt>
<trkpt lat="37.746190" lon="-122.448300"></trkpt>
<trkpt lat="37.746200" lon="-122.448280"></trkpt>
<trkpt lat="37.746240" lon="-122.448170"></trkpt>
<trkpt lat="37.746270" lon="-122.448050"></trkpt>
<trkpt lat="37.746300" lon="-122.447920"></trkpt>
<trkpt lat="37.746300" lon="-122.447890"></trkpt>
<trkpt lat="37.746330" lon="-122.447790"></trkpt>
<trkpt lat="37.746340" lon="-122.447770"></trkpt>
<trkpt lat="37.746350" lon="-122.447720"></trkpt>
<trkpt lat="37.746240" lon="-122.447660"></trkpt>
<trkpt lat="37.746180" lon="-122.447630"></trkpt>
<trkpt lat="37.746140" lon="-122.447610"></trkpt>
<trkpt lat="37.746100" lon="-122.447590"></trkpt>
<trkpt lat="37.746040" lon="-122.447580"></trkpt>
<trkpt lat="37.746010" lon="-122.447560"></trkpt>
<trkpt lat="37.745980" lon="-122.447560"></trkpt>
<trkpt lat="37.745940" lon="-122.447550"></trkpt>
<trkpt lat="37.745920" lon="-122.447550"></trkpt>
<trkpt lat="37.745900" lon="-122.447550"></trkpt>
<trkpt lat="37.745880" lon="-122.447560"></trkpt>
<trkpt lat="37.745870" lon="-122.447570"></trkpt>
<trkpt lat="37.745850" lon="-122.447590"></trkpt>
<trkpt lat="37.745790" lon="-122.447630"></trkpt>
<trkpt lat="37.745780" lon="-122.447640"></trkpt>
<trkpt lat="37.745770" lon="-122.447650"></trkpt>
<trkpt lat="37.745740" lon="-122.447720"></trkpt>
<trkpt lat="37.745700" lon="-122.447770"></trkpt>
<trkpt lat="37.745690" lon="-122.447780"></trkpt>
<trkpt lat="37.745680" lon="-122.447770"></trkpt>
<trkpt lat="37.745670" lon="-122.447760"></trkpt>
<trkpt lat="37.745670" lon="-122.447750"></trkpt>
<trkpt lat="37.745670" lon="-122.447700"></trkpt>
<trkpt lat="37.745680" lon="-122.447640"></trkpt>
<trkpt lat="37.745680" lon="-122.447600"></trkpt>
<trkpt lat="37.745680" lon="-122.447570"></trkpt>
<trkpt lat="37.745680" lon="-122.447560"></trkpt>
<trkpt lat="37.745670" lon="-122.447540"></trkpt>
<trkpt lat="37.745660" lon="-122.447530"></trkpt>
<trkpt lat="37.745650" lon="-122.447530"></trkpt>
<trkpt lat="37.745650" lon="-122.447540"></trkpt>
<trkpt lat="37.745640" lon="-122.447540"></trkpt>
<trkpt lat="37.745620" lon="-122.447590"></trkpt>
<trkpt lat="37.745590" lon="-122.447650"></trkpt>
<trkpt lat="37.745570" lon="-122.447650"></trkpt>
<trkpt lat="37.745560" lon="-122.447660"></trkpt>
<trkpt lat="37.745540" lon="-122.447650"></trkpt>
<trkpt lat="37.745520" lon="-122.447630"></trkpt>
<trkpt lat="37.745530" lon="-122.447600"></trkpt>
<trkpt lat="37.745540" lon="-122.447540"></trkpt>
<trkpt lat="37.745550" lon="-122.447510"></trkpt>
<trkpt lat="37.745550" lon="-122.447490"></trkpt>
<trkpt lat="37.745550" lon="-122.447470"></trkpt>
<trkpt lat="37.745550" lon="-122.447450"></trkpt>
<trkpt lat="37.745560" lon="-122.447420"></trkpt>
<trkpt lat="37.745550" lon="-122.447340"></trkpt>
<trkpt lat="37.745490" lon="-122.447280"></trkpt>
<trkpt lat="37.745460" lon="-122.447240"></trkpt>
<trkpt lat="37.745420" lon="-122.447200"></trkpt>
<trkpt lat="37.745360" lon="-122.447140"></trkpt>
<trkpt lat="37.745350" lon="-122.447130"></trkpt>
<trkpt lat="37.745310" lon="-122.447110"></trkpt>
<trkpt lat="37.745290" lon="-122.447100"></trkpt>
<trkpt lat="37.745280" lon="-122.447090"></trkpt>
<trkpt lat="37.745270" lon="-122.447070"></trkpt>
<trkpt lat="37.745240" lon="-122.447000"></trkpt>
<trkpt lat="37.745240" lon="-122.446990"></trkpt>
<trkpt lat="37.745240" lon="-122.446980"></trkpt>
<trkpt lat="37.745220" lon="-122.446970"></trkpt>
<trkpt lat="37.745200" lon="-122.446960"></trkpt>
<trkpt lat="37.745140" lon="-122.446930"></trkpt>
<trkpt lat="37.745070" lon="-122.446920"></trkpt>
<trkpt lat="37.745060" lon="-122.446910"></trkpt>
<trkpt lat="37.745040" lon="-122.446900"></trkpt>
<trkpt lat="37.745010" lon="-122.446890"></trkpt>
<trkpt lat="37.745040" lon="-122.446900"></trkpt>
<trkpt lat="37.745060" lon="-122.446910"></trkpt>
<trkpt lat="37.745070" lon="-122.446920"></trkpt>
<trkpt lat="37.745140" lon="-122.446930"></trkpt>
<trkpt lat="37.745200" lon="-122.446960"></trkpt>
<trkpt lat="37.745220" lon="-122.446970"></trkpt>
<trkpt lat="37.745240" lon="-122.446980"></trkpt>
<trkpt lat="37.745240" lon="-122.446990"></trkpt>
<trkpt lat="37.745240" lon="-122.447000"></trkpt>
<trkpt lat="37.745270" lon="-122.447070"></trkpt>
<trkpt lat="37.745280" lon="-122.447090"></trkpt>
<trkpt lat="37.745290" lon="-122.447100"></trkpt>
<trkpt lat="37.745310" lon="-122.447110"></trkpt>
<trkpt lat="37.745350" lon="-122.447130"></trkpt>
<trkpt lat="37.745360" lon="-122.447140"></trkpt>
<trkpt lat="37.745420" lon="-122.447200"></trkpt>
<trkpt lat="37.745460" lon="-122.447240"></trkpt>
<trkpt lat="37.745490" lon="-122.447280"></trkpt>
<trkpt lat="37.745550" lon="-122.447340"></trkpt>
<trkpt lat="37.745560" lon="-122.447420"></trkpt>
<trkpt lat="37.745550" lon="-122.447450"></trkpt>
<trkpt lat="37.745550" lon="-122.447470"></trkpt>
<trkpt lat="37.745550" lon="-122.447490"></trkpt>
<trkpt lat="37.745550" lon="-122.447510"></trkpt>
<trkpt lat="37.745540" lon="-122.447540"></trkpt>
<trkpt lat="37.745530" lon="-122.447600"></trkpt>
<trkpt lat="37.745520" lon="-122.447630"></trkpt>
<trkpt lat="37.745540" lon="-122.447650"></trkpt>
<trkpt lat="37.745560" lon="-122.447660"></trkpt>
<trkpt lat="37.745570" lon="-122.447650"></trkpt>
<trkpt lat="37.745590" lon="-122.447650"></trkpt>
<trkpt lat="37.745620" lon="-122.447590"></trkpt>
<trkpt lat="37.745640" lon="-122.447540"></trkpt>
<trkpt lat="37.745650" lon="-122.447540"></trkpt>
<trkpt lat="37.745650" lon="-122.447530"></trkpt>
<trkpt lat="37.745660" lon="-122.447530"></trkpt>
<trkpt lat="37.745670" lon="-122.447540"></trkpt>
<trkpt lat="37.745680" lon="-122.447560"></trkpt>
<trkpt lat="37.745680" lon="-122.447570"></trkpt>
<trkpt lat="37.745680" lon="-122.447600"></trkpt>
<trkpt lat="37.745680" lon="-122.447640"></trkpt>
<trkpt lat="37.745670" lon="-122.447700"></trkpt>
<trkpt lat="37.745670" lon="-122.447750"></trkpt>
<trkpt lat="37.745670" lon="-122.447760"></trkpt>
<trkpt lat="37.745680" lon="-122.447770"></trkpt>
<trkpt lat="37.745690" lon="-122.447780"></trkpt>
<trkpt lat="37.745700" lon="-122.447770"></trkpt>
<trkpt lat="37.745740" lon="-122.447720"></trkpt>
<trkpt lat="37.745770" lon="-122.447650"></trkpt>
<trkpt lat="37.745780" lon="-122.447640"></trkpt>
<trkpt lat="37.745790" lon="-122.447630"></trkpt>
<trkpt lat="37.745850" lon="-122.447590"></trkpt>
<trkpt lat="37.745870" lon="-122.447570"></trkpt>
<trkpt lat="37.745880" lon="-122.447560"></trkpt>
<trkpt lat="37.745900" lon="-122.447550"></trkpt>
<trkpt lat="37.745920" lon="-122.447550"></trkpt>
<trkpt lat="37.745940" lon="-122.447550"></trkpt>
<trkpt lat="37.745980" lon="-122.447560"></trkpt>
<trkpt lat="37.746010" lon="-122.447560"></trkpt>
<trkpt lat="37.746040" lon="-122.447580"></trkpt>
<trkpt lat="37.746100" lon="-122.447590"></trkpt>
<trkpt lat="37.746140" lon="-122.447610"></trkpt>
<trkpt lat="37.746180" lon="-122.447630"></trkpt>
<trkpt lat="37.746240" lon="-122.447660"></trkpt>
<trkpt lat="37.746350" lon="-122.447720"></trkpt>
<trkpt lat="37.746340" lon="-122.447770"></trkpt>
<trkpt lat="37.746330" lon="-122.447790"></trkpt>
<trkpt lat="37.746300" lon="-122.447890"></trkpt>
<trkpt lat="37.746300" lon="-122.447920"></trkpt>
<trkpt lat="37.746270" lon="-122.448050"></trkpt>
<trkpt lat="37.746240" lon="-122.448170"></trkpt>
<trkpt lat="37.746200" lon="-122.448280"></trkpt>
<trkpt lat="37.746190" lon="-122.448300"></trkpt>
<trkpt lat="37.746170" lon="-122.448400"></trkpt>
<trkpt lat="37.746060" lon="-122.448830"></trkpt>
<trkpt lat="37.746040" lon="-122.448910"></trkpt>
<trkpt lat="37.746030" lon="-122.448980"></trkpt>
<trkpt lat="37.746010" lon="-122.449040"></trkpt>
<trkpt lat="37.746000" lon="-122.449100"></trkpt>
<trkpt lat="37.745980" lon="-122.449190"></trkpt>
<trkpt lat="37.745960" lon="-122.449300"></trkpt>
<trkpt lat="37.745930" lon="-122.449470"></trkpt>
<trkpt lat="37.745920" lon="-122.449590"></trkpt>
<trkpt lat="37.745870" lon="-122.449980"></trkpt>
<trkpt lat="37.745870" lon="-122.450010"></trkpt>
<trkpt lat="37.745860" lon="-122.450100"></trkpt>
<trkpt lat="37.745840" lon="-122.450190"></trkpt>
<trkpt lat="37.745820" lon="-122.450290"></trkpt>
<trkpt lat="37.745790" lon="-122.450440"></trkpt>
<trkpt lat="37.745770" lon="-122.450550"></trkpt>
<trkpt lat="37.745750" lon="-122.450630"></trkpt>
<trkpt lat="37.745750" lon="-122.450650"></trkpt>
<trkpt lat="37.745720" lon="-122.450750"></trkpt>
<trkpt lat="37.745690" lon="-122.450810"></trkpt>
<trkpt lat="37.745690" lon="-122.450830"></trkpt>
<trkpt lat="37.745660" lon="-122.450930"></trkpt>
<trkpt lat="37.745650" lon="-122.450960"></trkpt>
<trkpt lat="37.745640" lon="-122.450980"></trkpt>
<trkpt lat="37.745610" lon="-122.451080"></trkpt>
<trkpt lat="37.745580" lon="-122.451150"></trkpt>
<trkpt lat="37.745580" lon="-122.451160"></trkpt>
<trkpt lat="37.745560" lon="-122.451200"></trkpt>
<trkpt lat="37.745540" lon="-122.451280"></trkpt>
<trkpt lat="37.745530" lon="-122.451300"></trkpt>
<trkpt lat="37.745460" lon="-122.451320"></trkpt>
<trkpt lat="37.745430" lon="-122.451330"></trkpt>
<trkpt lat="37.745460" lon="-122.451410"></trkpt>
<trkpt lat="37.745480" lon="-122.451400"></trkpt>
<trkpt lat="37.745510" lon="-122.451390"></trkpt>
<trkpt lat="37.745490" lon="-122.451450"></trkpt>
<trkpt lat="37.745480" lon="-122.451470"></trkpt>
<trkpt lat="37.745710" lon="-122.451680"></trkpt>
<trkpt lat="37.745730" lon="-122.451700"></trkpt>
<trkpt lat="37.745740" lon="-122.451660"></trkpt>
<trkpt lat="37.745760" lon="-122.451620"></trkpt>
<trkpt lat="37.745840" lon="-122.451480"></trkpt>
<trkpt lat="37.745840" lon="-122.451460"></trkpt>
<trkpt lat="37.745920" lon="-122.451310"></trkpt>
<trkpt lat="37.745930" lon="-122.451290"></trkpt>
<trkpt lat="37.746000" lon="-122.451130"></trkpt>
<trkpt lat="37.746010" lon="-122.451080"></trkpt>
<trkpt lat="37.746040" lon="-122.451010"></trkpt>
<trkpt lat="37.746000" lon="-122.450710"></trkpt>
<trkpt lat="37.746010" lon="-122.450660"></trkpt>
<trkpt lat="37.746040" lon="-122.450670"></trkpt>
<trkpt lat="37.746060" lon="-122.450680"></trkpt>
<trkpt lat="37.746080" lon="-122.450690"></trkpt>
<trkpt lat="37.746100" lon="-122.450680"></trkpt>
<trkpt lat="37.746110" lon="-122.450620"></trkpt>
<trkpt lat="37.746110" lon="-122.450600"></trkpt>
<trkpt lat="37.746120" lon="-122.450590"></trkpt>
<trkpt lat="37.746120" lon="-122.450550"></trkpt>
<trkpt lat="37.746130" lon="-122.450510"></trkpt>
<trkpt lat="37.746130" lon="-122.450460"></trkpt>
<trkpt lat="37.746140" lon="-122.450450"></trkpt>
<trkpt lat="37.746140" lon="-122.450410"></trkpt>
<trkpt lat="37.746160" lon="-122.450320"></trkpt>
<trkpt lat="37.746180" lon="-122.450230"></trkpt>
<trkpt lat="37.746190" lon="-122.450190"></trkpt>
<trkpt lat="37.746190" lon="-122.450170"></trkpt>
<trkpt lat="37.746230" lon="-122.450070"></trkpt>
<trkpt lat="37.746250" lon="-122.450020"></trkpt>
<trkpt lat="37.746270" lon="-122.449950"></trkpt>
<trkpt lat="37.746340" lon="-122.449780"></trkpt>
<trkpt lat="37.746370" lon="-122.449740"></trkpt>
<trkpt lat="37.746390" lon="-122.449700"></trkpt>
<trkpt lat="37.746470" lon="-122.449550"></trkpt>
<trkpt lat="37.746510" lon="-122.449470"></trkpt>
<trkpt lat="37.746530" lon="-122.449440"></trkpt>
<trkpt lat="37.746580" lon="-122.449370"></trkpt>
<trkpt lat="37.746660" lon="-122.449270"></trkpt>
<trkpt lat="37.746720" lon="-122.449200"></trkpt>
<trkpt lat="37.746750" lon="-122.449180"></trkpt>
<trkpt lat="37.746760" lon="-122.449170"></trkpt>
<trkpt lat="37.746800" lon="-122.449150"></trkpt>
<trkpt lat="37.746860" lon="-122.449110"></trkpt>
<trkpt lat="37.746940" lon="-122.449060"></trkpt>
<trkpt lat="37.746970" lon="-122.449040"></trkpt>
<trkpt lat="37.747090" lon="-122.448980"></trkpt>
<trkpt lat="37.747200" lon="-122.448930"></trkpt>
<trkpt lat="37.747340" lon="-122.448870"></trkpt>
<trkpt lat="37.747470" lon="-122.448820"></trkpt>
<trkpt lat="37.747670" lon="-122.448740"></trkpt>
<trkpt lat="37.747710" lon="-122.448730"></trkpt>
<trkpt lat="37.747770" lon="-122.448700"></trkpt>
<trkpt lat="37.747850" lon="-122.448670"></trkpt>
<trkpt lat="37.747920" lon="-122.448630"></trkpt>
<trkpt lat="37.748020" lon="-122.448560"></trkpt>
<trkpt lat="37.748090" lon="-122.448510"></trkpt>
<trkpt lat="37.748170" lon="-122.448450"></trkpt>
<trkpt lat="37.748240" lon="-122.448400"></trkpt>
<trkpt lat="37.748370" lon="-122.448330"></trkpt>
<trkpt lat="37.748460" lon="-122.448280"></trkpt>
<trkpt lat="37.748490" lon="-122.448260"></trkpt>
<trkpt lat="37.748530" lon="-122.448240"></trkpt>
<trkpt lat="37.748730" lon="-122.448130"></trkpt>
<trkpt lat="37.748790" lon="-122.448100"></trkpt>
<trkpt lat="37.748920" lon="-122.448030"></trkpt>
<trkpt lat="37.748950" lon="-122.448010"></trkpt>
<trkpt lat="37.748980" lon="-122.447990"></trkpt>
<trkpt lat="37.749210" lon="-122.447860"></trkpt>
<trkpt lat="37.749330" lon="-122.447790"></trkpt>
<trkpt lat="37.749370" lon="-122.447760"></trkpt>
<trkpt lat="37.749400" lon="-122.447740"></trkpt>
<trkpt lat="37.749400" lon="-122.447730"></trkpt>
<trkpt lat="37.749420" lon="-122.447720"></trkpt>
<trkpt lat="37.749420" lon="-122.447710"></trkpt>
<trkpt lat="37.749430" lon="-122.447700"></trkpt>
<trkpt lat="37.749440" lon="-122.447690"></trkpt>
<trkpt lat="37.749440" lon="-122.447680"></trkpt>
<trkpt lat="37.749450" lon="-122.447680"></trkpt>
<trkpt lat="37.749460" lon="-122.447680"></trkpt>
<trkpt lat="37.749470" lon="-122.447640"></trkpt>
<trkpt lat="37.749470" lon="-122.447620"></trkpt>
<trkpt lat="37.749470" lon="-122.447590"></trkpt>
<trkpt lat="37.749460" lon="-122.447550"></trkpt>
<trkpt lat="37.749460" lon="-122.447520"></trkpt>
<trkpt lat="37.749440" lon="-122.447470"></trkpt>
<trkpt lat="37.749390" lon="-122.447340"></trkpt>
<trkpt lat="37.749370" lon="-122.447300"></trkpt>
<trkpt lat="37.749330" lon="-122.447240"></trkpt>
<trkpt lat="37.749270" lon="-122.447130"></trkpt>
<trkpt lat="37.749150" lon="-122.446970"></trkpt>
<trkpt lat="37.749100" lon="-122.446910"></trkpt>
<trkpt lat="37.749040" lon="-122.446830"></trkpt>
<trkpt lat="37.749020" lon="-122.446800"></trkpt>
<trkpt lat="37.748990" lon="-122.446760"></trkpt>
<trkpt lat="37.748890" lon="-122.446620"></trkpt>
<trkpt lat="37.748840" lon="-122.446520"></trkpt>
<trkpt lat="37.748790" lon="-122.446430"></trkpt>
<trkpt lat="37.748760" lon="-122.446360"></trkpt>
<trkpt lat="37.748750" lon="-122.446320"></trkpt>
<trkpt lat="37.748730" lon="-122.446260"></trkpt>
<trkpt lat="37.748720" lon="-122.446230"></trkpt>
<trkpt lat="37.748720" lon="-122.446170"></trkpt>
<trkpt lat="37.748710" lon="-122.446120"></trkpt>
<trkpt lat="37.748710" lon="-122.446070"></trkpt>
<trkpt lat="37.748720" lon="-122.446020"></trkpt>
<trkpt lat="37.748720" lon="-122.445960"></trkpt>
<trkpt lat="37.748740" lon="-122.445910"></trkpt>
<trkpt lat="37.748750" lon="-122.445860"></trkpt>
<trkpt lat="37.748770" lon="-122.445820"></trkpt>
<trkpt lat="37.748790" lon="-122.445770"></trkpt>
<trkpt lat="37.748810" lon="-122.445730"></trkpt>
<trkpt lat="37.748840" lon="-122.445700"></trkpt>
<trkpt lat="37.748870" lon="-122.445670"></trkpt>
<trkpt lat="37.748900" lon="-122.445650"></trkpt>
<trkpt lat="37.748930" lon="-122.445630"></trkpt>
<trkpt lat="37.748960" lon="-122.445620"></trkpt>
<trkpt lat="37.749000" lon="-122.445610"></trkpt>
<trkpt lat="37.749040" lon="-122.445610"></trkpt>
<trkpt lat="37.749090" lon="-122.445610"></trkpt>
<trkpt lat="37.749140" lon="-122.445620"></trkpt>
<trkpt lat="37.749180" lon="-122.445630"></trkpt>
<trkpt lat="37.749230" lon="-122.445650"></trkpt>
<trkpt lat="37.749270" lon="-122.445670"></trkpt>
<trkpt lat="37.749310" lon="-122.445700"></trkpt>
<trkpt lat="37.749350" lon="-122.445730"></trkpt>
<trkpt lat="37.749360" lon="-122.445750"></trkpt>
<trkpt lat="37.749390" lon="-122.445820"></trkpt>
<trkpt lat="37.749610" lon="-122.446250"></trkpt>
<trkpt lat="37.749640" lon="-122.446310"></trkpt>
<trkpt lat="37.749950" lon="-122.446810"></trkpt>
<trkpt lat="37.749990" lon="-122.446900"></trkpt>
<trkpt lat="37.750030" lon="-122.447010"></trkpt>
<trkpt lat="37.750040" lon="-122.447010"></trkpt>
<trkpt lat="37.750050" lon="-122.447010"></trkpt>
<trkpt lat="37.750050" lon="-122.447020"></trkpt>
<trkpt lat="37.750060" lon="-122.447020"></trkpt>
<trkpt lat="37.750070" lon="-122.447040"></trkpt>
<trkpt lat="37.750080" lon="-122.447050"></trkpt>
<trkpt lat="37.750080" lon="-122.447060"></trkpt>
<trkpt lat="37.750090" lon="-122.447060"></trkpt>
<trkpt lat="37.750090" lon="-122.447070"></trkpt>
<trkpt lat="37.750100" lon="-122.447070"></trkpt>
<trkpt lat="37.750110" lon="-122.447070"></trkpt>
<trkpt lat="37.750120" lon="-122.447080"></trkpt>
<trkpt lat="37.750140" lon="-122.447100"></trkpt>
<trkpt lat="37.750160" lon="-122.447140"></trkpt>
<trkpt lat="37.750180" lon="-122.447160"></trkpt>
<trkpt lat="37.750240" lon="-122.447250"></trkpt>
<trkpt lat="37.750250" lon="-122.447270"></trkpt>
<trkpt lat="37.750260" lon="-122.447270"></trkpt>
<trkpt lat="37.750260" lon="-122.447280"></trkpt>
<trkpt lat="37.750280" lon="-122.447290"></trkpt>
<trkpt lat="37.750300" lon="-122.447300"></trkpt>
<trkpt lat="37.750310" lon="-122.447310"></trkpt>
<trkpt lat="37.750330" lon="-122.447320"></trkpt>
<trkpt lat="37.750360" lon="-122.447330"></trkpt>
<trkpt lat="37.750410" lon="-122.447340"></trkpt>
<trkpt lat="37.750430" lon="-122.447350"></trkpt>
<trkpt lat="37.750440" lon="-122.447350"></trkpt>
<trkpt lat="37.750450" lon="-122.447350"></trkpt>
<trkpt lat="37.750460" lon="-122.447360"></trkpt>
<trkpt lat="37.750470" lon="-122.447370"></trkpt>
<trkpt lat="37.750480" lon="-122.447380"></trkpt>
<trkpt lat="37.750580" lon="-122.447460"></trkpt>
<trkpt lat="37.750580" lon="-122.447470"></trkpt>
<trkpt lat="37.750710" lon="-122.447580"></trkpt>
<trkpt lat="37.750720" lon="-122.447600"></trkpt>
<trkpt lat="37.750730" lon="-122.447600"></trkpt>
<trkpt lat="37.750740" lon="-122.447610"></trkpt>
<trkpt lat="37.750740" lon="-122.447620"></trkpt>
<trkpt lat="37.750750" lon="-122.447630"></trkpt>
<trkpt lat="37.750760" lon="-122.447640"></trkpt>
<trkpt lat="37.750770" lon="-122.447660"></trkpt>
<trkpt lat="37.750790" lon="-122.447680"></trkpt>
<trkpt lat="37.750820" lon="-122.447700"></trkpt>
<trkpt lat="37.750870" lon="-122.447740"></trkpt>
<trkpt lat="37.750930" lon="-122.447660"></trkpt>
<trkpt lat="37.750990" lon="-122.447600"></trkpt>
<trkpt lat="37.751000" lon="-122.447590"></trkpt>
<trkpt lat="37.751140" lon="-122.447470"></trkpt>
<trkpt lat="37.751140" lon="-122.447460"></trkpt>
<trkpt lat="37.751290" lon="-122.447330"></trkpt>
<trkpt lat="37.751490" lon="-122.447150"></trkpt>
<trkpt lat="37.751520" lon="-122.447130"></trkpt>
<trkpt lat="37.751560" lon="-122.447110"></trkpt>
<trkpt lat="37.751590" lon="-122.447090"></trkpt>
<trkpt lat="37.751620" lon="-122.447080"></trkpt>
<trkpt lat="37.751680" lon="-122.447060"></trkpt>
<trkpt lat="37.751740" lon="-122.447060"></trkpt>
<trkpt lat="37.751800" lon="-122.447060"></trkpt>
<trkpt lat="37.751860" lon="-122.447080"></trkpt>
<trkpt lat="37.751920" lon="-122.447110"></trkpt>
<trkpt lat="37.751990" lon="-122.447160"></trkpt>
<trkpt lat="37.752040" lon="-122.447210"></trkpt>
<trkpt lat="37.752100" lon="-122.447260"></trkpt>
<trkpt lat="37.752110" lon="-122.447270"></trkpt>
<trkpt lat="37.752250" lon="-122.447410"></trkpt>
<trkpt lat="37.752290" lon="-122.447430"></trkpt>
<trkpt lat="37.752350" lon="-122.447450"></trkpt>
<trkpt lat="37.752460" lon="-122.447460"></trkpt>
<trkpt lat="37.752500" lon="-122.447460"></trkpt>
<trkpt lat="37.752550" lon="-122.447460"></trkpt>
<trkpt lat="37.752600" lon="-122.447450"></trkpt>
<trkpt lat="37.752640" lon="-122.447440"></trkpt>
<trkpt lat="37.752690" lon="-122.447410"></trkpt>
<trkpt lat="37.752750" lon="-122.447370"></trkpt>
<trkpt lat="37.752800" lon="-122.447320"></trkpt>
<trkpt lat="37.752900" lon="-122.447210"></trkpt>
<trkpt lat="37.753110" lon="-122.446980"></trkpt>
<trkpt lat="37.753210" lon="-122.446860"></trkpt>
<trkpt lat="37.753240" lon="-122.446830"></trkpt>
<trkpt lat="37.753270" lon="-122.446800"></trkpt>
<trkpt lat="37.753330" lon="-122.446760"></trkpt>
<trkpt lat="37.753400" lon="-122.446750"></trkpt>
<trkpt lat="37.753460" lon="-122.446750"></trkpt>
<trkpt lat="37.753530" lon="-122.446760"></trkpt>
<trkpt lat="37.753600" lon="-122.446790"></trkpt>
<trkpt lat="37.753730" lon="-122.446860"></trkpt>
<trkpt lat="37.753990" lon="-122.447140"></trkpt>
<trkpt lat="37.754050" lon="-122.447220"></trkpt>
<trkpt lat="37.754140" lon="-122.447260"></trkpt>
<trkpt lat="37.754040" lon="-122.447420"></trkpt>
<trkpt lat="37.754110" lon="-122.447470"></trkpt>
<trkpt lat="37.754170" lon="-122.447530"></trkpt>
<trkpt lat="37.754380" lon="-122.447540"></trkpt>
<trkpt lat="37.754440" lon="-122.447580"></trkpt>
</trkseg></trk>
</gpx>
