<?xml version="1.0" encoding="UTF-8"?>
<gpx version="1.1" creator="strava-api">
<trk><name>Golden Gate Park 10k</name><trkseg>
<trkpt lat="37.770040" lon="-122.493900"></trkpt>
<trkpt lat="37.770150" lon="-122.493660"></trkpt>
<trkpt lat="37.770300" lon="-122.493280"></trkpt>
<trkpt lat="37.770520" lon="-122.492540"></trkpt>
<trkpt lat="37.770790" lon="-122.491380"></trkpt>
<trkpt lat="37.770860" lon="-122.490550"></trkpt>
<trkpt lat="37.770720" lon="-122.489640"></trkpt>
<trkpt lat="37.770620" lon="-122.488770"></trkpt>
<trkpt lat="37.770640" lon="-122.488300"></trkpt>
<trkpt lat="37.770730" lon="-122.487400"></trkpt>
<trkpt lat="37.770740" lon="-122.487120"></trkpt>
<trkpt lat="37.770730" lon="-122.486910"></trkpt>
<trkpt lat="37.770670" lon="-122.486650"></trkpt>
<trkpt lat="37.770640" lon="-122.486580"></trkpt>
<trkpt lat="37.770390" lon="-122.486080"></trkpt>
<trkpt lat="37.770260" lon="-122.485870"></trkpt>
<trkpt lat="37.770040" lon="-122.485430"></trkpt>
<trkpt lat="37.769920" lon="-122.485090"></trkpt>
<trkpt lat="37.769880" lon="-122.484850"></trkpt>
<trkpt lat="37.769880" lon="-122.484690"></trkpt>
<trkpt lat="37.769900" lon="-122.484520"></trkpt>
<trkpt lat="37.770070" lon="-122.483840"></trkpt>
<trkpt lat="37.770090" lon="-122.483570"></trkpt>
<trkpt lat="37.770090" lon="-122.483410"></trkpt>
<trkpt lat="37.770050" lon="-122.483130"></trkpt>
<trkpt lat="37.769930" lon="-122.482400"></trkpt>
<trkpt lat="37.769910" lon="-122.482120"></trkpt>
<trkpt lat="37.769900" lon="-122.481630"></trkpt>
<trkpt lat="37.769970" lon="-122.481210"></trkpt>
<trkpt lat="37.770080" lon="-122.480790"></trkpt>
<trkpt lat="37.770340" lon="-122.479980"></trkpt>
<trkpt lat="37.769360" lon="-122.479320"></trkpt>
<trkpt lat="37.769240" lon="-122.479280"></trkpt>
<trkpt lat="37.768960" lon="-122.479250"></trkpt>
<trkpt lat="37.768770" lon="-122.479320"></trkpt>
<trkpt lat="37.768140" lon="-122.479640"></trkpt>
<trkpt lat="37.767920" lon="-122.479780"></trkpt>
<trkpt lat="37.767760" lon="-122.479920"></trkpt>
<trkpt lat="37.766930" lon="-122.479370"></trkpt>
<trkpt lat="37.766410" lon="-122.478970"></trkpt>
<trkpt lat="37.766050" lon="-122.478570"></trkpt>
<trkpt lat="37.766080" lon="-122.478600"></trkpt>
<trkpt lat="37.766030" lon="-122.478630"></trkpt>
<trkpt lat="37.766030" lon="-122.478770"></trkpt>
<trkpt lat="37.766050" lon="-122.478840"></trkpt>
<trkpt lat="37.766550" lon="-122.480030"></trkpt>
<trkpt lat="37.766770" lon="-122.480750"></trkpt>
<trkpt lat="37.766820" lon="-122.481000"></trkpt>
<trkpt lat="37.766860" lon="-122.481540"></trkpt>
<trkpt lat="37.766870" lon="-122.482210"></trkpt>
<trkpt lat="37.766800" lon="-122.482770"></trkpt>
<trkpt lat="37.766660" lon="-122.483400"></trkpt>
<trkpt lat="37.766630" lon="-122.483670"></trkpt>
<trkpt lat="37.766660" lon="-122.483970"></trkpt>
<trkpt lat="37.766750" lon="-122.484510"></trkpt>
<trkpt lat="37.766920" lon="-122.484870"></trkpt>
<trkpt lat="37.766990" lon="-122.485120"></trkpt>
<trkpt lat="37.767030" lon="-122.485420"></trkpt>
<trkpt lat="37.767020" lon="-122.485620"></trkpt>
<trkpt lat="37.767000" lon="-122.485840"></trkpt>
<trkpt lat="37.766850" lon="-122.486330"></trkpt>
<trkpt lat="37.766450" lon="-122.487120"></trkpt>
<trkpt lat="37.766060" lon="-122.487780"></trkpt>
<trkpt lat="37.765930" lon="-122.488020"></trkpt>
<trkpt lat="37.765850" lon="-122.488220"></trkpt>
<trkpt lat="37.765720" lon="-122.488680"></trkpt>
<trkpt lat="37.765650" lon="-122.489070"></trkpt>
<trkpt lat="37.765620" lon="-122.489410"></trkpt>
<trkpt lat="37.765490" lon="-122.490190"></trkpt>
<trkpt lat="37.765470" lon="-122.490690"></trkpt>
<trkpt lat="37.765510" lon="-122.491090"></trkpt>
<trkpt lat="37.765480" lon="-122.491170"></trkpt>
<trkpt lat="37.765450" lon="-122.491400"></trkpt>
<trkpt lat="37.765470" lon="-122.492290"></trkpt>
<trkpt lat="37.765600" lon="-122.494010"></trkpt>
<trkpt lat="37.765620" lon="-122.494800"></trkpt>
<trkpt lat="37.765590" lon="-122.495490"></trkpt>
<trkpt lat="37.765530" lon="-122.496240"></trkpt>
<trkpt lat="37.765340" lon="-122.497640"></trkpt>
<trkpt lat="37.765090" lon="-122.498720"></trkpt>
<trkpt lat="37.764950" lon="-122.499170"></trkpt>
<trkpt lat="37.764850" lon="-122.499580"></trkpt>
<trkpt lat="37.764820" lon="-122.499850"></trkpt>
<trkpt lat="37.764880" lon="-122.500580"></trkpt>
<trkpt lat="37.765640" lon="-122.504320"></trkpt>
<trkpt lat="37.765590" lon="-122.504600"></trkpt>
<trkpt lat="37.765580" lon="-122.505560"></trkpt>
<trkpt lat="37.765540" lon="-122.506000"></trkpt>
<trkpt lat="37.765490" lon="-122.506360"></trkpt>
<trkpt lat="37.765390" lon="-122.506860"></trkpt>
<trkpt lat="37.765250" lon="-122.507380"></trkpt>
<trkpt lat="37.765020" lon="-122.508060"></trkpt>
<trkpt lat="37.764990" lon="-122.508120"></trkpt>
<trkpt lat="37.764960" lon="-122.508150"></trkpt>
<trkpt lat="37.764930" lon="-122.508200"></trkpt>
<trkpt lat="37.764540" lon="-122.509330"></trkpt>
<trkpt lat="37.764470" lon="-122.509460"></trkpt>
<trkpt lat="37.764400" lon="-122.509510"></trkpt>
<trkpt lat="37.764250" lon="-122.509580"></trkpt>
<trkpt lat="37.764220" lon="-122.509610"></trkpt>
<trkpt lat="37.764200" lon="-122.509660"></trkpt>
<trkpt lat="37.764180" lon="-122.509830"></trkpt>
<trkpt lat="37.764170" lon="-122.510200"></trkpt>
<trkpt lat="37.764290" lon="-122.510210"></trkpt>
<trkpt lat="37.764380" lon="-122.510190"></trkpt>
<trkpt lat="37.764660" lon="-122.510110"></trkpt>
<trkpt lat="37.764880" lon="-122.510080"></trkpt>
<trkpt lat="37.765560" lon="-122.510090"></trkpt>
<trkpt lat="37.766490" lon="-122.510130"></trkpt>
<trkpt lat="37.767680" lon="-122.510270"></trkpt>
<trkpt lat="37.768400" lon="-122.510390"></trkpt>
<trkpt lat="37.768920" lon="-122.510540"></trkpt>
<trkpt lat="37.769960" lon="-122.510680"></trkpt>
<trkpt lat="37.770310" lon="-122.510750"></trkpt>
<trkpt lat="37.770220" lon="-122.510230"></trkpt>
<trkpt lat="37.769850" lon="-122.509370"></trkpt>
<trkpt lat="37.769560" lon="-122.508880"></trkpt>
<trkpt lat="37.769420" lon="-122.508720"></trkpt>
<trkpt lat="37.769100" lon="-122.508350"></trkpt>
<trkpt lat="37.768600" lon="-122.507910"></trkpt>
<trkpt lat="37.768220" lon="-122.507610"></trkpt>
<trkpt lat="37.767680" lon="-122.507220"></trkpt>
<trkpt lat="37.767120" lon="-122.506910"></trkpt>
<trkpt lat="37.766850" lon="-122.506680"></trkpt>
<trkpt lat="37.766560" lon="-122.506340"></trkpt>
<trkpt lat="37.766580" lon="-122.506150"></trkpt>
<trkpt lat="37.767410" lon="-122.502510"></trkpt>
<trkpt lat="37.767660" lon="-122.501560"></trkpt>
<trkpt lat="37.768700" lon="-122.498220"></trkpt>
<trkpt lat="37.768950" lon="-122.497290"></trkpt>
<trkpt lat="37.769100" lon="-122.496540"></trkpt>
<trkpt lat="37.769230" lon="-122.495610"></trkpt>
<trkpt lat="37.769290" lon="-122.495310"></trkpt>
<trkpt lat="37.769350" lon="-122.495120"></trkpt>
<trkpt lat="37.769480" lon="-122.494840"></trkpt>
<trkpt lat="37.769990" lon="-122.494000"></trkpt>
<trkpt lat="37.770150" lon="-122.493660"></trkpt>
<trkpt lat="37.770310" lon="-122.493250"></trkpt>
<trkpt lat="37.770520" lon="-122.492540"></trkpt>
<trkpt lat="37.770710" lon="-122.491760"></trkpt>
<trkpt lat="37.770790" lon="-122.491370"></trkpt>
<trkpt lat="37.770840" lon="-122.490890"></trkpt>
<trkpt lat="37.770860" lon="-122.490530"></trkpt>
<trkpt lat="37.770720" lon="-122.489670"></trkpt>
<trkpt lat="37.770620" lon="-122.488770"></trkpt>
<trkpt lat="37.770630" lon="-122.488330"></trkpt>
<trkpt lat="37.770730" lon="-122.487410"></trkpt>
<trkpt lat="37.770740" lon="-122.487110"></trkpt>
<trkpt lat="37.770730" lon="-122.486910"></trkpt>
<trkpt lat="37.770660" lon="-122.486620"></trkpt>
<trkpt lat="37.770030" lon="-122.485400"></trkpt>
<trkpt lat="37.769920" lon="-122.485100"></trkpt>
<trkpt lat="37.769880" lon="-122.484840"></trkpt>
<trkpt lat="37.769890" lon="-122.484540"></trkpt>
<trkpt lat="37.770070" lon="-122.483830"></trkpt>
<trkpt lat="37.770090" lon="-122.483610"></trkpt>
<trkpt lat="37.770090" lon="-122.483390"></trkpt>
<trkpt lat="37.770050" lon="-122.483110"></trkpt>
<trkpt lat="37.769930" lon="-122.482400"></trkpt>
<trkpt lat="37.769900" lon="-122.481640"></trkpt>
<trkpt lat="37.769980" lon="-122.481180"></trkpt>
<trkpt lat="37.770070" lon="-122.480820"></trkpt>
<trkpt lat="37.770340" lon="-122.479980"></trkpt>
<trkpt lat="37.769370" lon="-122.479320"></trkpt>
<trkpt lat="37.769240" lon="-122.479280"></trkpt>
<trkpt lat="37.768960" lon="-122.479250"></trkpt>
<trkpt lat="37.768820" lon="-122.479300"></trkpt>
<trkpt lat="37.768180" lon="-122.479620"></trkpt>
<trkpt lat="37.767920" lon="-122.479780"></trkpt>
<trkpt lat="37.768160" lon="-122.480150"></trkpt>
<trkpt lat="37.768270" lon="-122.480380"></trkpt>
<trkpt lat="37.768320" lon="-122.480660"></trkpt>
<trkpt lat="37.768360" lon="-122.481010"></trkpt>
<trkpt lat="37.768380" lon="-122.481790"></trkpt>
<trkpt lat="37.768370" lon="-122.485010"></trkpt>
<trkpt lat="37.768360" lon="-122.485340"></trkpt>
<trkpt lat="37.768250" lon="-122.486310"></trkpt>
<trkpt lat="37.768070" lon="-122.487540"></trkpt>
<trkpt lat="37.767890" lon="-122.488350"></trkpt>
<trkpt lat="37.767630" lon="-122.489040"></trkpt>
<trkpt lat="37.766680" lon="-122.491130"></trkpt>
<trkpt lat="37.766220" lon="-122.492430"></trkpt>
</trkseg></trk>
</gpx>
