<?xml version='1.0' encoding='utf-8'?>
<gpx version="1.1" creator="RunCast" xmlns="http://www.topografix.com/GPX/1/1"><trk><name>sf_gg_park_big_lap</name><trkseg><trkpt lat="37.771100" lon="-122.453100" /><trkpt lat="37.771104" lon="-122.453267" /><trkpt lat="37.771109" lon="-122.453435" /><trkpt lat="37.771113" lon="-122.453602" /><trkpt lat="37.771117" lon="-122.453770" /><trkpt lat="37.771122" lon="-122.453937" /><trkpt lat="37.771126" lon="-122.454104" /><trkpt lat="37.771130" lon="-122.454272" /><trkpt lat="37.771135" lon="-122.454439" /><trkpt lat="37.771139" lon="-122.454607" /><trkpt lat="37.771143" lon="-122.454774" /><trkpt lat="37.771148" lon="-122.454941" /><trkpt lat="37.771152" lon="-122.455109" /><trkpt lat="37.771157" lon="-122.455276" /><trkpt lat="37.771161" lon="-122.455443" /><trkpt lat="37.771165" lon="-122.455611" /><trkpt lat="37.771170" lon="-122.455778" /><trkpt lat="37.771174" lon="-122.455946" /><trkpt lat="37.771178" lon="-122.456113" /><trkpt lat="37.771183" lon="-122.456280" /><trkpt lat="37.771187" lon="-122.456448" /><trkpt lat="37.771191" lon="-122.456615" /><trkpt lat="37.771196" lon="-122.456783" /><trkpt lat="37.771200" lon="-122.456950" /><trkpt lat="37.771204" lon="-122.457117" /><trkpt lat="37.771209" lon="-122.457285" /><trkpt lat="37.771213" lon="-122.457452" /><trkpt lat="37.771217" lon="-122.457620" /><trkpt lat="37.771222" lon="-122.457787" /><trkpt lat="37.771226" lon="-122.457954" /><trkpt lat="37.771230" lon="-122.458122" /><trkpt lat="37.771235" lon="-122.458289" /><trkpt lat="37.771239" lon="-122.458457" /><trkpt lat="37.771243" lon="-122.458624" /><trkpt lat="37.771248" lon="-122.458791" /><trkpt lat="37.771252" lon="-122.458959" /><trkpt lat="37.771257" lon="-122.459126" /><trkpt lat="37.771261" lon="-122.459293" /><trkpt lat="37.771265" lon="-122.459461" /><trkpt lat="37.771270" lon="-122.459628" /><trkpt lat="37.771274" lon="-122.459796" /><trkpt lat="37.771278" lon="-122.459963" /><trkpt lat="37.771283" lon="-122.460130" /><trkpt lat="37.771287" lon="-122.460298" /><trkpt lat="37.771291" lon="-122.460465" /><trkpt lat="37.771296" lon="-122.460633" /><trkpt lat="37.771300" lon="-122.460800" /><trkpt lat="37.771128" lon="-122.460770" /><trkpt lat="37.770957" lon="-122.460741" /><trkpt lat="37.770785" lon="-122.460711" /><trkpt lat="37.770613" lon="-122.460682" /><trkpt lat="37.770442" lon="-122.460652" /><trkpt lat="37.770270" lon="-122.460623" /><trkpt lat="37.770098" lon="-122.460593" /><trkpt lat="37.769927" lon="-122.460564" /><trkpt lat="37.769755" lon="-122.460534" /><trkpt lat="37.769583" lon="-122.460505" /><trkpt lat="37.769411" lon="-122.460475" /><trkpt lat="37.769240" lon="-122.460445" /><trkpt lat="37.769068" lon="-122.460416" /><trkpt lat="37.768896" lon="-122.460386" /><trkpt lat="37.768725" lon="-122.460357" /><trkpt lat="37.768553" lon="-122.460327" /><trkpt lat="37.768381" lon="-122.460298" /><trkpt lat="37.768210" lon="-122.460268" /><trkpt lat="37.768038" lon="-122.460239" /><trkpt lat="37.767866" lon="-122.460209" /><trkpt lat="37.767695" lon="-122.460180" /><trkpt lat="37.767523" lon="-122.460150" /><trkpt lat="37.767505" lon="-122.460297" /><trkpt lat="37.767488" lon="-122.460445" /><trkpt lat="37.767470" lon="-122.460570" /><trkpt lat="37.767452" lon="-122.460694" /><trkpt lat="37.767382" lon="-122.460810" /><trkpt lat="37.767312" lon="-122.460925" /><trkpt lat="37.767230" lon="-122.461080" /><trkpt lat="37.767148" lon="-122.461235" /><trkpt lat="37.767066" lon="-122.461390" /><trkpt lat="37.767007" lon="-122.461508" /><trkpt lat="37.766949" lon="-122.461627" /><trkpt lat="37.766914" lon="-122.461736" /><trkpt lat="37.766879" lon="-122.461845" /><trkpt lat="37.766877" lon="-122.461969" /><trkpt lat="37.766875" lon="-122.462094" /><trkpt lat="37.766887" lon="-122.462208" /><trkpt lat="37.766899" lon="-122.462322" /><trkpt lat="37.766910" lon="-122.462538" /><trkpt lat="37.766901" lon="-122.462684" /><trkpt lat="37.766891" lon="-122.462831" /><trkpt lat="37.766854" lon="-122.462986" /><trkpt lat="37.766817" lon="-122.463141" /><trkpt lat="37.766773" lon="-122.463289" /><trkpt lat="37.766729" lon="-122.463437" /><trkpt lat="37.766676" lon="-122.463612" /><trkpt lat="37.766623" lon="-122.463788" /><trkpt lat="37.766571" lon="-122.463963" /><trkpt lat="37.766518" lon="-122.464139" /><trkpt lat="37.766465" lon="-122.464314" /><trkpt lat="37.766413" lon="-122.464512" /><trkpt lat="37.766361" lon="-122.464710" /><trkpt lat="37.766325" lon="-122.464850" /><trkpt lat="37.766289" lon="-122.464990" /><trkpt lat="37.766261" lon="-122.465111" /><trkpt lat="37.766234" lon="-122.465231" /><trkpt lat="37.766221" lon="-122.465359" /><trkpt lat="37.766208" lon="-122.465486" /><trkpt lat="37.766216" lon="-122.465615" /><trkpt lat="37.766225" lon="-122.465745" /><trkpt lat="37.766259" lon="-122.465922" /><trkpt lat="37.766292" lon="-122.466099" /><trkpt lat="37.766326" lon="-122.466276" /><trkpt lat="37.766360" lon="-122.466453" /><trkpt lat="37.766537" lon="-122.466464" /><trkpt lat="37.766714" lon="-122.466475" /><trkpt lat="37.766879" lon="-122.466492" /><trkpt lat="37.767024" lon="-122.466514" /><trkpt lat="37.767168" lon="-122.466536" /><trkpt lat="37.767266" lon="-122.466556" /><trkpt lat="37.767363" lon="-122.466577" /><trkpt lat="37.767453" lon="-122.466598" /><trkpt lat="37.767543" lon="-122.466619" /><trkpt lat="37.767640" lon="-122.466654" /><trkpt lat="37.767736" lon="-122.466689" /><trkpt lat="37.767815" lon="-122.466755" /><trkpt lat="37.767894" lon="-122.466820" /><trkpt lat="37.767988" lon="-122.466972" /><trkpt lat="37.768082" lon="-122.467124" /><trkpt lat="37.768165" lon="-122.467270" /><trkpt lat="37.768248" lon="-122.467416" /><trkpt lat="37.768330" lon="-122.467563" /><trkpt lat="37.768413" lon="-122.467709" /><trkpt lat="37.768502" lon="-122.467866" /><trkpt lat="37.768591" lon="-122.468022" /><trkpt lat="37.768679" lon="-122.468178" /><trkpt lat="37.768768" lon="-122.468335" /><trkpt lat="37.768825" lon="-122.468446" /><trkpt lat="37.768881" lon="-122.468557" /><trkpt lat="37.768929" lon="-122.468676" /><trkpt lat="37.768976" lon="-122.468794" /><trkpt lat="37.769011" lon="-122.468903" /><trkpt lat="37.769046" lon="-122.469012" /><trkpt lat="37.769086" lon="-122.469164" /><trkpt lat="37.769126" lon="-122.469315" /><trkpt lat="37.769151" lon="-122.469440" /><trkpt lat="37.769177" lon="-122.469566" /><trkpt lat="37.769195" lon="-122.469693" /><trkpt lat="37.769214" lon="-122.469820" /><trkpt lat="37.769222" lon="-122.469938" /><trkpt lat="37.769229" lon="-122.470057" /><trkpt lat="37.769231" lon="-122.470191" /><trkpt lat="37.769233" lon="-122.470326" /><trkpt lat="37.769230" lon="-122.470458" /><trkpt lat="37.769227" lon="-122.470590" /><trkpt lat="37.769218" lon="-122.470732" /><trkpt lat="37.769209" lon="-122.470875" /><trkpt lat="37.769193" lon="-122.471024" /><trkpt lat="37.769177" lon="-122.471174" /><trkpt lat="37.769155" lon="-122.471287" /><trkpt lat="37.769133" lon="-122.471400" /><trkpt lat="37.769085" lon="-122.471538" /><trkpt lat="37.769037" lon="-122.471676" /><trkpt lat="37.768949" lon="-122.471855" /><trkpt lat="37.768891" lon="-122.471944" /><trkpt lat="37.768833" lon="-122.472033" /><trkpt lat="37.768963" lon="-122.472189" /><trkpt lat="37.769093" lon="-122.472345" /><trkpt lat="37.769223" lon="-122.472501" /><trkpt lat="37.769352" lon="-122.472658" /><trkpt lat="37.769482" lon="-122.472814" /><trkpt lat="37.769612" lon="-122.472970" /><trkpt lat="37.769742" lon="-122.473126" /><trkpt lat="37.769872" lon="-122.473282" /><trkpt lat="37.770002" lon="-122.473438" /><trkpt lat="37.770131" lon="-122.473595" /><trkpt lat="37.770261" lon="-122.473751" /><trkpt lat="37.770391" lon="-122.473907" /><trkpt lat="37.770521" lon="-122.474063" /><trkpt lat="37.770651" lon="-122.474219" /><trkpt lat="37.770781" lon="-122.474375" /><trkpt lat="37.770910" lon="-122.474532" /><trkpt lat="37.771040" lon="-122.474688" /><trkpt lat="37.771170" lon="-122.474844" /><trkpt lat="37.771300" lon="-122.475000" /><trkpt lat="37.771300" lon="-122.475170" /><trkpt lat="37.771300" lon="-122.475339" /><trkpt lat="37.771300" lon="-122.475509" /><trkpt lat="37.771300" lon="-122.475679" /><trkpt lat="37.771300" lon="-122.475848" /><trkpt lat="37.771300" lon="-122.476018" /><trkpt lat="37.771300" lon="-122.476187" /><trkpt lat="37.771300" lon="-122.476357" /><trkpt lat="37.771300" lon="-122.476527" /><trkpt lat="37.771300" lon="-122.476696" /><trkpt lat="37.771300" lon="-122.476866" /><trkpt lat="37.771300" lon="-122.477036" /><trkpt lat="37.771300" lon="-122.477205" /><trkpt lat="37.771300" lon="-122.477375" /><trkpt lat="37.771300" lon="-122.477545" /><trkpt lat="37.771300" lon="-122.477714" /><trkpt lat="37.771300" lon="-122.477884" /><trkpt lat="37.771300" lon="-122.478054" /><trkpt lat="37.771300" lon="-122.478223" /><trkpt lat="37.771300" lon="-122.478393" /><trkpt lat="37.771300" lon="-122.478562" /><trkpt lat="37.771300" lon="-122.478732" /><trkpt lat="37.771300" lon="-122.478902" /><trkpt lat="37.771300" lon="-122.479071" /><trkpt lat="37.771300" lon="-122.479241" /><trkpt lat="37.771300" lon="-122.479411" /><trkpt lat="37.771300" lon="-122.479580" /><trkpt lat="37.771300" lon="-122.479750" /><trkpt lat="37.771300" lon="-122.479920" /><trkpt lat="37.771300" lon="-122.480089" /><trkpt lat="37.771300" lon="-122.480259" /><trkpt lat="37.771300" lon="-122.480429" /><trkpt lat="37.771300" lon="-122.480598" /><trkpt lat="37.771300" lon="-122.480768" /><trkpt lat="37.771300" lon="-122.480937" /><trkpt lat="37.771300" lon="-122.481107" /><trkpt lat="37.771300" lon="-122.481277" /><trkpt lat="37.771300" lon="-122.481446" /><trkpt lat="37.771300" lon="-122.481616" /><trkpt lat="37.771300" lon="-122.481786" /><trkpt lat="37.771300" lon="-122.481955" /><trkpt lat="37.771300" lon="-122.482125" /><trkpt lat="37.771300" lon="-122.482295" /><trkpt lat="37.771300" lon="-122.482464" /><trkpt lat="37.771300" lon="-122.482634" /><trkpt lat="37.771300" lon="-122.482804" /><trkpt lat="37.771300" lon="-122.482973" /><trkpt lat="37.771300" lon="-122.483143" /><trkpt lat="37.771300" lon="-122.483312" /><trkpt lat="37.771300" lon="-122.483482" /><trkpt lat="37.771300" lon="-122.483652" /><trkpt lat="37.771300" lon="-122.483821" /><trkpt lat="37.771300" lon="-122.483991" /><trkpt lat="37.771300" lon="-122.484161" /><trkpt lat="37.771300" lon="-122.484330" /><trkpt lat="37.771300" lon="-122.484500" /><trkpt lat="37.771300" lon="-122.484670" /><trkpt lat="37.771300" lon="-122.484839" /><trkpt lat="37.771300" lon="-122.485009" /><trkpt lat="37.771300" lon="-122.485179" /><trkpt lat="37.771300" lon="-122.485348" /><trkpt lat="37.771300" lon="-122.485518" /><trkpt lat="37.771300" lon="-122.485687" /><trkpt lat="37.771300" lon="-122.485857" /><trkpt lat="37.771300" lon="-122.486027" /><trkpt lat="37.771300" lon="-122.486196" /><trkpt lat="37.771300" lon="-122.486366" /><trkpt lat="37.771300" lon="-122.486536" /><trkpt lat="37.771300" lon="-122.486705" /><trkpt lat="37.771300" lon="-122.486875" /><trkpt lat="37.771300" lon="-122.487045" /><trkpt lat="37.771300" lon="-122.487214" /><trkpt lat="37.771300" lon="-122.487384" /><trkpt lat="37.771300" lon="-122.487554" /><trkpt lat="37.771300" lon="-122.487723" /><trkpt lat="37.771300" lon="-122.487893" /><trkpt lat="37.771300" lon="-122.488062" /><trkpt lat="37.771300" lon="-122.488232" /><trkpt lat="37.771300" lon="-122.488402" /><trkpt lat="37.771300" lon="-122.488571" /><trkpt lat="37.771300" lon="-122.488741" /><trkpt lat="37.771300" lon="-122.488911" /><trkpt lat="37.771300" lon="-122.489080" /><trkpt lat="37.771300" lon="-122.489250" /><trkpt lat="37.771300" lon="-122.489420" /><trkpt lat="37.771300" lon="-122.489589" /><trkpt lat="37.771300" lon="-122.489759" /><trkpt lat="37.771300" lon="-122.489929" /><trkpt lat="37.771300" lon="-122.490098" /><trkpt lat="37.771300" lon="-122.490268" /><trkpt lat="37.771300" lon="-122.490437" /><trkpt lat="37.771300" lon="-122.490607" /><trkpt lat="37.771300" lon="-122.490777" /><trkpt lat="37.771300" lon="-122.490946" /><trkpt lat="37.771300" lon="-122.491116" /><trkpt lat="37.771300" lon="-122.491286" /><trkpt lat="37.771300" lon="-122.491455" /><trkpt lat="37.771300" lon="-122.491625" /><trkpt lat="37.771300" lon="-122.491795" /><trkpt lat="37.771300" lon="-122.491964" /><trkpt lat="37.771300" lon="-122.492134" /><trkpt lat="37.771300" lon="-122.492304" /><trkpt lat="37.771300" lon="-122.492473" /><trkpt lat="37.771300" lon="-122.492643" /><trkpt lat="37.771300" lon="-122.492812" /><trkpt lat="37.771300" lon="-122.492982" /><trkpt lat="37.771300" lon="-122.493152" /><trkpt lat="37.771300" lon="-122.493321" /><trkpt lat="37.771300" lon="-122.493491" /><trkpt lat="37.771300" lon="-122.493661" /><trkpt lat="37.771300" lon="-122.493830" /><trkpt lat="37.771300" lon="-122.494000" /><trkpt lat="37.771131" lon="-122.493951" /><trkpt lat="37.770962" lon="-122.493902" /><trkpt lat="37.770793" lon="-122.493853" /><trkpt lat="37.770625" lon="-122.493803" /><trkpt lat="37.770456" lon="-122.493754" /><trkpt lat="37.770287" lon="-122.493705" /><trkpt lat="37.770229" lon="-122.493825" /><trkpt lat="37.770171" lon="-122.493945" /><trkpt lat="37.770228" lon="-122.494158" /><trkpt lat="37.770222" lon="-122.494292" /><trkpt lat="37.770216" lon="-122.494426" /><trkpt lat="37.770210" lon="-122.494653" /><trkpt lat="37.770190" lon="-122.494780" /><trkpt lat="37.770169" lon="-122.494908" /><trkpt lat="37.770082" lon="-122.495093" /><trkpt lat="37.769982" lon="-122.495225" /><trkpt lat="37.769882" lon="-122.495356" /><trkpt lat="37.769800" lon="-122.495436" /><trkpt lat="37.769717" lon="-122.495516" /><trkpt lat="37.769627" lon="-122.495619" /><trkpt lat="37.769537" lon="-122.495721" /><trkpt lat="37.769479" lon="-122.495833" /><trkpt lat="37.769421" lon="-122.495945" /><trkpt lat="37.769343" lon="-122.496102" /><trkpt lat="37.769265" lon="-122.496259" /><trkpt lat="37.769248" lon="-122.496483" /><trkpt lat="37.769217" lon="-122.496638" /><trkpt lat="37.769187" lon="-122.496794" /><trkpt lat="37.769160" lon="-122.496927" /><trkpt lat="37.769133" lon="-122.497059" /><trkpt lat="37.769100" lon="-122.497220" /><trkpt lat="37.769067" lon="-122.497381" /><trkpt lat="37.769024" lon="-122.497570" /><trkpt lat="37.768980" lon="-122.497760" /><trkpt lat="37.768936" lon="-122.497928" /><trkpt lat="37.768892" lon="-122.498096" /><trkpt lat="37.768840" lon="-122.498283" /><trkpt lat="37.768788" lon="-122.498471" /><trkpt lat="37.768755" lon="-122.498583" /><trkpt lat="37.768721" lon="-122.498695" /><trkpt lat="37.768672" lon="-122.498852" /><trkpt lat="37.768623" lon="-122.499010" /><trkpt lat="37.768569" lon="-122.499179" /><trkpt lat="37.768516" lon="-122.499349" /><trkpt lat="37.768470" lon="-122.499497" /><trkpt lat="37.768424" lon="-122.499646" /><trkpt lat="37.768378" lon="-122.499794" /><trkpt lat="37.768325" lon="-122.499966" /><trkpt lat="37.768271" lon="-122.500137" /><trkpt lat="37.768218" lon="-122.500309" /><trkpt lat="37.768165" lon="-122.500481" /><trkpt lat="37.768106" lon="-122.500661" /><trkpt lat="37.768046" lon="-122.500841" /><trkpt lat="37.767987" lon="-122.501021" /><trkpt lat="37.767927" lon="-122.501201" /><trkpt lat="37.767868" lon="-122.501381" /><trkpt lat="37.767829" lon="-122.501508" /><trkpt lat="37.767790" lon="-122.501636" /><trkpt lat="37.767785" lon="-122.501779" /><trkpt lat="37.767780" lon="-122.501922" /><trkpt lat="37.767696" lon="-122.502067" /><trkpt lat="37.767613" lon="-122.502212" /><trkpt lat="37.767570" lon="-122.502367" /><trkpt lat="37.767528" lon="-122.502522" /><trkpt lat="37.767489" lon="-122.502677" /><trkpt lat="37.767450" lon="-122.502832" /><trkpt lat="37.767401" lon="-122.503050" /><trkpt lat="37.767353" lon="-122.503268" /><trkpt lat="37.767305" lon="-122.503486" /><trkpt lat="37.767256" lon="-122.503704" /><trkpt lat="37.767207" lon="-122.503921" /><trkpt lat="37.767159" lon="-122.504139" /><trkpt lat="37.767111" lon="-122.504357" /><trkpt lat="37.767062" lon="-122.504575" /><trkpt lat="37.767025" lon="-122.504750" /><trkpt lat="37.766989" lon="-122.504924" /><trkpt lat="37.766952" lon="-122.505099" /><trkpt lat="37.766910" lon="-122.505299" /><trkpt lat="37.766866" lon="-122.505497" /><trkpt lat="37.766830" lon="-122.505657" /><trkpt lat="37.766795" lon="-122.505816" /><trkpt lat="37.766759" lon="-122.505976" /><trkpt lat="37.766734" lon="-122.506090" /><trkpt lat="37.766709" lon="-122.506203" /><trkpt lat="37.766762" lon="-122.506420" /><trkpt lat="37.766831" lon="-122.506506" /><trkpt lat="37.766900" lon="-122.506592" /><trkpt lat="37.767036" lon="-122.506726" /><trkpt lat="37.767178" lon="-122.506826" /><trkpt lat="37.767288" lon="-122.506888" /><trkpt lat="37.767399" lon="-122.506949" /><trkpt lat="37.767517" lon="-122.507013" /><trkpt lat="37.767635" lon="-122.507076" /><trkpt lat="37.767722" lon="-122.507127" /><trkpt lat="37.767810" lon="-122.507179" /><trkpt lat="37.767902" lon="-122.507239" /><trkpt lat="37.767995" lon="-122.507300" /><trkpt lat="37.768087" lon="-122.507364" /><trkpt lat="37.768179" lon="-122.507429" /><trkpt lat="37.768306" lon="-122.507525" /><trkpt lat="37.768432" lon="-122.507620" /><trkpt lat="37.768559" lon="-122.507716" /><trkpt lat="37.768640" lon="-122.507781" /><trkpt lat="37.768721" lon="-122.507846" /><trkpt lat="37.768811" lon="-122.507923" /><trkpt lat="37.768902" lon="-122.508000" /><trkpt lat="37.768997" lon="-122.508087" /><trkpt lat="37.769093" lon="-122.508175" /><trkpt lat="37.769163" lon="-122.508247" /><trkpt lat="37.769234" lon="-122.508320" /><trkpt lat="37.769325" lon="-122.508427" /><trkpt lat="37.769416" lon="-122.508535" /><trkpt lat="37.769513" lon="-122.508666" /><trkpt lat="37.769610" lon="-122.508796" /><trkpt lat="37.769693" lon="-122.508923" /><trkpt lat="37.769776" lon="-122.509050" /><trkpt lat="37.769849" lon="-122.509178" /><trkpt lat="37.769923" lon="-122.509306" /><trkpt lat="37.769977" lon="-122.509414" /><trkpt lat="37.770032" lon="-122.509523" /><trkpt lat="37.770079" lon="-122.509630" /><trkpt lat="37.770126" lon="-122.509736" /><trkpt lat="37.770126" lon="-122.509736" /><trkpt lat="37.770100" lon="-122.509675" /><trkpt lat="37.770032" lon="-122.509523" /><trkpt lat="37.769980" lon="-122.509414" /><trkpt lat="37.769923" lon="-122.509306" /><trkpt lat="37.769854" lon="-122.509181" /><trkpt lat="37.769776" lon="-122.509050" /><trkpt lat="37.769695" lon="-122.508921" /><trkpt lat="37.769610" lon="-122.508796" /><trkpt lat="37.769516" lon="-122.508665" /><trkpt lat="37.769416" lon="-122.508535" /><trkpt lat="37.769325" lon="-122.508427" /><trkpt lat="37.769234" lon="-122.508320" /><trkpt lat="37.769163" lon="-122.508247" /><trkpt lat="37.769093" lon="-122.508175" /><trkpt lat="37.768997" lon="-122.508087" /><trkpt lat="37.768902" lon="-122.508000" /><trkpt lat="37.768811" lon="-122.507923" /><trkpt lat="37.768721" lon="-122.507846" /><trkpt lat="37.768640" lon="-122.507781" /><trkpt lat="37.768559" lon="-122.507716" /><trkpt lat="37.768432" lon="-122.507620" /><trkpt lat="37.768306" lon="-122.507525" /><trkpt lat="37.768179" lon="-122.507429" /><trkpt lat="37.768087" lon="-122.507364" /><trkpt lat="37.767995" lon="-122.507300" /><trkpt lat="37.767902" lon="-122.507239" /><trkpt lat="37.767810" lon="-122.507179" /><trkpt lat="37.767722" lon="-122.507127" /><trkpt lat="37.767635" lon="-122.507076" /><trkpt lat="37.767517" lon="-122.507013" /><trkpt lat="37.767399" lon="-122.506949" /><trkpt lat="37.767288" lon="-122.506888" /><trkpt lat="37.767178" lon="-122.506826" /><trkpt lat="37.767036" lon="-122.506726" /><trkpt lat="37.766900" lon="-122.506592" /><trkpt lat="37.766831" lon="-122.506506" /><trkpt lat="37.766762" lon="-122.506420" /><trkpt lat="37.766709" lon="-122.506203" /><trkpt lat="37.766734" lon="-122.506090" /><trkpt lat="37.766759" lon="-122.505976" /><trkpt lat="37.766795" lon="-122.505816" /><trkpt lat="37.766830" lon="-122.505657" /><trkpt lat="37.766866" lon="-122.505497" /><trkpt lat="37.766910" lon="-122.505299" /><trkpt lat="37.766952" lon="-122.505099" /><trkpt lat="37.766989" lon="-122.504924" /><trkpt lat="37.767025" lon="-122.504750" /><trkpt lat="37.767062" lon="-122.504575" /><trkpt lat="37.767111" lon="-122.504357" /><trkpt lat="37.767159" lon="-122.504139" /><trkpt lat="37.767207" lon="-122.503921" /><trkpt lat="37.767256" lon="-122.503704" /><trkpt lat="37.767305" lon="-122.503486" /><trkpt lat="37.767353" lon="-122.503268" /><trkpt lat="37.767401" lon="-122.503050" /><trkpt lat="37.767450" lon="-122.502832" /><trkpt lat="37.767489" lon="-122.502677" /><trkpt lat="37.767528" lon="-122.502522" /><trkpt lat="37.767570" lon="-122.502367" /><trkpt lat="37.767613" lon="-122.502212" /><trkpt lat="37.767696" lon="-122.502067" /><trkpt lat="37.767780" lon="-122.501922" /><trkpt lat="37.767785" lon="-122.501779" /><trkpt lat="37.767790" lon="-122.501636" /><trkpt lat="37.767829" lon="-122.501508" /><trkpt lat="37.767868" lon="-122.501381" /><trkpt lat="37.767927" lon="-122.501201" /><trkpt lat="37.767987" lon="-122.501021" /><trkpt lat="37.768046" lon="-122.500841" /><trkpt lat="37.768106" lon="-122.500661" /><trkpt lat="37.768165" lon="-122.500481" /><trkpt lat="37.768013" lon="-122.500466" /><trkpt lat="37.767861" lon="-122.500451" /><trkpt lat="37.767767" lon="-122.500427" /><trkpt lat="37.767673" lon="-122.500403" /><trkpt lat="37.767555" lon="-122.500369" /><trkpt lat="37.767437" lon="-122.500335" /><trkpt lat="37.767275" lon="-122.500271" /><trkpt lat="37.767123" lon="-122.500199" /><trkpt lat="37.766958" lon="-122.500118" /><trkpt lat="37.766868" lon="-122.500084" /><trkpt lat="37.766777" lon="-122.500050" /><trkpt lat="37.766688" lon="-122.500027" /><trkpt lat="37.766598" lon="-122.500003" /><trkpt lat="37.766491" lon="-122.499997" /><trkpt lat="37.766383" lon="-122.499991" /><trkpt lat="37.766282" lon="-122.500024" /><trkpt lat="37.766181" lon="-122.500058" /><trkpt lat="37.766095" lon="-122.500136" /><trkpt lat="37.766008" lon="-122.500215" /><trkpt lat="37.765929" lon="-122.500313" /><trkpt lat="37.765849" lon="-122.500411" /><trkpt lat="37.765722" lon="-122.500560" /><trkpt lat="37.765586" lon="-122.500690" /><trkpt lat="37.765503" lon="-122.500752" /><trkpt lat="37.765420" lon="-122.500813" /><trkpt lat="37.765329" lon="-122.500846" /><trkpt lat="37.765239" lon="-122.500880" /><trkpt lat="37.765146" lon="-122.500889" /><trkpt lat="37.765052" lon="-122.500898" /><trkpt lat="37.764953" lon="-122.500886" /><trkpt lat="37.764855" lon="-122.500874" /><trkpt lat="37.764841" lon="-122.500736" /><trkpt lat="37.764827" lon="-122.500599" /><trkpt lat="37.764809" lon="-122.500450" /><trkpt lat="37.764792" lon="-122.500300" /><trkpt lat="37.764781" lon="-122.500124" /><trkpt lat="37.764770" lon="-122.499949" /><trkpt lat="37.764771" lon="-122.499828" /><trkpt lat="37.764772" lon="-122.499707" /><trkpt lat="37.764791" lon="-122.499591" /><trkpt lat="37.764809" lon="-122.499474" /><trkpt lat="37.764840" lon="-122.499353" /><trkpt lat="37.764871" lon="-122.499231" /><trkpt lat="37.764920" lon="-122.499081" /><trkpt lat="37.764969" lon="-122.498932" /><trkpt lat="37.765018" lon="-122.498782" /><trkpt lat="37.765056" lon="-122.498651" /><trkpt lat="37.765093" lon="-122.498520" /><trkpt lat="37.765139" lon="-122.498319" /><trkpt lat="37.765169" lon="-122.498119" /><trkpt lat="37.765200" lon="-122.497918" /><trkpt lat="37.765236" lon="-122.497714" /><trkpt lat="37.765271" lon="-122.497509" /><trkpt lat="37.765304" lon="-122.497317" /><trkpt lat="37.765338" lon="-122.497125" /><trkpt lat="37.765365" lon="-122.496930" /><trkpt lat="37.765391" lon="-122.496735" /><trkpt lat="37.765408" lon="-122.496566" /><trkpt lat="37.765426" lon="-122.496397" /><trkpt lat="37.765446" lon="-122.496204" /><trkpt lat="37.765466" lon="-122.496011" /><trkpt lat="37.765484" lon="-122.495838" /><trkpt lat="37.765501" lon="-122.495665" /><trkpt lat="37.765519" lon="-122.495492" /><trkpt lat="37.765530" lon="-122.495319" /><trkpt lat="37.765542" lon="-122.495146" /><trkpt lat="37.765549" lon="-122.494972" /><trkpt lat="37.765555" lon="-122.494798" /><trkpt lat="37.765552" lon="-122.494614" /><trkpt lat="37.765549" lon="-122.494430" /><trkpt lat="37.765539" lon="-122.494249" /><trkpt lat="37.765528" lon="-122.494068" /><trkpt lat="37.765516" lon="-122.493887" /><trkpt lat="37.765504" lon="-122.493707" /><trkpt lat="37.765489" lon="-122.493482" /><trkpt lat="37.765479" lon="-122.493349" /><trkpt lat="37.765468" lon="-122.493217" /><trkpt lat="37.765451" lon="-122.493012" /><trkpt lat="37.765435" lon="-122.492806" /><trkpt lat="37.765418" lon="-122.492601" /><trkpt lat="37.765406" lon="-122.492411" /><trkpt lat="37.765395" lon="-122.492220" /><trkpt lat="37.765388" lon="-122.492053" /><trkpt lat="37.765381" lon="-122.491886" /><trkpt lat="37.765378" lon="-122.491717" /><trkpt lat="37.765375" lon="-122.491548" /><trkpt lat="37.765377" lon="-122.491380" /><trkpt lat="37.765380" lon="-122.491213" /><trkpt lat="37.765384" lon="-122.491042" /><trkpt lat="37.765388" lon="-122.490872" /><trkpt lat="37.765394" lon="-122.490732" /><trkpt lat="37.765399" lon="-122.490592" /><trkpt lat="37.765413" lon="-122.490427" /><trkpt lat="37.765427" lon="-122.490261" /><trkpt lat="37.765449" lon="-122.490084" /><trkpt lat="37.765470" lon="-122.489908" /><trkpt lat="37.765493" lon="-122.489740" /><trkpt lat="37.765516" lon="-122.489573" /><trkpt lat="37.765540" lon="-122.489411" /><trkpt lat="37.765564" lon="-122.489250" /><trkpt lat="37.765599" lon="-122.489032" /><trkpt lat="37.765633" lon="-122.488833" /><trkpt lat="37.765668" lon="-122.488633" /><trkpt lat="37.765715" lon="-122.488416" /><trkpt lat="37.765759" lon="-122.488272" /><trkpt lat="37.765803" lon="-122.488128" /><trkpt lat="37.765856" lon="-122.487998" /><trkpt lat="37.765910" lon="-122.487867" /><trkpt lat="37.766006" lon="-122.487679" /><trkpt lat="37.766081" lon="-122.487554" /><trkpt lat="37.766155" lon="-122.487429" /><trkpt lat="37.766233" lon="-122.487296" /><trkpt lat="37.766312" lon="-122.487164" /><trkpt lat="37.766390" lon="-122.487031" /><trkpt lat="37.766471" lon="-122.486883" /><trkpt lat="37.766552" lon="-122.486735" /><trkpt lat="37.766633" lon="-122.486587" /><trkpt lat="37.766699" lon="-122.486452" /><trkpt lat="37.766765" lon="-122.486318" /><trkpt lat="37.766812" lon="-122.486182" /><trkpt lat="37.766859" lon="-122.486045" /><trkpt lat="37.766906" lon="-122.485835" /><trkpt lat="37.766924" lon="-122.485684" /><trkpt lat="37.766942" lon="-122.485534" /><trkpt lat="37.766942" lon="-122.485406" /><trkpt lat="37.766943" lon="-122.485278" /><trkpt lat="37.766915" lon="-122.485151" /><trkpt lat="37.766887" lon="-122.485023" /><trkpt lat="37.766812" lon="-122.484838" /><trkpt lat="37.766722" lon="-122.484642" /><trkpt lat="37.766678" lon="-122.484502" /><trkpt lat="37.766634" lon="-122.484363" /><trkpt lat="37.766608" lon="-122.484223" /><trkpt lat="37.766582" lon="-122.484082" /><trkpt lat="37.766570" lon="-122.483944" /><trkpt lat="37.766558" lon="-122.483806" /><trkpt lat="37.766561" lon="-122.483658" /><trkpt lat="37.766564" lon="-122.483511" /><trkpt lat="37.766584" lon="-122.483386" /><trkpt lat="37.766604" lon="-122.483262" /><trkpt lat="37.766633" lon="-122.483120" /><trkpt lat="37.766661" lon="-122.482979" /><trkpt lat="37.766687" lon="-122.482856" /><trkpt lat="37.766713" lon="-122.482734" /><trkpt lat="37.766760" lon="-122.482521" /><trkpt lat="37.766775" lon="-122.482398" /><trkpt lat="37.766791" lon="-122.482274" /><trkpt lat="37.766796" lon="-122.482139" /><trkpt lat="37.766800" lon="-122.482004" /><trkpt lat="37.766796" lon="-122.481883" /><trkpt lat="37.766791" lon="-122.481761" /><trkpt lat="37.766785" lon="-122.481643" /><trkpt lat="37.766780" lon="-122.481525" /><trkpt lat="37.766771" lon="-122.481408" /><trkpt lat="37.766762" lon="-122.481291" /><trkpt lat="37.766736" lon="-122.481067" /><trkpt lat="37.766713" lon="-122.480952" /><trkpt lat="37.766690" lon="-122.480836" /><trkpt lat="37.766661" lon="-122.480722" /><trkpt lat="37.766633" lon="-122.480609" /><trkpt lat="37.766602" lon="-122.480501" /><trkpt lat="37.766572" lon="-122.480393" /><trkpt lat="37.766537" lon="-122.480288" /><trkpt lat="37.766503" lon="-122.480182" /><trkpt lat="37.766461" lon="-122.480072" /><trkpt lat="37.766420" lon="-122.479962" /><trkpt lat="37.766337" lon="-122.479763" /><trkpt lat="37.766255" lon="-122.479565" /><trkpt lat="37.766172" lon="-122.479366" /><trkpt lat="37.766090" lon="-122.479168" /><trkpt lat="37.766007" lon="-122.478969" /><trkpt lat="37.765963" lon="-122.478850" /><trkpt lat="37.765918" lon="-122.478731" /><trkpt lat="37.765894" lon="-122.478523" /><trkpt lat="37.765911" lon="-122.478400" /><trkpt lat="37.765927" lon="-122.478278" /><trkpt lat="37.765956" lon="-122.478144" /><trkpt lat="37.765984" lon="-122.478009" /><trkpt lat="37.766008" lon="-122.477888" /><trkpt lat="37.766031" lon="-122.477766" /><trkpt lat="37.766042" lon="-122.477602" /><trkpt lat="37.766053" lon="-122.477438" /><trkpt lat="37.766064" lon="-122.477324" /><trkpt lat="37.766074" lon="-122.477209" /><trkpt lat="37.766096" lon="-122.477063" /><trkpt lat="37.766117" lon="-122.476916" /><trkpt lat="37.766146" lon="-122.476770" /><trkpt lat="37.766175" lon="-122.476624" /><trkpt lat="37.766205" lon="-122.476472" /><trkpt lat="37.766235" lon="-122.476319" /><trkpt lat="37.766267" lon="-122.476163" /><trkpt lat="37.766300" lon="-122.476007" /><trkpt lat="37.766334" lon="-122.475862" /><trkpt lat="37.766368" lon="-122.475717" /><trkpt lat="37.766402" lon="-122.475585" /><trkpt lat="37.766435" lon="-122.475454" /><trkpt lat="37.766476" lon="-122.475306" /><trkpt lat="37.766517" lon="-122.475158" /><trkpt lat="37.766557" lon="-122.475013" /><trkpt lat="37.766598" lon="-122.474868" /><trkpt lat="37.766638" lon="-122.474723" /><trkpt lat="37.766697" lon="-122.474511" /><trkpt lat="37.766757" lon="-122.474299" /><trkpt lat="37.766911" lon="-122.474369" /><trkpt lat="37.767066" lon="-122.474439" /><trkpt lat="37.767220" lon="-122.474509" /><trkpt lat="37.767374" lon="-122.474579" /><trkpt lat="37.767528" lon="-122.474649" /><trkpt lat="37.767683" lon="-122.474720" /><trkpt lat="37.767837" lon="-122.474790" /><trkpt lat="37.767991" lon="-122.474860" /><trkpt lat="37.768146" lon="-122.474930" /><trkpt lat="37.768300" lon="-122.475000" /><trkpt lat="37.768302" lon="-122.474830" /><trkpt lat="37.768303" lon="-122.474660" /><trkpt lat="37.768305" lon="-122.474491" /><trkpt lat="37.768306" lon="-122.474321" /><trkpt lat="37.768308" lon="-122.474151" /><trkpt lat="37.768309" lon="-122.473981" /><trkpt lat="37.768311" lon="-122.473812" /><trkpt lat="37.768312" lon="-122.473642" /><trkpt lat="37.768314" lon="-122.473472" /><trkpt lat="37.768316" lon="-122.473302" /><trkpt lat="37.768317" lon="-122.473133" /><trkpt lat="37.768319" lon="-122.472963" /><trkpt lat="37.768320" lon="-122.472793" /><trkpt lat="37.768322" lon="-122.472623" /><trkpt lat="37.768323" lon="-122.472453" /><trkpt lat="37.768325" lon="-122.472284" /><trkpt lat="37.768326" lon="-122.472114" /><trkpt lat="37.768328" lon="-122.471944" /><trkpt lat="37.768329" lon="-122.471774" /><trkpt lat="37.768331" lon="-122.471605" /><trkpt lat="37.768333" lon="-122.471435" /><trkpt lat="37.768334" lon="-122.471265" /><trkpt lat="37.768336" lon="-122.471095" /><trkpt lat="37.768337" lon="-122.470926" /><trkpt lat="37.768339" lon="-122.470756" /><trkpt lat="37.768340" lon="-122.470586" /><trkpt lat="37.768342" lon="-122.470416" /><trkpt lat="37.768343" lon="-122.470247" /><trkpt lat="37.768345" lon="-122.470077" /><trkpt lat="37.768347" lon="-122.469907" /><trkpt lat="37.768348" lon="-122.469737" /><trkpt lat="37.768350" lon="-122.469567" /><trkpt lat="37.768351" lon="-122.469398" /><trkpt lat="37.768353" lon="-122.469228" /><trkpt lat="37.768354" lon="-122.469058" /><trkpt lat="37.768356" lon="-122.468888" /><trkpt lat="37.768357" lon="-122.468719" /><trkpt lat="37.768359" lon="-122.468549" /><trkpt lat="37.768360" lon="-122.468379" /><trkpt lat="37.768362" lon="-122.468209" /><trkpt lat="37.768364" lon="-122.468040" /><trkpt lat="37.768365" lon="-122.467870" /><trkpt lat="37.768367" lon="-122.467700" /><trkpt lat="37.768368" lon="-122.467530" /><trkpt lat="37.768370" lon="-122.467360" /><trkpt lat="37.768371" lon="-122.467191" /><trkpt lat="37.768373" lon="-122.467021" /><trkpt lat="37.768374" lon="-122.466851" /><trkpt lat="37.768376" lon="-122.466681" /><trkpt lat="37.768378" lon="-122.466512" /><trkpt lat="37.768379" lon="-122.466342" /><trkpt lat="37.768381" lon="-122.466172" /><trkpt lat="37.768382" lon="-122.466002" /><trkpt lat="37.768384" lon="-122.465833" /><trkpt lat="37.768385" lon="-122.465663" /><trkpt lat="37.768387" lon="-122.465493" /><trkpt lat="37.768388" lon="-122.465323" /><trkpt lat="37.768390" lon="-122.465153" /><trkpt lat="37.768391" lon="-122.464984" /><trkpt lat="37.768393" lon="-122.464814" /><trkpt lat="37.768395" lon="-122.464644" /><trkpt lat="37.768396" lon="-122.464474" /><trkpt lat="37.768398" lon="-122.464305" /><trkpt lat="37.768399" lon="-122.464135" /><trkpt lat="37.768401" lon="-122.463965" /><trkpt lat="37.768402" lon="-122.463795" /><trkpt lat="37.768404" lon="-122.463626" /><trkpt lat="37.768405" lon="-122.463456" /><trkpt lat="37.768407" lon="-122.463286" /><trkpt lat="37.768409" lon="-122.463116" /><trkpt lat="37.768410" lon="-122.462947" /><trkpt lat="37.768412" lon="-122.462777" /><trkpt lat="37.768413" lon="-122.462607" /><trkpt lat="37.768415" lon="-122.462437" /><trkpt lat="37.768416" lon="-122.462267" /><trkpt lat="37.768418" lon="-122.462098" /><trkpt lat="37.768419" lon="-122.461928" /><trkpt lat="37.768421" lon="-122.461758" /><trkpt lat="37.768422" lon="-122.461588" /><trkpt lat="37.768424" lon="-122.461419" /><trkpt lat="37.768426" lon="-122.461249" /><trkpt lat="37.768427" lon="-122.461079" /><trkpt lat="37.768429" lon="-122.460909" /><trkpt lat="37.768430" lon="-122.460740" /><trkpt lat="37.768432" lon="-122.460570" /><trkpt lat="37.768433" lon="-122.460400" /><trkpt lat="37.768435" lon="-122.460230" /><trkpt lat="37.768436" lon="-122.460060" /><trkpt lat="37.768438" lon="-122.459891" /><trkpt lat="37.768440" lon="-122.459721" /><trkpt lat="37.768441" lon="-122.459551" /><trkpt lat="37.768443" lon="-122.459381" /><trkpt lat="37.768444" lon="-122.459212" /><trkpt lat="37.768446" lon="-122.459042" /><trkpt lat="37.768447" lon="-122.458872" /><trkpt lat="37.768449" lon="-122.458702" /><trkpt lat="37.768450" lon="-122.458533" /><trkpt lat="37.768452" lon="-122.458363" /><trkpt lat="37.768453" lon="-122.458193" /><trkpt lat="37.768455" lon="-122.458023" /><trkpt lat="37.768457" lon="-122.457853" /><trkpt lat="37.768458" lon="-122.457684" /><trkpt lat="37.768460" lon="-122.457514" /><trkpt lat="37.768461" lon="-122.457344" /><trkpt lat="37.768463" lon="-122.457174" /><trkpt lat="37.768464" lon="-122.457005" /><trkpt lat="37.768466" lon="-122.456835" /><trkpt lat="37.768467" lon="-122.456665" /><trkpt lat="37.768469" lon="-122.456495" /><trkpt lat="37.768471" lon="-122.456326" /><trkpt lat="37.768472" lon="-122.456156" /><trkpt lat="37.768474" lon="-122.455986" /><trkpt lat="37.768475" lon="-122.455816" /><trkpt lat="37.768477" lon="-122.455647" /><trkpt lat="37.768478" lon="-122.455477" /><trkpt lat="37.768480" lon="-122.455307" /><trkpt lat="37.768481" lon="-122.455137" /><trkpt lat="37.768483" lon="-122.454967" /><trkpt lat="37.768484" lon="-122.454798" /><trkpt lat="37.768486" lon="-122.454628" /><trkpt lat="37.768488" lon="-122.454458" /><trkpt lat="37.768489" lon="-122.454288" /><trkpt lat="37.768491" lon="-122.454119" /><trkpt lat="37.768492" lon="-122.453949" /><trkpt lat="37.768494" lon="-122.453779" /><trkpt lat="37.768495" lon="-122.453609" /><trkpt lat="37.768497" lon="-122.453440" /><trkpt lat="37.768498" lon="-122.453270" /><trkpt lat="37.768500" lon="-122.453100" /><trkpt lat="37.768651" lon="-122.453197" /><trkpt lat="37.768802" lon="-122.453295" /><trkpt lat="37.768952" lon="-122.453392" /><trkpt lat="37.769103" lon="-122.453490" /><trkpt lat="37.769254" lon="-122.453587" /><trkpt lat="37.769405" lon="-122.453685" /><trkpt lat="37.769555" lon="-122.453782" /><trkpt lat="37.769706" lon="-122.453880" /><trkpt lat="37.769857" lon="-122.453977" /><trkpt lat="37.770008" lon="-122.454075" /><trkpt lat="37.770158" lon="-122.454172" /><trkpt lat="37.770309" lon="-122.454270" /><trkpt lat="37.770460" lon="-122.454367" /><trkpt lat="37.770611" lon="-122.454465" /><trkpt lat="37.770761" lon="-122.454562" /><trkpt lat="37.770912" lon="-122.454660" /><trkpt lat="37.771063" lon="-122.454757" /><trkpt lat="37.771127" lon="-122.454605" /><trkpt lat="37.771191" lon="-122.454453" /><trkpt lat="37.771254" lon="-122.454300" /><trkpt lat="37.771318" lon="-122.454148" /></trkseg></trk></gpx>