<?xml version='1.0' encoding='utf-8'?>
<gpx version="1.1" creator="RunCast" xmlns="http://www.topografix.com/GPX/1/1"><trk><name>sf_glen_canyon_twin_peaks</name><trkseg><trkpt lat="37.736828" lon="-122.442960" /><trkpt lat="37.736746" lon="-122.443096" /><trkpt lat="37.736664" lon="-122.443232" /><trkpt lat="37.736582" lon="-122.443369" /><trkpt lat="37.736500" lon="-122.443505" /><trkpt lat="37.736464" lon="-122.443564" /><trkpt lat="37.736373" lon="-122.443687" /><trkpt lat="37.736290" lon="-122.443752" /><trkpt lat="37.736212" lon="-122.443786" /><trkpt lat="37.736109" lon="-122.443801" /><trkpt lat="37.736044" lon="-122.443793" /><trkpt lat="37.735990" lon="-122.443784" /><trkpt lat="37.735941" lon="-122.443767" /><trkpt lat="37.735888" lon="-122.443737" /><trkpt lat="37.735838" lon="-122.443681" /><trkpt lat="37.735795" lon="-122.443625" /><trkpt lat="37.735761" lon="-122.443562" /><trkpt lat="37.735729" lon="-122.443450" /><trkpt lat="37.735720" lon="-122.443307" /><trkpt lat="37.735750" lon="-122.443145" /><trkpt lat="37.735801" lon="-122.442959" /><trkpt lat="37.735852" lon="-122.442772" /><trkpt lat="37.735904" lon="-122.442586" /><trkpt lat="37.735955" lon="-122.442399" /><trkpt lat="37.736006" lon="-122.442213" /><trkpt lat="37.736039" lon="-122.442002" /><trkpt lat="37.736039" lon="-122.441909" /><trkpt lat="37.736042" lon="-122.441847" /><trkpt lat="37.736003" lon="-122.441706" /><trkpt lat="37.735965" lon="-122.441566" /><trkpt lat="37.735904" lon="-122.441412" /><trkpt lat="37.735843" lon="-122.441258" /><trkpt lat="37.735794" lon="-122.441200" /><trkpt lat="37.735671" lon="-122.441068" /><trkpt lat="37.735549" lon="-122.440935" /><trkpt lat="37.735422" lon="-122.440845" /><trkpt lat="37.735294" lon="-122.440754" /><trkpt lat="37.735167" lon="-122.440664" /><trkpt lat="37.735094" lon="-122.440567" /><trkpt lat="37.735048" lon="-122.440408" /><trkpt lat="37.735003" lon="-122.440249" /><trkpt lat="37.734959" lon="-122.440097" /><trkpt lat="37.734942" lon="-122.439962" /><trkpt lat="37.734926" lon="-122.439894" /><trkpt lat="37.735005" lon="-122.439851" /><trkpt lat="37.734952" lon="-122.439668" /><trkpt lat="37.734899" lon="-122.439484" /><trkpt lat="37.734846" lon="-122.439301" /><trkpt lat="37.734775" lon="-122.439131" /><trkpt lat="37.734705" lon="-122.438960" /><trkpt lat="37.734634" lon="-122.438789" /><trkpt lat="37.734564" lon="-122.438619" /><trkpt lat="37.734494" lon="-122.438420" /><trkpt lat="37.734457" lon="-122.438235" /><trkpt lat="37.734420" lon="-122.438049" /><trkpt lat="37.734383" lon="-122.437864" /><trkpt lat="37.734346" lon="-122.437678" /><trkpt lat="37.734309" lon="-122.437493" /><trkpt lat="37.734272" lon="-122.437304" /><trkpt lat="37.734234" lon="-122.437116" /><trkpt lat="37.734197" lon="-122.436927" /><trkpt lat="37.734160" lon="-122.436738" /><trkpt lat="37.734119" lon="-122.436529" /><trkpt lat="37.734078" lon="-122.436320" /><trkpt lat="37.734037" lon="-122.436111" /><trkpt lat="37.733996" lon="-122.435902" /><trkpt lat="37.733981" lon="-122.435820" /><trkpt lat="37.733965" lon="-122.435729" /><trkpt lat="37.733938" lon="-122.435555" /><trkpt lat="37.733911" lon="-122.435382" /><trkpt lat="37.733884" lon="-122.435208" /><trkpt lat="37.733857" lon="-122.435034" /><trkpt lat="37.733845" lon="-122.434970" /><trkpt lat="37.733832" lon="-122.434903" /><trkpt lat="37.733798" lon="-122.434731" /><trkpt lat="37.733764" lon="-122.434559" /><trkpt lat="37.733731" lon="-122.434386" /><trkpt lat="37.733697" lon="-122.434214" /><trkpt lat="37.733679" lon="-122.434118" /><trkpt lat="37.733660" lon="-122.434024" /><trkpt lat="37.733630" lon="-122.433874" /><trkpt lat="37.733601" lon="-122.433723" /><trkpt lat="37.733571" lon="-122.433573" /><trkpt lat="37.733452" lon="-122.433633" /><trkpt lat="37.733334" lon="-122.433693" /><trkpt lat="37.733363" lon="-122.433846" /><trkpt lat="37.733393" lon="-122.433999" /><trkpt lat="37.733418" lon="-122.434101" /><trkpt lat="37.733300" lon="-122.434136" /><trkpt lat="37.733222" lon="-122.434115" /><trkpt lat="37.733074" lon="-122.434162" /><trkpt lat="37.732926" lon="-122.434210" /><trkpt lat="37.732778" lon="-122.434257" /><trkpt lat="37.732729" lon="-122.434314" /><trkpt lat="37.732656" lon="-122.434336" /><trkpt lat="37.732817" lon="-122.434322" /><trkpt lat="37.732977" lon="-122.434307" /><trkpt lat="37.733138" lon="-122.434293" /><trkpt lat="37.733298" lon="-122.434278" /><trkpt lat="37.733459" lon="-122.434264" /><trkpt lat="37.733439" lon="-122.434190" /><trkpt lat="37.733418" lon="-122.434101" /><trkpt lat="37.733510" lon="-122.434167" /><trkpt lat="37.733529" lon="-122.434267" /><trkpt lat="37.733556" lon="-122.434416" /><trkpt lat="37.733584" lon="-122.434566" /><trkpt lat="37.733621" lon="-122.434760" /><trkpt lat="37.733657" lon="-122.434954" /><trkpt lat="37.733670" lon="-122.435026" /><trkpt lat="37.733683" lon="-122.435090" /><trkpt lat="37.733720" lon="-122.435271" /><trkpt lat="37.733757" lon="-122.435453" /><trkpt lat="37.733794" lon="-122.435635" /><trkpt lat="37.733831" lon="-122.435816" /><trkpt lat="37.733857" lon="-122.435943" /><trkpt lat="37.733895" lon="-122.436129" /><trkpt lat="37.733933" lon="-122.436316" /><trkpt lat="37.733971" lon="-122.436503" /><trkpt lat="37.734009" lon="-122.436689" /><trkpt lat="37.734028" lon="-122.436785" /><trkpt lat="37.734066" lon="-122.436981" /><trkpt lat="37.734104" lon="-122.437176" /><trkpt lat="37.734142" lon="-122.437371" /><trkpt lat="37.734180" lon="-122.437567" /><trkpt lat="37.734223" lon="-122.437784" /><trkpt lat="37.734265" lon="-122.438001" /><trkpt lat="37.734307" lon="-122.438218" /><trkpt lat="37.734350" lon="-122.438435" /><trkpt lat="37.734390" lon="-122.438604" /><trkpt lat="37.734430" lon="-122.438746" /><trkpt lat="37.734480" lon="-122.438885" /><trkpt lat="37.734552" lon="-122.439054" /><trkpt lat="37.734623" lon="-122.439224" /><trkpt lat="37.734695" lon="-122.439393" /><trkpt lat="37.734722" lon="-122.439484" /><trkpt lat="37.734744" lon="-122.439575" /><trkpt lat="37.734788" lon="-122.439753" /><trkpt lat="37.734813" lon="-122.439857" /><trkpt lat="37.734849" lon="-122.439936" /><trkpt lat="37.734875" lon="-122.439994" /><trkpt lat="37.734912" lon="-122.440134" /><trkpt lat="37.734949" lon="-122.440274" /><trkpt lat="37.734989" lon="-122.440424" /><trkpt lat="37.735017" lon="-122.440530" /><trkpt lat="37.735040" lon="-122.440598" /><trkpt lat="37.735072" lon="-122.440668" /><trkpt lat="37.735111" lon="-122.440719" /><trkpt lat="37.735154" lon="-122.440761" /><trkpt lat="37.735204" lon="-122.440797" /><trkpt lat="37.735314" lon="-122.440862" /><trkpt lat="37.735425" lon="-122.440927" /><trkpt lat="37.735535" lon="-122.440992" /><trkpt lat="37.735581" lon="-122.441023" /><trkpt lat="37.735622" lon="-122.441058" /><trkpt lat="37.735664" lon="-122.441105" /><trkpt lat="37.735766" lon="-122.441237" /><trkpt lat="37.735809" lon="-122.441293" /><trkpt lat="37.735839" lon="-122.441347" /><trkpt lat="37.735865" lon="-122.441408" /><trkpt lat="37.735887" lon="-122.441475" /><trkpt lat="37.735923" lon="-122.441609" /><trkpt lat="37.735959" lon="-122.441742" /><trkpt lat="37.735972" lon="-122.441824" /><trkpt lat="37.735978" lon="-122.441906" /><trkpt lat="37.736039" lon="-122.441909" /><trkpt lat="37.736132" lon="-122.441913" /><trkpt lat="37.736215" lon="-122.441899" /><trkpt lat="37.736286" lon="-122.441875" /><trkpt lat="37.736360" lon="-122.441834" /><trkpt lat="37.736515" lon="-122.441721" /><trkpt lat="37.736671" lon="-122.441609" /><trkpt lat="37.736814" lon="-122.441554" /><trkpt lat="37.736957" lon="-122.441500" /><trkpt lat="37.737107" lon="-122.441494" /><trkpt lat="37.737258" lon="-122.441487" /><trkpt lat="37.737432" lon="-122.441493" /><trkpt lat="37.737606" lon="-122.441499" /><trkpt lat="37.737780" lon="-122.441504" /><trkpt lat="37.737954" lon="-122.441510" /><trkpt lat="37.738128" lon="-122.441516" /><trkpt lat="37.738289" lon="-122.441494" /><trkpt lat="37.738449" lon="-122.441473" /><trkpt lat="37.738610" lon="-122.441451" /><trkpt lat="37.738718" lon="-122.441303" /><trkpt lat="37.738827" lon="-122.441155" /><trkpt lat="37.738935" lon="-122.441007" /><trkpt lat="37.739044" lon="-122.440935" /><trkpt lat="37.739153" lon="-122.440863" /><trkpt lat="37.739249" lon="-122.440823" /><trkpt lat="37.739345" lon="-122.440762" /><trkpt lat="37.739410" lon="-122.440753" /><trkpt lat="37.739472" lon="-122.440725" /><trkpt lat="37.739524" lon="-122.440714" /><trkpt lat="37.739576" lon="-122.440704" /><trkpt lat="37.739678" lon="-122.440716" /><trkpt lat="37.739745" lon="-122.440719" /><trkpt lat="37.739916" lon="-122.440787" /><trkpt lat="37.740087" lon="-122.440854" /><trkpt lat="37.740201" lon="-122.440855" /><trkpt lat="37.740334" lon="-122.440713" /><trkpt lat="37.740467" lon="-122.440570" /><trkpt lat="37.740600" lon="-122.440427" /><trkpt lat="37.740734" lon="-122.440285" /><trkpt lat="37.740867" lon="-122.440142" /><trkpt lat="37.741000" lon="-122.440000" /><trkpt lat="37.741103" lon="-122.439893" /><trkpt lat="37.741207" lon="-122.439786" /><trkpt lat="37.741310" lon="-122.439679" /><trkpt lat="37.741414" lon="-122.439572" /><trkpt lat="37.741517" lon="-122.439466" /><trkpt lat="37.741621" lon="-122.439359" /><trkpt lat="37.741724" lon="-122.439252" /><trkpt lat="37.741828" lon="-122.439145" /><trkpt lat="37.741931" lon="-122.439038" /><trkpt lat="37.742034" lon="-122.438931" /><trkpt lat="37.742138" lon="-122.438824" /><trkpt lat="37.742241" lon="-122.438717" /><trkpt lat="37.742345" lon="-122.438610" /><trkpt lat="37.742448" lon="-122.438503" /><trkpt lat="37.742552" lon="-122.438397" /><trkpt lat="37.742655" lon="-122.438290" /><trkpt lat="37.742759" lon="-122.438183" /><trkpt lat="37.742862" lon="-122.438076" /><trkpt lat="37.742966" lon="-122.437969" /><trkpt lat="37.743069" lon="-122.437862" /><trkpt lat="37.743172" lon="-122.437755" /><trkpt lat="37.743276" lon="-122.437648" /><trkpt lat="37.743379" lon="-122.437541" /><trkpt lat="37.743483" lon="-122.437434" /><trkpt lat="37.743586" lon="-122.437328" /><trkpt lat="37.743690" lon="-122.437221" /><trkpt lat="37.743793" lon="-122.437114" /><trkpt lat="37.743897" lon="-122.437007" /><trkpt lat="37.744000" lon="-122.436900" /><trkpt lat="37.744145" lon="-122.436996" /><trkpt lat="37.744290" lon="-122.437092" /><trkpt lat="37.744434" lon="-122.437188" /><trkpt lat="37.744579" lon="-122.437284" /><trkpt lat="37.744724" lon="-122.437380" /><trkpt lat="37.744869" lon="-122.437476" /><trkpt lat="37.745014" lon="-122.437572" /><trkpt lat="37.745158" lon="-122.437668" /><trkpt lat="37.745303" lon="-122.437764" /><trkpt lat="37.745448" lon="-122.437860" /><trkpt lat="37.745443" lon="-122.437956" /><trkpt lat="37.745436" lon="-122.438063" /><trkpt lat="37.745605" lon="-122.438107" /><trkpt lat="37.745774" lon="-122.438150" /><trkpt lat="37.745943" lon="-122.438194" /><trkpt lat="37.746112" lon="-122.438237" /><trkpt lat="37.746281" lon="-122.438281" /><trkpt lat="37.746450" lon="-122.438324" /><trkpt lat="37.746619" lon="-122.438368" /><trkpt lat="37.746788" lon="-122.438411" /><trkpt lat="37.746957" lon="-122.438455" /><trkpt lat="37.747125" lon="-122.438498" /><trkpt lat="37.747294" lon="-122.438542" /><trkpt lat="37.747463" lon="-122.438585" /><trkpt lat="37.747632" lon="-122.438629" /><trkpt lat="37.747801" lon="-122.438672" /><trkpt lat="37.747970" lon="-122.438716" /><trkpt lat="37.748139" lon="-122.438759" /><trkpt lat="37.748308" lon="-122.438803" /><trkpt lat="37.748477" lon="-122.438846" /><trkpt lat="37.748646" lon="-122.438890" /><trkpt lat="37.748646" lon="-122.439091" /><trkpt lat="37.748646" lon="-122.439292" /><trkpt lat="37.748647" lon="-122.439493" /><trkpt lat="37.748647" lon="-122.439694" /><trkpt lat="37.748645" lon="-122.439909" /><trkpt lat="37.748643" lon="-122.440124" /><trkpt lat="37.748641" lon="-122.440339" /><trkpt lat="37.748640" lon="-122.440555" /><trkpt lat="37.748638" lon="-122.440770" /><trkpt lat="37.748636" lon="-122.440985" /><trkpt lat="37.748632" lon="-122.441138" /><trkpt lat="37.748621" lon="-122.441294" /><trkpt lat="37.748604" lon="-122.441443" /><trkpt lat="37.748577" lon="-122.441593" /><trkpt lat="37.748539" lon="-122.441748" /><trkpt lat="37.748496" lon="-122.441888" /><trkpt lat="37.748445" lon="-122.442024" /><trkpt lat="37.748389" lon="-122.442152" /><trkpt lat="37.748317" lon="-122.442284" /><trkpt lat="37.748239" lon="-122.442412" /><trkpt lat="37.748165" lon="-122.442514" /><trkpt lat="37.748091" lon="-122.442604" /><trkpt lat="37.748013" lon="-122.442692" /><trkpt lat="37.747890" lon="-122.442818" /><trkpt lat="37.747768" lon="-122.442945" /><trkpt lat="37.747645" lon="-122.443071" /><trkpt lat="37.747534" lon="-122.443178" /><trkpt lat="37.747423" lon="-122.443284" /><trkpt lat="37.747313" lon="-122.443390" /><trkpt lat="37.747202" lon="-122.443497" /><trkpt lat="37.747080" lon="-122.443625" /><trkpt lat="37.746958" lon="-122.443754" /><trkpt lat="37.746894" lon="-122.443828" /><trkpt lat="37.746834" lon="-122.443909" /><trkpt lat="37.746819" lon="-122.443932" /><trkpt lat="37.746964" lon="-122.443937" /><trkpt lat="37.747068" lon="-122.443831" /><trkpt lat="37.747142" lon="-122.443753" /><trkpt lat="37.747216" lon="-122.443676" /><trkpt lat="37.747338" lon="-122.443550" /><trkpt lat="37.747459" lon="-122.443424" /><trkpt lat="37.747590" lon="-122.443288" /><trkpt lat="37.747721" lon="-122.443151" /><trkpt lat="37.747852" lon="-122.443015" /><trkpt lat="37.747993" lon="-122.442896" /><trkpt lat="37.748133" lon="-122.442777" /><trkpt lat="37.748275" lon="-122.442874" /><trkpt lat="37.748416" lon="-122.442971" /><trkpt lat="37.748558" lon="-122.443068" /><trkpt lat="37.748699" lon="-122.443165" /><trkpt lat="37.748841" lon="-122.443262" /><trkpt lat="37.748982" lon="-122.443359" /><trkpt lat="37.749124" lon="-122.443456" /><trkpt lat="37.749265" lon="-122.443553" /><trkpt lat="37.749332" lon="-122.443514" /><trkpt lat="37.749406" lon="-122.443479" /><trkpt lat="37.749500" lon="-122.443575" /><trkpt lat="37.749557" lon="-122.443649" /><trkpt lat="37.749651" lon="-122.443661" /><trkpt lat="37.749746" lon="-122.443674" /><trkpt lat="37.749746" lon="-122.443674" /><trkpt lat="37.749651" lon="-122.443661" /><trkpt lat="37.749557" lon="-122.443649" /><trkpt lat="37.749557" lon="-122.443649" /><trkpt lat="37.749651" lon="-122.443661" /><trkpt lat="37.749746" lon="-122.443674" /><trkpt lat="37.749842" lon="-122.443634" /><trkpt lat="37.749945" lon="-122.443675" /><trkpt lat="37.750048" lon="-122.443716" /><trkpt lat="37.750158" lon="-122.443888" /><trkpt lat="37.750268" lon="-122.444059" /><trkpt lat="37.750378" lon="-122.444231" /><trkpt lat="37.750488" lon="-122.444402" /><trkpt lat="37.750598" lon="-122.444574" /><trkpt lat="37.750708" lon="-122.444745" /><trkpt lat="37.750818" lon="-122.444917" /><trkpt lat="37.750927" lon="-122.445088" /><trkpt lat="37.751037" lon="-122.445260" /><trkpt lat="37.751147" lon="-122.445431" /><trkpt lat="37.751257" lon="-122.445603" /><trkpt lat="37.751367" lon="-122.445774" /><trkpt lat="37.751477" lon="-122.445946" /><trkpt lat="37.751587" lon="-122.446117" /><trkpt lat="37.751697" lon="-122.446289" /><trkpt lat="37.751785" lon="-122.446369" /><trkpt lat="37.751873" lon="-122.446448" /><trkpt lat="37.751880" lon="-122.446513" /><trkpt lat="37.751918" lon="-122.446574" /><trkpt lat="37.751918" lon="-122.446643" /><trkpt lat="37.751936" lon="-122.446696" /><trkpt lat="37.751983" lon="-122.446760" /><trkpt lat="37.752033" lon="-122.446824" /><trkpt lat="37.752076" lon="-122.446896" /><trkpt lat="37.752088" lon="-122.447003" /><trkpt lat="37.752108" lon="-122.447093" /><trkpt lat="37.752108" lon="-122.447182" /><trkpt lat="37.752090" lon="-122.447259" /><trkpt lat="37.752266" lon="-122.447273" /><trkpt lat="37.752441" lon="-122.447288" /><trkpt lat="37.752617" lon="-122.447302" /><trkpt lat="37.752793" lon="-122.447317" /><trkpt lat="37.752969" lon="-122.447331" /><trkpt lat="37.753144" lon="-122.447346" /><trkpt lat="37.753320" lon="-122.447360" /><trkpt lat="37.753466" lon="-122.447321" /><trkpt lat="37.753611" lon="-122.447282" /><trkpt lat="37.753757" lon="-122.447242" /><trkpt lat="37.753902" lon="-122.447203" /><trkpt lat="37.754048" lon="-122.447164" /><trkpt lat="37.754038" lon="-122.447350" /><trkpt lat="37.754028" lon="-122.447536" /><trkpt lat="37.754170" lon="-122.447539" /><trkpt lat="37.754312" lon="-122.447541" /><trkpt lat="37.754385" lon="-122.447557" /></trkseg></trk></gpx>