<?xml version='1.0' encoding='utf-8'?>
<gpx version="1.1" creator="RunCast" xmlns="http://www.topografix.com/GPX/1/1"><trk><name>sf_lands_end</name><trkseg><trkpt lat="37.780643" lon="-122.511708" /><trkpt lat="37.780706" lon="-122.511723" /><trkpt lat="37.780792" lon="-122.511737" /><trkpt lat="37.780864" lon="-122.511730" /><trkpt lat="37.780954" lon="-122.511725" /><trkpt lat="37.780976" lon="-122.511533" /><trkpt lat="37.780998" lon="-122.511342" /><trkpt lat="37.781020" lon="-122.511150" /><trkpt lat="37.781042" lon="-122.510959" /><trkpt lat="37.781064" lon="-122.510768" /><trkpt lat="37.781086" lon="-122.510576" /><trkpt lat="37.781182" lon="-122.510655" /><trkpt lat="37.781295" lon="-122.510749" /><trkpt lat="37.781408" lon="-122.510843" /><trkpt lat="37.781521" lon="-122.510937" /><trkpt lat="37.781602" lon="-122.511004" /><trkpt lat="37.781711" lon="-122.511095" /><trkpt lat="37.781819" lon="-122.511186" /><trkpt lat="37.781939" lon="-122.511286" /><trkpt lat="37.782060" lon="-122.511387" /><trkpt lat="37.782180" lon="-122.511488" /><trkpt lat="37.782300" lon="-122.511588" /><trkpt lat="37.782448" lon="-122.511688" /><trkpt lat="37.782503" lon="-122.511736" /><trkpt lat="37.782552" lon="-122.511752" /><trkpt lat="37.782618" lon="-122.511767" /><trkpt lat="37.782703" lon="-122.511776" /><trkpt lat="37.782773" lon="-122.511783" /><trkpt lat="37.782833" lon="-122.511780" /><trkpt lat="37.782909" lon="-122.511766" /><trkpt lat="37.782989" lon="-122.511745" /><trkpt lat="37.783068" lon="-122.511708" /><trkpt lat="37.783158" lon="-122.511655" /><trkpt lat="37.783223" lon="-122.511594" /><trkpt lat="37.783282" lon="-122.511505" /><trkpt lat="37.783311" lon="-122.511461" /><trkpt lat="37.783358" lon="-122.511360" /><trkpt lat="37.783397" lon="-122.511255" /><trkpt lat="37.783424" lon="-122.511139" /><trkpt lat="37.783452" lon="-122.510997" /><trkpt lat="37.783475" lon="-122.510850" /><trkpt lat="37.783487" lon="-122.510738" /><trkpt lat="37.783496" lon="-122.510567" /><trkpt lat="37.783498" lon="-122.510389" /><trkpt lat="37.783504" lon="-122.510299" /><trkpt lat="37.783517" lon="-122.510225" /><trkpt lat="37.783549" lon="-122.510143" /><trkpt lat="37.783584" lon="-122.510074" /><trkpt lat="37.783643" lon="-122.509998" /><trkpt lat="37.783699" lon="-122.509940" /><trkpt lat="37.783768" lon="-122.509877" /><trkpt lat="37.783835" lon="-122.509793" /><trkpt lat="37.783910" lon="-122.509681" /><trkpt lat="37.783976" lon="-122.509537" /><trkpt lat="37.784019" lon="-122.509429" /><trkpt lat="37.784050" lon="-122.509341" /><trkpt lat="37.784086" lon="-122.509267" /><trkpt lat="37.784116" lon="-122.509170" /><trkpt lat="37.784171" lon="-122.509061" /><trkpt lat="37.784223" lon="-122.508934" /><trkpt lat="37.784276" lon="-122.508830" /><trkpt lat="37.784324" lon="-122.508746" /><trkpt lat="37.784366" lon="-122.508629" /><trkpt lat="37.784422" lon="-122.508466" /><trkpt lat="37.784450" lon="-122.508352" /><trkpt lat="37.784489" lon="-122.508241" /><trkpt lat="37.784508" lon="-122.508108" /><trkpt lat="37.784539" lon="-122.507991" /><trkpt lat="37.784573" lon="-122.507879" /><trkpt lat="37.784624" lon="-122.507803" /><trkpt lat="37.784661" lon="-122.507753" /><trkpt lat="37.784677" lon="-122.507693" /><trkpt lat="37.784682" lon="-122.507609" /><trkpt lat="37.784653" lon="-122.507496" /><trkpt lat="37.784629" lon="-122.507394" /><trkpt lat="37.784592" lon="-122.507260" /><trkpt lat="37.784583" lon="-122.507201" /><trkpt lat="37.784573" lon="-122.507135" /><trkpt lat="37.784563" lon="-122.507031" /><trkpt lat="37.784551" lon="-122.506900" /><trkpt lat="37.784564" lon="-122.506795" /><trkpt lat="37.784619" lon="-122.506613" /><trkpt lat="37.784661" lon="-122.506451" /><trkpt lat="37.784658" lon="-122.506376" /><trkpt lat="37.784640" lon="-122.506313" /><trkpt lat="37.784656" lon="-122.506181" /><trkpt lat="37.784654" lon="-122.506068" /><trkpt lat="37.784663" lon="-122.505958" /><trkpt lat="37.784663" lon="-122.505958" /><trkpt lat="37.784654" lon="-122.506068" /><trkpt lat="37.784656" lon="-122.506181" /><trkpt lat="37.784640" lon="-122.506313" /><trkpt lat="37.784658" lon="-122.506376" /><trkpt lat="37.784661" lon="-122.506451" /><trkpt lat="37.784619" lon="-122.506613" /><trkpt lat="37.784564" lon="-122.506795" /><trkpt lat="37.784551" lon="-122.506900" /><trkpt lat="37.784563" lon="-122.507031" /><trkpt lat="37.784573" lon="-122.507135" /><trkpt lat="37.784583" lon="-122.507201" /><trkpt lat="37.784592" lon="-122.507260" /><trkpt lat="37.784629" lon="-122.507394" /><trkpt lat="37.784653" lon="-122.507496" /><trkpt lat="37.784682" lon="-122.507609" /><trkpt lat="37.784677" lon="-122.507693" /><trkpt lat="37.784661" lon="-122.507753" /><trkpt lat="37.784624" lon="-122.507803" /><trkpt lat="37.784573" lon="-122.507879" /><trkpt lat="37.784539" lon="-122.507991" /><trkpt lat="37.784508" lon="-122.508108" /><trkpt lat="37.784489" lon="-122.508241" /><trkpt lat="37.784450" lon="-122.508352" /><trkpt lat="37.784422" lon="-122.508466" /><trkpt lat="37.784366" lon="-122.508629" /><trkpt lat="37.784324" lon="-122.508746" /><trkpt lat="37.784276" lon="-122.508830" /><trkpt lat="37.784223" lon="-122.508934" /><trkpt lat="37.784171" lon="-122.509061" /><trkpt lat="37.784116" lon="-122.509170" /><trkpt lat="37.784086" lon="-122.509267" /><trkpt lat="37.784050" lon="-122.509341" /><trkpt lat="37.784019" lon="-122.509429" /><trkpt lat="37.783976" lon="-122.509537" /><trkpt lat="37.783910" lon="-122.509681" /><trkpt lat="37.783835" lon="-122.509793" /><trkpt lat="37.783768" lon="-122.509877" /><trkpt lat="37.783699" lon="-122.509940" /><trkpt lat="37.783643" lon="-122.509998" /><trkpt lat="37.783584" lon="-122.510074" /><trkpt lat="37.783549" lon="-122.510143" /><trkpt lat="37.783517" lon="-122.510225" /><trkpt lat="37.783504" lon="-122.510299" /><trkpt lat="37.783498" lon="-122.510389" /><trkpt lat="37.783496" lon="-122.510567" /><trkpt lat="37.783488" lon="-122.510705" /><trkpt lat="37.783475" lon="-122.510850" /><trkpt lat="37.783452" lon="-122.510997" /><trkpt lat="37.783424" lon="-122.511139" /><trkpt lat="37.783397" lon="-122.511255" /><trkpt lat="37.783375" lon="-122.511320" /><trkpt lat="37.783336" lon="-122.511416" /><trkpt lat="37.783282" lon="-122.511505" /><trkpt lat="37.783223" lon="-122.511594" /><trkpt lat="37.783158" lon="-122.511655" /><trkpt lat="37.783068" lon="-122.511708" /><trkpt lat="37.782989" lon="-122.511745" /><trkpt lat="37.782909" lon="-122.511766" /><trkpt lat="37.782833" lon="-122.511780" /><trkpt lat="37.782773" lon="-122.511783" /><trkpt lat="37.782703" lon="-122.511776" /><trkpt lat="37.782618" lon="-122.511767" /><trkpt lat="37.782552" lon="-122.511752" /><trkpt lat="37.782503" lon="-122.511736" /><trkpt lat="37.782448" lon="-122.511688" /><trkpt lat="37.782300" lon="-122.511588" /><trkpt lat="37.782180" lon="-122.511488" /><trkpt lat="37.782060" lon="-122.511387" /><trkpt lat="37.781939" lon="-122.511286" /><trkpt lat="37.781819" lon="-122.511186" /><trkpt lat="37.781711" lon="-122.511095" /><trkpt lat="37.781602" lon="-122.511004" /><trkpt lat="37.781521" lon="-122.510937" /><trkpt lat="37.781408" lon="-122.510843" /><trkpt lat="37.781295" lon="-122.510749" /><trkpt lat="37.781182" lon="-122.510655" /><trkpt lat="37.781086" lon="-122.510576" /><trkpt lat="37.780945" lon="-122.510465" /><trkpt lat="37.780804" lon="-122.510353" /><trkpt lat="37.780663" lon="-122.510242" /><trkpt lat="37.780610" lon="-122.510197" /><trkpt lat="37.780465" lon="-122.510074" /><trkpt lat="37.780319" lon="-122.509952" /><trkpt lat="37.780174" lon="-122.509829" /><trkpt lat="37.780096" lon="-122.509809" /><trkpt lat="37.780024" lon="-122.509859" /><trkpt lat="37.780015" lon="-122.509954" /><trkpt lat="37.780038" lon="-122.510030" /><trkpt lat="37.780102" lon="-122.510140" /><trkpt lat="37.780166" lon="-122.510243" /><trkpt lat="37.780222" lon="-122.510346" /><trkpt lat="37.780276" lon="-122.510437" /><trkpt lat="37.780378" lon="-122.510609" /><trkpt lat="37.780480" lon="-122.510790" /><trkpt lat="37.780582" lon="-122.510972" /><trkpt lat="37.780682" lon="-122.511150" /><trkpt lat="37.780782" lon="-122.511329" /><trkpt lat="37.780845" lon="-122.511446" /><trkpt lat="37.780909" lon="-122.511562" /><trkpt lat="37.780936" lon="-122.511633" /><trkpt lat="37.780936" lon="-122.511633" /><trkpt lat="37.780909" lon="-122.511562" /><trkpt lat="37.780808" lon="-122.511375" /><trkpt lat="37.780733" lon="-122.511241" /><trkpt lat="37.780657" lon="-122.511106" /><trkpt lat="37.780582" lon="-122.510972" /><trkpt lat="37.780480" lon="-122.510790" /><trkpt lat="37.780378" lon="-122.510609" /><trkpt lat="37.780276" lon="-122.510437" /><trkpt lat="37.780222" lon="-122.510346" /><trkpt lat="37.780166" lon="-122.510243" /><trkpt lat="37.780102" lon="-122.510140" /><trkpt lat="37.780038" lon="-122.510030" /><trkpt lat="37.780015" lon="-122.509954" /><trkpt lat="37.780008" lon="-122.509896" /><trkpt lat="37.780057" lon="-122.509822" /><trkpt lat="37.780135" lon="-122.509809" /><trkpt lat="37.780254" lon="-122.509906" /><trkpt lat="37.780372" lon="-122.510003" /><trkpt lat="37.780491" lon="-122.510100" /><trkpt lat="37.780610" lon="-122.510197" /><trkpt lat="37.780726" lon="-122.510081" /><trkpt lat="37.780754" lon="-122.510024" /><trkpt lat="37.780754" lon="-122.510024" /><trkpt lat="37.780726" lon="-122.510081" /><trkpt lat="37.780856" lon="-122.510164" /><trkpt lat="37.780985" lon="-122.510247" /><trkpt lat="37.781069" lon="-122.510301" /><trkpt lat="37.781153" lon="-122.510355" /><trkpt lat="37.781309" lon="-122.510456" /><trkpt lat="37.781406" lon="-122.510519" /><trkpt lat="37.781502" lon="-122.510581" /><trkpt lat="37.781597" lon="-122.510646" /><trkpt lat="37.781727" lon="-122.510732" /><trkpt lat="37.781857" lon="-122.510833" /><trkpt lat="37.781982" lon="-122.510922" /><trkpt lat="37.782086" lon="-122.511000" /><trkpt lat="37.782180" lon="-122.511060" /><trkpt lat="37.782275" lon="-122.511121" /><trkpt lat="37.782372" lon="-122.511196" /><trkpt lat="37.782441" lon="-122.511245" /><trkpt lat="37.782502" lon="-122.511281" /><trkpt lat="37.782569" lon="-122.511303" /><trkpt lat="37.782605" lon="-122.511343" /><trkpt lat="37.782676" lon="-122.511360" /><trkpt lat="37.782722" lon="-122.511409" /><trkpt lat="37.782756" lon="-122.511462" /><trkpt lat="37.782812" lon="-122.511508" /><trkpt lat="37.782881" lon="-122.511517" /><trkpt lat="37.782932" lon="-122.511492" /><trkpt lat="37.782981" lon="-122.511457" /><trkpt lat="37.783023" lon="-122.511409" /><trkpt lat="37.783054" lon="-122.511358" /><trkpt lat="37.783073" lon="-122.511297" /><trkpt lat="37.783092" lon="-122.511261" /><trkpt lat="37.783135" lon="-122.511138" /><trkpt lat="37.783166" lon="-122.511029" /><trkpt lat="37.783181" lon="-122.510932" /><trkpt lat="37.783192" lon="-122.510830" /><trkpt lat="37.783192" lon="-122.510746" /><trkpt lat="37.783204" lon="-122.510588" /><trkpt lat="37.783216" lon="-122.510450" /><trkpt lat="37.783232" lon="-122.510263" /><trkpt lat="37.783261" lon="-122.510164" /><trkpt lat="37.783241" lon="-122.510042" /><trkpt lat="37.783300" lon="-122.509967" /><trkpt lat="37.783391" lon="-122.509838" /><trkpt lat="37.783481" lon="-122.509709" /><trkpt lat="37.783572" lon="-122.509580" /><trkpt lat="37.783645" lon="-122.509470" /><trkpt lat="37.783708" lon="-122.509370" /><trkpt lat="37.783764" lon="-122.509271" /><trkpt lat="37.783817" lon="-122.509160" /><trkpt lat="37.783854" lon="-122.509049" /><trkpt lat="37.783884" lon="-122.508942" /><trkpt lat="37.783901" lon="-122.508833" /><trkpt lat="37.783916" lon="-122.508724" /><trkpt lat="37.783923" lon="-122.508628" /><trkpt lat="37.783922" lon="-122.508530" /><trkpt lat="37.783912" lon="-122.508442" /><trkpt lat="37.783894" lon="-122.508350" /><trkpt lat="37.783873" lon="-122.508244" /><trkpt lat="37.783864" lon="-122.508153" /><trkpt lat="37.783858" lon="-122.508044" /><trkpt lat="37.783859" lon="-122.507928" /><trkpt lat="37.783855" lon="-122.507817" /><trkpt lat="37.783845" lon="-122.507697" /><trkpt lat="37.783840" lon="-122.507584" /><trkpt lat="37.783843" lon="-122.507483" /><trkpt lat="37.783856" lon="-122.507372" /><trkpt lat="37.783877" lon="-122.507276" /><trkpt lat="37.783892" lon="-122.507176" /><trkpt lat="37.783901" lon="-122.507061" /><trkpt lat="37.783909" lon="-122.506956" /><trkpt lat="37.783925" lon="-122.506854" /><trkpt lat="37.783945" lon="-122.506748" /><trkpt lat="37.783970" lon="-122.506638" /><trkpt lat="37.783993" lon="-122.506540" /><trkpt lat="37.784028" lon="-122.506412" /><trkpt lat="37.784063" lon="-122.506274" /><trkpt lat="37.784064" lon="-122.506078" /><trkpt lat="37.784064" lon="-122.505881" /><trkpt lat="37.784065" lon="-122.505685" /><trkpt lat="37.784066" lon="-122.505488" /><trkpt lat="37.784074" lon="-122.505414" /><trkpt lat="37.784076" lon="-122.505340" /><trkpt lat="37.784070" lon="-122.505277" /><trkpt lat="37.784057" lon="-122.505090" /><trkpt lat="37.784043" lon="-122.504903" /><trkpt lat="37.784030" lon="-122.504715" /><trkpt lat="37.784017" lon="-122.504528" /><trkpt lat="37.784135" lon="-122.504362" /><trkpt lat="37.784253" lon="-122.504195" /><trkpt lat="37.784371" lon="-122.504029" /><trkpt lat="37.784489" lon="-122.503863" /><trkpt lat="37.784607" lon="-122.503696" /><trkpt lat="37.784725" lon="-122.503530" /><trkpt lat="37.784843" lon="-122.503364" /><trkpt lat="37.784961" lon="-122.503198" /><trkpt lat="37.785079" lon="-122.503031" /><trkpt lat="37.785197" lon="-122.502865" /><trkpt lat="37.785101" lon="-122.502907" /><trkpt lat="37.785005" lon="-122.502949" /><trkpt lat="37.784874" lon="-122.502984" /><trkpt lat="37.784743" lon="-122.503019" /><trkpt lat="37.784607" lon="-122.503089" /><trkpt lat="37.784593" lon="-122.502871" /><trkpt lat="37.784578" lon="-122.502653" /><trkpt lat="37.784564" lon="-122.502435" /><trkpt lat="37.784550" lon="-122.502217" /><trkpt lat="37.784535" lon="-122.501998" /><trkpt lat="37.784521" lon="-122.501780" /><trkpt lat="37.784507" lon="-122.501562" /><trkpt lat="37.784492" lon="-122.501344" /><trkpt lat="37.784478" lon="-122.501126" /><trkpt lat="37.784464" lon="-122.500908" /><trkpt lat="37.784450" lon="-122.500690" /><trkpt lat="37.784435" lon="-122.500472" /><trkpt lat="37.784421" lon="-122.500253" /><trkpt lat="37.784407" lon="-122.500035" /><trkpt lat="37.784392" lon="-122.499817" /><trkpt lat="37.784378" lon="-122.499599" /><trkpt lat="37.784286" lon="-122.499546" /><trkpt lat="37.784194" lon="-122.499493" /><trkpt lat="37.784132" lon="-122.499448" /><trkpt lat="37.784081" lon="-122.499397" /><trkpt lat="37.784012" lon="-122.499305" /><trkpt lat="37.783943" lon="-122.499213" /><trkpt lat="37.783845" lon="-122.499088" /><trkpt lat="37.783747" lon="-122.498963" /><trkpt lat="37.783649" lon="-122.498838" /><trkpt lat="37.783569" lon="-122.498745" /><trkpt lat="37.783498" lon="-122.498674" /><trkpt lat="37.783416" lon="-122.498580" /><trkpt lat="37.783358" lon="-122.498463" /><trkpt lat="37.783311" lon="-122.498327" /><trkpt lat="37.783265" lon="-122.498191" /><trkpt lat="37.783133" lon="-122.498052" /><trkpt lat="37.782966" lon="-122.498115" /><trkpt lat="37.782800" lon="-122.498178" /><trkpt lat="37.782633" lon="-122.498241" /><trkpt lat="37.782467" lon="-122.498304" /><trkpt lat="37.782300" lon="-122.498367" /><trkpt lat="37.782134" lon="-122.498431" /><trkpt lat="37.781967" lon="-122.498494" /><trkpt lat="37.781801" lon="-122.498557" /><trkpt lat="37.781634" lon="-122.498620" /><trkpt lat="37.781468" lon="-122.498683" /><trkpt lat="37.781301" lon="-122.498746" /><trkpt lat="37.781311" lon="-122.498525" /><trkpt lat="37.781322" lon="-122.498304" /><trkpt lat="37.781332" lon="-122.498084" /><trkpt lat="37.781343" lon="-122.497863" /><trkpt lat="37.781353" lon="-122.497642" /><trkpt lat="37.781364" lon="-122.497421" /><trkpt lat="37.781374" lon="-122.497201" /><trkpt lat="37.781385" lon="-122.496980" /><trkpt lat="37.781395" lon="-122.496759" /><trkpt lat="37.781399" lon="-122.496669" /><trkpt lat="37.781402" lon="-122.496595" /><trkpt lat="37.781413" lon="-122.496369" /><trkpt lat="37.781424" lon="-122.496142" /><trkpt lat="37.781436" lon="-122.495915" /><trkpt lat="37.781447" lon="-122.495689" /></trkseg></trk></gpx>