<?xml version="1.0" encoding="UTF-8"?>
<gpx version="1.1" creator="strava-api">
<trk><name>Lake Merced loop from the Boathouse</name><trkseg>
<trkpt lat="37.726550" lon="-122.502080"></trkpt>
<trkpt lat="37.726630" lon="-122.502180"></trkpt>
<trkpt lat="37.726680" lon="-122.502210"></trkpt>
<trkpt lat="37.726780" lon="-122.502210"></trkpt>
<trkpt lat="37.726930" lon="-122.502140"></trkpt>
<trkpt lat="37.727240" lon="-122.501920"></trkpt>
<trkpt lat="37.727320" lon="-122.501910"></trkpt>
<trkpt lat="37.727400" lon="-122.501870"></trkpt>
<trkpt lat="37.727610" lon="-122.501820"></trkpt>
<trkpt lat="37.727930" lon="-122.501710"></trkpt>
<trkpt lat="37.728410" lon="-122.501490"></trkpt>
<trkpt lat="37.728820" lon="-122.501270"></trkpt>
<trkpt lat="37.729680" lon="-122.500630"></trkpt>
<trkpt lat="37.730530" lon="-122.499820"></trkpt>
<trkpt lat="37.730760" lon="-122.499560"></trkpt>
<trkpt lat="37.731200" lon="-122.499090"></trkpt>
<trkpt lat="37.731230" lon="-122.499050"></trkpt>
<trkpt lat="37.731280" lon="-122.498780"></trkpt>
<trkpt lat="37.731280" lon="-122.498660"></trkpt>
<trkpt lat="37.731200" lon="-122.498470"></trkpt>
<trkpt lat="37.731120" lon="-122.498370"></trkpt>
<trkpt lat="37.730910" lon="-122.498250"></trkpt>
<trkpt lat="37.730200" lon="-122.497880"></trkpt>
<trkpt lat="37.729880" lon="-122.497750"></trkpt>
<trkpt lat="37.729460" lon="-122.497510"></trkpt>
<trkpt lat="37.729260" lon="-122.497330"></trkpt>
<trkpt lat="37.729090" lon="-122.497110"></trkpt>
<trkpt lat="37.728940" lon="-122.496790"></trkpt>
<trkpt lat="37.728880" lon="-122.496600"></trkpt>
<trkpt lat="37.728820" lon="-122.496310"></trkpt>
<trkpt lat="37.728820" lon="-122.496070"></trkpt>
<trkpt lat="37.728850" lon="-122.495870"></trkpt>
<trkpt lat="37.728840" lon="-122.495840"></trkpt>
<trkpt lat="37.729050" lon="-122.494940"></trkpt>
<trkpt lat="37.729080" lon="-122.494750"></trkpt>
<trkpt lat="37.729050" lon="-122.494370"></trkpt>
<trkpt lat="37.729020" lon="-122.494170"></trkpt>
<trkpt lat="37.728910" lon="-122.493950"></trkpt>
<trkpt lat="37.728780" lon="-122.493830"></trkpt>
<trkpt lat="37.728650" lon="-122.493820"></trkpt>
<trkpt lat="37.728480" lon="-122.493910"></trkpt>
<trkpt lat="37.728330" lon="-122.493930"></trkpt>
<trkpt lat="37.728180" lon="-122.493870"></trkpt>
<trkpt lat="37.728070" lon="-122.493660"></trkpt>
<trkpt lat="37.728050" lon="-122.493430"></trkpt>
<trkpt lat="37.728110" lon="-122.492940"></trkpt>
<trkpt lat="37.728230" lon="-122.492530"></trkpt>
<trkpt lat="37.728330" lon="-122.492330"></trkpt>
<trkpt lat="37.728630" lon="-122.491960"></trkpt>
<trkpt lat="37.728740" lon="-122.491460"></trkpt>
<trkpt lat="37.728830" lon="-122.491240"></trkpt>
<trkpt lat="37.728940" lon="-122.491050"></trkpt>
<trkpt lat="37.729120" lon="-122.490820"></trkpt>
<trkpt lat="37.729420" lon="-122.490510"></trkpt>
<trkpt lat="37.729960" lon="-122.490010"></trkpt>
<trkpt lat="37.730130" lon="-122.489720"></trkpt>
<trkpt lat="37.730210" lon="-122.489470"></trkpt>
<trkpt lat="37.730220" lon="-122.489390"></trkpt>
<trkpt lat="37.730220" lon="-122.489160"></trkpt>
<trkpt lat="37.730160" lon="-122.488880"></trkpt>
<trkpt lat="37.729750" lon="-122.487850"></trkpt>
<trkpt lat="37.729680" lon="-122.487640"></trkpt>
<trkpt lat="37.729400" lon="-122.486570"></trkpt>
<trkpt lat="37.729280" lon="-122.486180"></trkpt>
<trkpt lat="37.729190" lon="-122.485950"></trkpt>
<trkpt lat="37.729040" lon="-122.485670"></trkpt>
<trkpt lat="37.728860" lon="-122.485470"></trkpt>
<trkpt lat="37.728400" lon="-122.485110"></trkpt>
<trkpt lat="37.727630" lon="-122.484570"></trkpt>
<trkpt lat="37.727280" lon="-122.484290"></trkpt>
<trkpt lat="37.727090" lon="-122.484180"></trkpt>
<trkpt lat="37.727000" lon="-122.484150"></trkpt>
<trkpt lat="37.726800" lon="-122.484130"></trkpt>
<trkpt lat="37.726630" lon="-122.484150"></trkpt>
<trkpt lat="37.726470" lon="-122.484200"></trkpt>
<trkpt lat="37.725570" lon="-122.484610"></trkpt>
<trkpt lat="37.725290" lon="-122.484710"></trkpt>
<trkpt lat="37.724390" lon="-122.485100"></trkpt>
<trkpt lat="37.724250" lon="-122.485150"></trkpt>
<trkpt lat="37.723940" lon="-122.485220"></trkpt>
<trkpt lat="37.723790" lon="-122.485230"></trkpt>
<trkpt lat="37.722720" lon="-122.485260"></trkpt>
<trkpt lat="37.722130" lon="-122.485270"></trkpt>
<trkpt lat="37.721710" lon="-122.485250"></trkpt>
<trkpt lat="37.720870" lon="-122.485270"></trkpt>
<trkpt lat="37.720410" lon="-122.485250"></trkpt>
<trkpt lat="37.719720" lon="-122.485270"></trkpt>
<trkpt lat="37.718970" lon="-122.485240"></trkpt>
<trkpt lat="37.718090" lon="-122.485250"></trkpt>
<trkpt lat="37.717340" lon="-122.485240"></trkpt>
<trkpt lat="37.716690" lon="-122.485270"></trkpt>
<trkpt lat="37.715740" lon="-122.485390"></trkpt>
<trkpt lat="37.715550" lon="-122.485490"></trkpt>
<trkpt lat="37.715400" lon="-122.485590"></trkpt>
<trkpt lat="37.715220" lon="-122.485670"></trkpt>
<trkpt lat="37.714990" lon="-122.485720"></trkpt>
<trkpt lat="37.714780" lon="-122.485750"></trkpt>
<trkpt lat="37.714620" lon="-122.485750"></trkpt>
<trkpt lat="37.714450" lon="-122.485680"></trkpt>
<trkpt lat="37.714280" lon="-122.485540"></trkpt>
<trkpt lat="37.714110" lon="-122.485510"></trkpt>
<trkpt lat="37.713880" lon="-122.485520"></trkpt>
<trkpt lat="37.713720" lon="-122.485550"></trkpt>
<trkpt lat="37.713590" lon="-122.485670"></trkpt>
<trkpt lat="37.713450" lon="-122.485860"></trkpt>
<trkpt lat="37.713300" lon="-122.486000"></trkpt>
<trkpt lat="37.713110" lon="-122.486030"></trkpt>
<trkpt lat="37.712940" lon="-122.485960"></trkpt>
<trkpt lat="37.712810" lon="-122.485820"></trkpt>
<trkpt lat="37.712670" lon="-122.485650"></trkpt>
<trkpt lat="37.712500" lon="-122.485520"></trkpt>
<trkpt lat="37.712300" lon="-122.485520"></trkpt>
<trkpt lat="37.711710" lon="-122.485560"></trkpt>
<trkpt lat="37.711070" lon="-122.485570"></trkpt>
<trkpt lat="37.710730" lon="-122.485600"></trkpt>
<trkpt lat="37.710530" lon="-122.485600"></trkpt>
<trkpt lat="37.710350" lon="-122.485580"></trkpt>
<trkpt lat="37.709430" lon="-122.485370"></trkpt>
<trkpt lat="37.709200" lon="-122.485340"></trkpt>
<trkpt lat="37.709000" lon="-122.485340"></trkpt>
<trkpt lat="37.708850" lon="-122.485410"></trkpt>
<trkpt lat="37.708720" lon="-122.485530"></trkpt>
<trkpt lat="37.708610" lon="-122.485680"></trkpt>
<trkpt lat="37.708540" lon="-122.485850"></trkpt>
<trkpt lat="37.708490" lon="-122.486070"></trkpt>
<trkpt lat="37.708510" lon="-122.486350"></trkpt>
<trkpt lat="37.708680" lon="-122.486790"></trkpt>
<trkpt lat="37.708790" lon="-122.486990"></trkpt>
<trkpt lat="37.709040" lon="-122.487370"></trkpt>
<trkpt lat="37.709150" lon="-122.487510"></trkpt>
<trkpt lat="37.709270" lon="-122.487620"></trkpt>
<trkpt lat="37.709440" lon="-122.487730"></trkpt>
<trkpt lat="37.709610" lon="-122.487830"></trkpt>
<trkpt lat="37.710020" lon="-122.488030"></trkpt>
<trkpt lat="37.710320" lon="-122.488160"></trkpt>
<trkpt lat="37.710470" lon="-122.488200"></trkpt>
<trkpt lat="37.710990" lon="-122.488400"></trkpt>
<trkpt lat="37.711730" lon="-122.488750"></trkpt>
<trkpt lat="37.712120" lon="-122.488880"></trkpt>
<trkpt lat="37.712250" lon="-122.489000"></trkpt>
<trkpt lat="37.712390" lon="-122.489190"></trkpt>
<trkpt lat="37.712440" lon="-122.489300"></trkpt>
<trkpt lat="37.712440" lon="-122.489590"></trkpt>
<trkpt lat="37.712550" lon="-122.489760"></trkpt>
<trkpt lat="37.712870" lon="-122.490270"></trkpt>
<trkpt lat="37.713510" lon="-122.491110"></trkpt>
<trkpt lat="37.713870" lon="-122.491430"></trkpt>
<trkpt lat="37.714370" lon="-122.491780"></trkpt>
<trkpt lat="37.714830" lon="-122.492150"></trkpt>
<trkpt lat="37.715110" lon="-122.492440"></trkpt>
<trkpt lat="37.715390" lon="-122.492820"></trkpt>
<trkpt lat="37.715490" lon="-122.492980"></trkpt>
<trkpt lat="37.715660" lon="-122.493360"></trkpt>
<trkpt lat="37.715870" lon="-122.493920"></trkpt>
<trkpt lat="37.715940" lon="-122.494080"></trkpt>
<trkpt lat="37.716040" lon="-122.494430"></trkpt>
<trkpt lat="37.716160" lon="-122.495000"></trkpt>
<trkpt lat="37.716360" lon="-122.495600"></trkpt>
<trkpt lat="37.716410" lon="-122.495820"></trkpt>
<trkpt lat="37.716620" lon="-122.496490"></trkpt>
<trkpt lat="37.716670" lon="-122.496640"></trkpt>
<trkpt lat="37.716830" lon="-122.497240"></trkpt>
<trkpt lat="37.717010" lon="-122.497780"></trkpt>
<trkpt lat="37.717250" lon="-122.498280"></trkpt>
<trkpt lat="37.717340" lon="-122.498430"></trkpt>
<trkpt lat="37.717520" lon="-122.498630"></trkpt>
<trkpt lat="37.717950" lon="-122.499010"></trkpt>
<trkpt lat="37.718340" lon="-122.499220"></trkpt>
<trkpt lat="37.718580" lon="-122.499380"></trkpt>
<trkpt lat="37.719000" lon="-122.499640"></trkpt>
<trkpt lat="37.719320" lon="-122.499780"></trkpt>
<trkpt lat="37.719740" lon="-122.499920"></trkpt>
<trkpt lat="37.720580" lon="-122.500130"></trkpt>
<trkpt lat="37.721130" lon="-122.500420"></trkpt>
<trkpt lat="37.721550" lon="-122.500750"></trkpt>
<trkpt lat="37.721990" lon="-122.501180"></trkpt>
<trkpt lat="37.722130" lon="-122.501340"></trkpt>
<trkpt lat="37.722310" lon="-122.501480"></trkpt>
<trkpt lat="37.722790" lon="-122.501930"></trkpt>
<trkpt lat="37.723360" lon="-122.502380"></trkpt>
<trkpt lat="37.723680" lon="-122.502570"></trkpt>
<trkpt lat="37.724050" lon="-122.502700"></trkpt>
<trkpt lat="37.724390" lon="-122.502790"></trkpt>
<trkpt lat="37.724550" lon="-122.502810"></trkpt>
<trkpt lat="37.725000" lon="-122.502820"></trkpt>
<trkpt lat="37.725360" lon="-122.502780"></trkpt>
<trkpt lat="37.725620" lon="-122.502720"></trkpt>
<trkpt lat="37.726060" lon="-122.502570"></trkpt>
<trkpt lat="37.726440" lon="-122.502400"></trkpt>
<trkpt lat="37.726430" lon="-122.502360"></trkpt>
<trkpt lat="37.726430" lon="-122.502380"></trkpt>
<trkpt lat="37.726390" lon="-122.502380"></trkpt>
<trkpt lat="37.726390" lon="-122.502430"></trkpt>
<trkpt lat="37.726340" lon="-122.502460"></trkpt>
<trkpt lat="37.726360" lon="-122.502480"></trkpt>
<trkpt lat="37.726340" lon="-122.502460"></trkpt>
<trkpt lat="37.726280" lon="-122.502500"></trkpt>
</trkseg></trk>
</gpx>
