<?xml version="1.0" encoding="UTF-8"?>
<gpx version="1.1" creator="google-directions">
<trk><name>sf_lands_end</name><trkseg>
<trkpt lat="37.780410" lon="-122.513570"></trkpt>
<trkpt lat="37.780390" lon="-122.513560"></trkpt>
<trkpt lat="37.780380" lon="-122.513540"></trkpt>
<trkpt lat="37.780360" lon="-122.513520"></trkpt>
<trkpt lat="37.780340" lon="-122.513480"></trkpt>
<trkpt lat="37.780320" lon="-122.513470"></trkpt>
<trkpt lat="37.780300" lon="-122.513450"></trkpt>
<trkpt lat="37.780280" lon="-122.513430"></trkpt>
<trkpt lat="37.780260" lon="-122.513380"></trkpt>
<trkpt lat="37.780250" lon="-122.513340"></trkpt>
<trkpt lat="37.780250" lon="-122.513330"></trkpt>
<trkpt lat="37.780240" lon="-122.513310"></trkpt>
<trkpt lat="37.780230" lon="-122.513290"></trkpt>
<trkpt lat="37.780220" lon="-122.513280"></trkpt>
<trkpt lat="37.780200" lon="-122.513260"></trkpt>
<trkpt lat="37.780190" lon="-122.513250"></trkpt>
<trkpt lat="37.780180" lon="-122.513220"></trkpt>
<trkpt lat="37.780170" lon="-122.513210"></trkpt>
<trkpt lat="37.780170" lon="-122.513200"></trkpt>
<trkpt lat="37.780160" lon="-122.513190"></trkpt>
<trkpt lat="37.780160" lon="-122.513180"></trkpt>
<trkpt lat="37.780150" lon="-122.513170"></trkpt>
<trkpt lat="37.780150" lon="-122.513160"></trkpt>
<trkpt lat="37.780150" lon="-122.513090"></trkpt>
<trkpt lat="37.780250" lon="-122.513090"></trkpt>
<trkpt lat="37.780330" lon="-122.513110"></trkpt>
<trkpt lat="37.780400" lon="-122.513120"></trkpt>
<trkpt lat="37.780450" lon="-122.513110"></trkpt>
<trkpt lat="37.780500" lon="-122.513100"></trkpt>
<trkpt lat="37.780520" lon="-122.513100"></trkpt>
<trkpt lat="37.780540" lon="-122.513090"></trkpt>
<trkpt lat="37.780570" lon="-122.513100"></trkpt>
<trkpt lat="37.780610" lon="-122.513130"></trkpt>
<trkpt lat="37.780660" lon="-122.513180"></trkpt>
<trkpt lat="37.780690" lon="-122.513210"></trkpt>
<trkpt lat="37.780750" lon="-122.513290"></trkpt>
<trkpt lat="37.780790" lon="-122.513370"></trkpt>
<trkpt lat="37.780820" lon="-122.513460"></trkpt>
<trkpt lat="37.780830" lon="-122.513510"></trkpt>
<trkpt lat="37.780830" lon="-122.513570"></trkpt>
<trkpt lat="37.780830" lon="-122.513620"></trkpt>
<trkpt lat="37.780820" lon="-122.513670"></trkpt>
<trkpt lat="37.780820" lon="-122.513720"></trkpt>
<trkpt lat="37.780820" lon="-122.513770"></trkpt>
<trkpt lat="37.780830" lon="-122.513790"></trkpt>
<trkpt lat="37.780840" lon="-122.513850"></trkpt>
<trkpt lat="37.780850" lon="-122.513910"></trkpt>
<trkpt lat="37.780850" lon="-122.513960"></trkpt>
<trkpt lat="37.780850" lon="-122.514010"></trkpt>
<trkpt lat="37.780850" lon="-122.514020"></trkpt>
<trkpt lat="37.780840" lon="-122.514070"></trkpt>
<trkpt lat="37.780840" lon="-122.514110"></trkpt>
<trkpt lat="37.780850" lon="-122.514130"></trkpt>
<trkpt lat="37.780850" lon="-122.514140"></trkpt>
<trkpt lat="37.780850" lon="-122.514160"></trkpt>
<trkpt lat="37.780860" lon="-122.514170"></trkpt>
<trkpt lat="37.780860" lon="-122.514180"></trkpt>
<trkpt lat="37.780870" lon="-122.514190"></trkpt>
<trkpt lat="37.780880" lon="-122.514190"></trkpt>
<trkpt lat="37.780890" lon="-122.514200"></trkpt>
<trkpt lat="37.780900" lon="-122.514200"></trkpt>
<trkpt lat="37.780990" lon="-122.514200"></trkpt>
<trkpt lat="37.781020" lon="-122.514200"></trkpt>
<trkpt lat="37.781030" lon="-122.514190"></trkpt>
<trkpt lat="37.781040" lon="-122.514190"></trkpt>
<trkpt lat="37.781050" lon="-122.514180"></trkpt>
<trkpt lat="37.781050" lon="-122.514170"></trkpt>
<trkpt lat="37.781050" lon="-122.514140"></trkpt>
<trkpt lat="37.781050" lon="-122.514060"></trkpt>
<trkpt lat="37.781050" lon="-122.514040"></trkpt>
<trkpt lat="37.781060" lon="-122.514000"></trkpt>
<trkpt lat="37.781060" lon="-122.513970"></trkpt>
<trkpt lat="37.781060" lon="-122.513930"></trkpt>
<trkpt lat="37.781060" lon="-122.513890"></trkpt>
<trkpt lat="37.781060" lon="-122.513850"></trkpt>
<trkpt lat="37.781050" lon="-122.513760"></trkpt>
<trkpt lat="37.781050" lon="-122.513740"></trkpt>
<trkpt lat="37.781050" lon="-122.513730"></trkpt>
<trkpt lat="37.781040" lon="-122.513700"></trkpt>
<trkpt lat="37.781040" lon="-122.513680"></trkpt>
<trkpt lat="37.781040" lon="-122.513630"></trkpt>
<trkpt lat="37.781070" lon="-122.513580"></trkpt>
<trkpt lat="37.781070" lon="-122.513550"></trkpt>
<trkpt lat="37.781080" lon="-122.513530"></trkpt>
<trkpt lat="37.781080" lon="-122.513520"></trkpt>
<trkpt lat="37.781100" lon="-122.513380"></trkpt>
<trkpt lat="37.781110" lon="-122.513340"></trkpt>
<trkpt lat="37.781110" lon="-122.513330"></trkpt>
<trkpt lat="37.781110" lon="-122.513320"></trkpt>
<trkpt lat="37.781110" lon="-122.513310"></trkpt>
<trkpt lat="37.781110" lon="-122.513300"></trkpt>
<trkpt lat="37.781100" lon="-122.513300"></trkpt>
<trkpt lat="37.781100" lon="-122.513290"></trkpt>
<trkpt lat="37.781070" lon="-122.513260"></trkpt>
<trkpt lat="37.781070" lon="-122.513230"></trkpt>
<trkpt lat="37.781080" lon="-122.513160"></trkpt>
<trkpt lat="37.781080" lon="-122.513130"></trkpt>
<trkpt lat="37.781100" lon="-122.513110"></trkpt>
<trkpt lat="37.781150" lon="-122.513060"></trkpt>
<trkpt lat="37.781240" lon="-122.512950"></trkpt>
<trkpt lat="37.781280" lon="-122.512910"></trkpt>
<trkpt lat="37.781300" lon="-122.512890"></trkpt>
<trkpt lat="37.781320" lon="-122.512870"></trkpt>
<trkpt lat="37.781350" lon="-122.512860"></trkpt>
<trkpt lat="37.781370" lon="-122.512860"></trkpt>
<trkpt lat="37.781380" lon="-122.512860"></trkpt>
<trkpt lat="37.781390" lon="-122.512860"></trkpt>
<trkpt lat="37.781400" lon="-122.512870"></trkpt>
<trkpt lat="37.781420" lon="-122.512880"></trkpt>
<trkpt lat="37.781440" lon="-122.512890"></trkpt>
<trkpt lat="37.781450" lon="-122.512890"></trkpt>
<trkpt lat="37.781460" lon="-122.512900"></trkpt>
<trkpt lat="37.781480" lon="-122.512900"></trkpt>
<trkpt lat="37.781490" lon="-122.512890"></trkpt>
<trkpt lat="37.781530" lon="-122.512870"></trkpt>
<trkpt lat="37.781570" lon="-122.512850"></trkpt>
<trkpt lat="37.781660" lon="-122.512810"></trkpt>
<trkpt lat="37.781700" lon="-122.512790"></trkpt>
<trkpt lat="37.781720" lon="-122.512780"></trkpt>
<trkpt lat="37.781720" lon="-122.512770"></trkpt>
<trkpt lat="37.781730" lon="-122.512760"></trkpt>
<trkpt lat="37.781730" lon="-122.512750"></trkpt>
<trkpt lat="37.781730" lon="-122.512730"></trkpt>
<trkpt lat="37.781660" lon="-122.512420"></trkpt>
<trkpt lat="37.781660" lon="-122.512410"></trkpt>
<trkpt lat="37.781660" lon="-122.512360"></trkpt>
<trkpt lat="37.781660" lon="-122.512320"></trkpt>
<trkpt lat="37.781660" lon="-122.512300"></trkpt>
<trkpt lat="37.781650" lon="-122.512280"></trkpt>
<trkpt lat="37.781620" lon="-122.512240"></trkpt>
<trkpt lat="37.781600" lon="-122.512180"></trkpt>
<trkpt lat="37.781720" lon="-122.512160"></trkpt>
<trkpt lat="37.781830" lon="-122.512130"></trkpt>
<trkpt lat="37.781880" lon="-122.512110"></trkpt>
<trkpt lat="37.781930" lon="-122.512090"></trkpt>
<trkpt lat="37.781940" lon="-122.512080"></trkpt>
<trkpt lat="37.781940" lon="-122.512070"></trkpt>
<trkpt lat="37.781950" lon="-122.512070"></trkpt>
<trkpt lat="37.781950" lon="-122.512060"></trkpt>
<trkpt lat="37.781950" lon="-122.512050"></trkpt>
<trkpt lat="37.781950" lon="-122.512040"></trkpt>
<trkpt lat="37.781950" lon="-122.512030"></trkpt>
<trkpt lat="37.781940" lon="-122.512010"></trkpt>
<trkpt lat="37.781990" lon="-122.511930"></trkpt>
<trkpt lat="37.782040" lon="-122.511810"></trkpt>
<trkpt lat="37.782070" lon="-122.511750"></trkpt>
<trkpt lat="37.782150" lon="-122.511630"></trkpt>
<trkpt lat="37.782200" lon="-122.511580"></trkpt>
<trkpt lat="37.782300" lon="-122.511590"></trkpt>
<trkpt lat="37.782370" lon="-122.511640"></trkpt>
<trkpt lat="37.782430" lon="-122.511680"></trkpt>
<trkpt lat="37.782480" lon="-122.511710"></trkpt>
<trkpt lat="37.782510" lon="-122.511740"></trkpt>
<trkpt lat="37.782530" lon="-122.511750"></trkpt>
<trkpt lat="37.782540" lon="-122.511750"></trkpt>
<trkpt lat="37.782560" lon="-122.511760"></trkpt>
<trkpt lat="37.782590" lon="-122.511770"></trkpt>
<trkpt lat="37.782620" lon="-122.511780"></trkpt>
<trkpt lat="37.782660" lon="-122.511780"></trkpt>
<trkpt lat="37.782690" lon="-122.511780"></trkpt>
<trkpt lat="37.782700" lon="-122.511780"></trkpt>
<trkpt lat="37.782740" lon="-122.511790"></trkpt>
<trkpt lat="37.782790" lon="-122.511790"></trkpt>
<trkpt lat="37.782830" lon="-122.511800"></trkpt>
<trkpt lat="37.782860" lon="-122.511800"></trkpt>
<trkpt lat="37.782870" lon="-122.511790"></trkpt>
<trkpt lat="37.782890" lon="-122.511790"></trkpt>
<trkpt lat="37.782920" lon="-122.511780"></trkpt>
<trkpt lat="37.782960" lon="-122.511760"></trkpt>
<trkpt lat="37.783010" lon="-122.511730"></trkpt>
<trkpt lat="37.783040" lon="-122.511720"></trkpt>
<trkpt lat="37.783050" lon="-122.511710"></trkpt>
<trkpt lat="37.783090" lon="-122.511690"></trkpt>
<trkpt lat="37.783140" lon="-122.511660"></trkpt>
<trkpt lat="37.783170" lon="-122.511640"></trkpt>
<trkpt lat="37.783190" lon="-122.511620"></trkpt>
<trkpt lat="37.783200" lon="-122.511610"></trkpt>
<trkpt lat="37.783210" lon="-122.511600"></trkpt>
<trkpt lat="37.783220" lon="-122.511590"></trkpt>
<trkpt lat="37.783240" lon="-122.511570"></trkpt>
<trkpt lat="37.783250" lon="-122.511560"></trkpt>
<trkpt lat="37.783270" lon="-122.511520"></trkpt>
<trkpt lat="37.783290" lon="-122.511480"></trkpt>
<trkpt lat="37.783320" lon="-122.511440"></trkpt>
<trkpt lat="37.783330" lon="-122.511410"></trkpt>
<trkpt lat="37.783350" lon="-122.511380"></trkpt>
<trkpt lat="37.783370" lon="-122.511330"></trkpt>
<trkpt lat="37.783380" lon="-122.511290"></trkpt>
<trkpt lat="37.783400" lon="-122.511240"></trkpt>
<trkpt lat="37.783420" lon="-122.511180"></trkpt>
<trkpt lat="37.783420" lon="-122.511170"></trkpt>
<trkpt lat="37.783430" lon="-122.511140"></trkpt>
<trkpt lat="37.783440" lon="-122.511120"></trkpt>
<trkpt lat="37.783440" lon="-122.511110"></trkpt>
<trkpt lat="37.783440" lon="-122.511100"></trkpt>
<trkpt lat="37.783440" lon="-122.511090"></trkpt>
<trkpt lat="37.783450" lon="-122.511070"></trkpt>
<trkpt lat="37.783450" lon="-122.511020"></trkpt>
<trkpt lat="37.783460" lon="-122.510990"></trkpt>
<trkpt lat="37.783460" lon="-122.510960"></trkpt>
<trkpt lat="37.783470" lon="-122.510930"></trkpt>
<trkpt lat="37.783490" lon="-122.510780"></trkpt>
<trkpt lat="37.783500" lon="-122.510700"></trkpt>
<trkpt lat="37.783500" lon="-122.510690"></trkpt>
<trkpt lat="37.783500" lon="-122.510600"></trkpt>
<trkpt lat="37.783500" lon="-122.510510"></trkpt>
<trkpt lat="37.783500" lon="-122.510420"></trkpt>
<trkpt lat="37.783500" lon="-122.510380"></trkpt>
<trkpt lat="37.783500" lon="-122.510360"></trkpt>
<trkpt lat="37.783510" lon="-122.510340"></trkpt>
<trkpt lat="37.783510" lon="-122.510320"></trkpt>
<trkpt lat="37.783510" lon="-122.510300"></trkpt>
<trkpt lat="37.783510" lon="-122.510280"></trkpt>
<trkpt lat="37.783520" lon="-122.510260"></trkpt>
<trkpt lat="37.783520" lon="-122.510250"></trkpt>
<trkpt lat="37.783530" lon="-122.510230"></trkpt>
<trkpt lat="37.783540" lon="-122.510210"></trkpt>
<trkpt lat="37.783550" lon="-122.510190"></trkpt>
<trkpt lat="37.783560" lon="-122.510170"></trkpt>
<trkpt lat="37.783580" lon="-122.510140"></trkpt>
<trkpt lat="37.783600" lon="-122.510120"></trkpt>
<trkpt lat="37.783620" lon="-122.510080"></trkpt>
<trkpt lat="37.783670" lon="-122.510020"></trkpt>
<trkpt lat="37.783740" lon="-122.509930"></trkpt>
<trkpt lat="37.783750" lon="-122.509900"></trkpt>
<trkpt lat="37.783780" lon="-122.509860"></trkpt>
<trkpt lat="37.783820" lon="-122.509800"></trkpt>
<trkpt lat="37.783850" lon="-122.509760"></trkpt>
<trkpt lat="37.783870" lon="-122.509730"></trkpt>
<trkpt lat="37.783900" lon="-122.509680"></trkpt>
<trkpt lat="37.783920" lon="-122.509640"></trkpt>
<trkpt lat="37.783940" lon="-122.509600"></trkpt>
<trkpt lat="37.783980" lon="-122.509530"></trkpt>
<trkpt lat="37.784010" lon="-122.509450"></trkpt>
<trkpt lat="37.784050" lon="-122.509340"></trkpt>
<trkpt lat="37.784110" lon="-122.509200"></trkpt>
<trkpt lat="37.784200" lon="-122.508970"></trkpt>
<trkpt lat="37.784250" lon="-122.508870"></trkpt>
<trkpt lat="37.784280" lon="-122.508790"></trkpt>
<trkpt lat="37.784320" lon="-122.508700"></trkpt>
<trkpt lat="37.784350" lon="-122.508640"></trkpt>
<trkpt lat="37.784370" lon="-122.508590"></trkpt>
<trkpt lat="37.784370" lon="-122.508580"></trkpt>
<trkpt lat="37.784390" lon="-122.508530"></trkpt>
<trkpt lat="37.784420" lon="-122.508420"></trkpt>
<trkpt lat="37.784430" lon="-122.508370"></trkpt>
<trkpt lat="37.784450" lon="-122.508280"></trkpt>
<trkpt lat="37.784460" lon="-122.508190"></trkpt>
<trkpt lat="37.784470" lon="-122.508160"></trkpt>
<trkpt lat="37.784470" lon="-122.508150"></trkpt>
<trkpt lat="37.784470" lon="-122.508130"></trkpt>
<trkpt lat="37.784480" lon="-122.508110"></trkpt>
<trkpt lat="37.784490" lon="-122.508070"></trkpt>
<trkpt lat="37.784520" lon="-122.508000"></trkpt>
<trkpt lat="37.784540" lon="-122.507940"></trkpt>
<trkpt lat="37.784560" lon="-122.507900"></trkpt>
<trkpt lat="37.784610" lon="-122.507830"></trkpt>
<trkpt lat="37.784630" lon="-122.507800"></trkpt>
<trkpt lat="37.784650" lon="-122.507760"></trkpt>
<trkpt lat="37.784660" lon="-122.507710"></trkpt>
<trkpt lat="37.784650" lon="-122.507670"></trkpt>
<trkpt lat="37.784640" lon="-122.507630"></trkpt>
<trkpt lat="37.784640" lon="-122.507590"></trkpt>
<trkpt lat="37.784630" lon="-122.507550"></trkpt>
<trkpt lat="37.784630" lon="-122.507510"></trkpt>
<trkpt lat="37.784620" lon="-122.507460"></trkpt>
<trkpt lat="37.784610" lon="-122.507410"></trkpt>
<trkpt lat="37.784590" lon="-122.507360"></trkpt>
<trkpt lat="37.784570" lon="-122.507290"></trkpt>
<trkpt lat="37.784560" lon="-122.507250"></trkpt>
<trkpt lat="37.784550" lon="-122.507220"></trkpt>
<trkpt lat="37.784550" lon="-122.507190"></trkpt>
<trkpt lat="37.784530" lon="-122.507110"></trkpt>
<trkpt lat="37.784530" lon="-122.507060"></trkpt>
<trkpt lat="37.784520" lon="-122.507000"></trkpt>
<trkpt lat="37.784520" lon="-122.506930"></trkpt>
<trkpt lat="37.784520" lon="-122.506870"></trkpt>
<trkpt lat="37.784520" lon="-122.506850"></trkpt>
<trkpt lat="37.784530" lon="-122.506820"></trkpt>
<trkpt lat="37.784530" lon="-122.506790"></trkpt>
<trkpt lat="37.784540" lon="-122.506760"></trkpt>
<trkpt lat="37.784550" lon="-122.506720"></trkpt>
<trkpt lat="37.784560" lon="-122.506710"></trkpt>
<trkpt lat="37.784580" lon="-122.506630"></trkpt>
<trkpt lat="37.784610" lon="-122.506570"></trkpt>
<trkpt lat="37.784610" lon="-122.506560"></trkpt>
<trkpt lat="37.784620" lon="-122.506540"></trkpt>
<trkpt lat="37.784620" lon="-122.506530"></trkpt>
<trkpt lat="37.784620" lon="-122.506490"></trkpt>
<trkpt lat="37.784630" lon="-122.506470"></trkpt>
<trkpt lat="37.784630" lon="-122.506420"></trkpt>
<trkpt lat="37.784630" lon="-122.506380"></trkpt>
<trkpt lat="37.784630" lon="-122.506350"></trkpt>
<trkpt lat="37.784620" lon="-122.506320"></trkpt>
<trkpt lat="37.784620" lon="-122.506310"></trkpt>
<trkpt lat="37.784630" lon="-122.506280"></trkpt>
<trkpt lat="37.784630" lon="-122.506240"></trkpt>
<trkpt lat="37.784630" lon="-122.506180"></trkpt>
<trkpt lat="37.784630" lon="-122.506140"></trkpt>
<trkpt lat="37.784630" lon="-122.506090"></trkpt>
<trkpt lat="37.784630" lon="-122.506080"></trkpt>
<trkpt lat="37.784630" lon="-122.506050"></trkpt>
<trkpt lat="37.784630" lon="-122.506010"></trkpt>
<trkpt lat="37.784630" lon="-122.505990"></trkpt>
<trkpt lat="37.784640" lon="-122.505970"></trkpt>
<trkpt lat="37.784650" lon="-122.505930"></trkpt>
<trkpt lat="37.784690" lon="-122.505880"></trkpt>
<trkpt lat="37.784690" lon="-122.505870"></trkpt>
<trkpt lat="37.784710" lon="-122.505840"></trkpt>
<trkpt lat="37.784720" lon="-122.505830"></trkpt>
<trkpt lat="37.784740" lon="-122.505820"></trkpt>
<trkpt lat="37.784750" lon="-122.505810"></trkpt>
<trkpt lat="37.784830" lon="-122.505750"></trkpt>
<trkpt lat="37.784830" lon="-122.505740"></trkpt>
<trkpt lat="37.784840" lon="-122.505730"></trkpt>
<trkpt lat="37.784860" lon="-122.505710"></trkpt>
<trkpt lat="37.784880" lon="-122.505680"></trkpt>
<trkpt lat="37.784890" lon="-122.505640"></trkpt>
<trkpt lat="37.784920" lon="-122.505590"></trkpt>
<trkpt lat="37.784930" lon="-122.505550"></trkpt>
<trkpt lat="37.784970" lon="-122.505510"></trkpt>
<trkpt lat="37.785000" lon="-122.505470"></trkpt>
<trkpt lat="37.785030" lon="-122.505440"></trkpt>
<trkpt lat="37.785060" lon="-122.505390"></trkpt>
<trkpt lat="37.785090" lon="-122.505340"></trkpt>
<trkpt lat="37.785170" lon="-122.505220"></trkpt>
<trkpt lat="37.785170" lon="-122.505210"></trkpt>
<trkpt lat="37.785190" lon="-122.505190"></trkpt>
<trkpt lat="37.785200" lon="-122.505170"></trkpt>
<trkpt lat="37.785210" lon="-122.505160"></trkpt>
<trkpt lat="37.785230" lon="-122.505150"></trkpt>
<trkpt lat="37.785240" lon="-122.505140"></trkpt>
<trkpt lat="37.785250" lon="-122.505140"></trkpt>
<trkpt lat="37.785280" lon="-122.505140"></trkpt>
<trkpt lat="37.785330" lon="-122.505140"></trkpt>
<trkpt lat="37.785520" lon="-122.505150"></trkpt>
<trkpt lat="37.785540" lon="-122.505150"></trkpt>
<trkpt lat="37.785560" lon="-122.505160"></trkpt>
<trkpt lat="37.785590" lon="-122.505170"></trkpt>
<trkpt lat="37.785620" lon="-122.505190"></trkpt>
<trkpt lat="37.785640" lon="-122.505210"></trkpt>
<trkpt lat="37.785680" lon="-122.505220"></trkpt>
<trkpt lat="37.785700" lon="-122.505220"></trkpt>
<trkpt lat="37.785720" lon="-122.505230"></trkpt>
<trkpt lat="37.785750" lon="-122.505230"></trkpt>
<trkpt lat="37.785830" lon="-122.505230"></trkpt>
<trkpt lat="37.785890" lon="-122.505200"></trkpt>
<trkpt lat="37.785930" lon="-122.505160"></trkpt>
<trkpt lat="37.785970" lon="-122.505120"></trkpt>
<trkpt lat="37.786000" lon="-122.505120"></trkpt>
<trkpt lat="37.786020" lon="-122.505120"></trkpt>
<trkpt lat="37.786080" lon="-122.505140"></trkpt>
<trkpt lat="37.786100" lon="-122.505160"></trkpt>
<trkpt lat="37.786120" lon="-122.505160"></trkpt>
<trkpt lat="37.786120" lon="-122.505170"></trkpt>
<trkpt lat="37.786130" lon="-122.505170"></trkpt>
<trkpt lat="37.786140" lon="-122.505180"></trkpt>
<trkpt lat="37.786150" lon="-122.505200"></trkpt>
<trkpt lat="37.786180" lon="-122.505200"></trkpt>
<trkpt lat="37.786210" lon="-122.505200"></trkpt>
<trkpt lat="37.786250" lon="-122.505200"></trkpt>
<trkpt lat="37.786260" lon="-122.505200"></trkpt>
<trkpt lat="37.786320" lon="-122.505190"></trkpt>
<trkpt lat="37.786350" lon="-122.505190"></trkpt>
<trkpt lat="37.786430" lon="-122.505170"></trkpt>
<trkpt lat="37.786520" lon="-122.505160"></trkpt>
<trkpt lat="37.786530" lon="-122.505150"></trkpt>
<trkpt lat="37.786570" lon="-122.505130"></trkpt>
<trkpt lat="37.786600" lon="-122.505100"></trkpt>
<trkpt lat="37.786620" lon="-122.505080"></trkpt>
<trkpt lat="37.786640" lon="-122.505060"></trkpt>
<trkpt lat="37.786670" lon="-122.505020"></trkpt>
<trkpt lat="37.786680" lon="-122.505010"></trkpt>
<trkpt lat="37.786690" lon="-122.504990"></trkpt>
<trkpt lat="37.786720" lon="-122.504930"></trkpt>
<trkpt lat="37.786740" lon="-122.504890"></trkpt>
<trkpt lat="37.786760" lon="-122.504810"></trkpt>
<trkpt lat="37.786780" lon="-122.504700"></trkpt>
<trkpt lat="37.786800" lon="-122.504610"></trkpt>
<trkpt lat="37.786790" lon="-122.504590"></trkpt>
<trkpt lat="37.786790" lon="-122.504520"></trkpt>
<trkpt lat="37.786810" lon="-122.504380"></trkpt>
<trkpt lat="37.786810" lon="-122.504360"></trkpt>
<trkpt lat="37.786820" lon="-122.504200"></trkpt>
<trkpt lat="37.786820" lon="-122.504140"></trkpt>
<trkpt lat="37.786820" lon="-122.504080"></trkpt>
<trkpt lat="37.786830" lon="-122.504000"></trkpt>
<trkpt lat="37.786850" lon="-122.503910"></trkpt>
<trkpt lat="37.786870" lon="-122.503830"></trkpt>
<trkpt lat="37.786890" lon="-122.503730"></trkpt>
<trkpt lat="37.786900" lon="-122.503690"></trkpt>
<trkpt lat="37.786920" lon="-122.503620"></trkpt>
<trkpt lat="37.786970" lon="-122.503510"></trkpt>
<trkpt lat="37.786970" lon="-122.503490"></trkpt>
<trkpt lat="37.787000" lon="-122.503420"></trkpt>
<trkpt lat="37.787050" lon="-122.503280"></trkpt>
<trkpt lat="37.787060" lon="-122.503240"></trkpt>
<trkpt lat="37.787110" lon="-122.503070"></trkpt>
<trkpt lat="37.787140" lon="-122.502990"></trkpt>
<trkpt lat="37.787150" lon="-122.502970"></trkpt>
<trkpt lat="37.787160" lon="-122.502950"></trkpt>
<trkpt lat="37.787170" lon="-122.502930"></trkpt>
<trkpt lat="37.787170" lon="-122.502900"></trkpt>
<trkpt lat="37.787170" lon="-122.502840"></trkpt>
<trkpt lat="37.787180" lon="-122.502820"></trkpt>
<trkpt lat="37.787190" lon="-122.502760"></trkpt>
<trkpt lat="37.787210" lon="-122.502730"></trkpt>
<trkpt lat="37.787210" lon="-122.502720"></trkpt>
<trkpt lat="37.787210" lon="-122.502710"></trkpt>
<trkpt lat="37.787220" lon="-122.502690"></trkpt>
<trkpt lat="37.787220" lon="-122.502660"></trkpt>
<trkpt lat="37.787220" lon="-122.502630"></trkpt>
<trkpt lat="37.787220" lon="-122.502610"></trkpt>
<trkpt lat="37.787230" lon="-122.502600"></trkpt>
<trkpt lat="37.787230" lon="-122.502580"></trkpt>
<trkpt lat="37.787230" lon="-122.502570"></trkpt>
<trkpt lat="37.787230" lon="-122.502560"></trkpt>
<trkpt lat="37.787250" lon="-122.502510"></trkpt>
<trkpt lat="37.787270" lon="-122.502440"></trkpt>
<trkpt lat="37.787290" lon="-122.502350"></trkpt>
<trkpt lat="37.787300" lon="-122.502290"></trkpt>
<trkpt lat="37.787310" lon="-122.502270"></trkpt>
<trkpt lat="37.787330" lon="-122.502230"></trkpt>
<trkpt lat="37.787340" lon="-122.502200"></trkpt>
<trkpt lat="37.787350" lon="-122.502170"></trkpt>
<trkpt lat="37.787360" lon="-122.502150"></trkpt>
<trkpt lat="37.787370" lon="-122.502080"></trkpt>
<trkpt lat="37.787370" lon="-122.502070"></trkpt>
<trkpt lat="37.787360" lon="-122.501990"></trkpt>
<trkpt lat="37.787350" lon="-122.501920"></trkpt>
<trkpt lat="37.787350" lon="-122.501900"></trkpt>
<trkpt lat="37.787350" lon="-122.501860"></trkpt>
<trkpt lat="37.787340" lon="-122.501830"></trkpt>
<trkpt lat="37.787350" lon="-122.501780"></trkpt>
<trkpt lat="37.787350" lon="-122.501700"></trkpt>
<trkpt lat="37.787350" lon="-122.501660"></trkpt>
<trkpt lat="37.787340" lon="-122.501630"></trkpt>
<trkpt lat="37.787340" lon="-122.501620"></trkpt>
<trkpt lat="37.787330" lon="-122.501600"></trkpt>
<trkpt lat="37.787310" lon="-122.501540"></trkpt>
<trkpt lat="37.787290" lon="-122.501490"></trkpt>
<trkpt lat="37.787280" lon="-122.501490"></trkpt>
<trkpt lat="37.787260" lon="-122.501450"></trkpt>
<trkpt lat="37.787250" lon="-122.501430"></trkpt>
<trkpt lat="37.787170" lon="-122.501320"></trkpt>
<trkpt lat="37.787170" lon="-122.501310"></trkpt>
<trkpt lat="37.787140" lon="-122.501260"></trkpt>
<trkpt lat="37.787090" lon="-122.501200"></trkpt>
<trkpt lat="37.787050" lon="-122.501160"></trkpt>
<trkpt lat="37.787040" lon="-122.501150"></trkpt>
<trkpt lat="37.787030" lon="-122.501140"></trkpt>
<trkpt lat="37.787020" lon="-122.501130"></trkpt>
<trkpt lat="37.787010" lon="-122.501120"></trkpt>
<trkpt lat="37.787010" lon="-122.501090"></trkpt>
<trkpt lat="37.787020" lon="-122.501070"></trkpt>
<trkpt lat="37.787030" lon="-122.501060"></trkpt>
<trkpt lat="37.787070" lon="-122.501020"></trkpt>
<trkpt lat="37.787110" lon="-122.501010"></trkpt>
<trkpt lat="37.787140" lon="-122.500990"></trkpt>
<trkpt lat="37.787150" lon="-122.500980"></trkpt>
<trkpt lat="37.787230" lon="-122.500920"></trkpt>
<trkpt lat="37.787270" lon="-122.500910"></trkpt>
<trkpt lat="37.787300" lon="-122.500880"></trkpt>
<trkpt lat="37.787310" lon="-122.500870"></trkpt>
<trkpt lat="37.787320" lon="-122.500850"></trkpt>
<trkpt lat="37.787330" lon="-122.500820"></trkpt>
<trkpt lat="37.787350" lon="-122.500780"></trkpt>
<trkpt lat="37.787360" lon="-122.500740"></trkpt>
<trkpt lat="37.787360" lon="-122.500720"></trkpt>
<trkpt lat="37.787350" lon="-122.500690"></trkpt>
<trkpt lat="37.787350" lon="-122.500660"></trkpt>
<trkpt lat="37.787350" lon="-122.500640"></trkpt>
<trkpt lat="37.787330" lon="-122.500570"></trkpt>
<trkpt lat="37.787320" lon="-122.500500"></trkpt>
<trkpt lat="37.787310" lon="-122.500490"></trkpt>
<trkpt lat="37.787310" lon="-122.500440"></trkpt>
<trkpt lat="37.787300" lon="-122.500420"></trkpt>
<trkpt lat="37.787310" lon="-122.500370"></trkpt>
<trkpt lat="37.787320" lon="-122.500340"></trkpt>
<trkpt lat="37.787320" lon="-122.500320"></trkpt>
<trkpt lat="37.787330" lon="-122.500310"></trkpt>
<trkpt lat="37.787340" lon="-122.500300"></trkpt>
<trkpt lat="37.787350" lon="-122.500290"></trkpt>
<trkpt lat="37.787360" lon="-122.500280"></trkpt>
<trkpt lat="37.787380" lon="-122.500260"></trkpt>
<trkpt lat="37.787390" lon="-122.500250"></trkpt>
<trkpt lat="37.787400" lon="-122.500240"></trkpt>
<trkpt lat="37.787430" lon="-122.500180"></trkpt>
<trkpt lat="37.787450" lon="-122.500140"></trkpt>
<trkpt lat="37.787460" lon="-122.500120"></trkpt>
<trkpt lat="37.787480" lon="-122.500060"></trkpt>
<trkpt lat="37.787490" lon="-122.500050"></trkpt>
<trkpt lat="37.787510" lon="-122.500000"></trkpt>
<trkpt lat="37.787530" lon="-122.499970"></trkpt>
<trkpt lat="37.787550" lon="-122.499940"></trkpt>
<trkpt lat="37.787560" lon="-122.499940"></trkpt>
<trkpt lat="37.787570" lon="-122.499940"></trkpt>
<trkpt lat="37.787580" lon="-122.499930"></trkpt>
<trkpt lat="37.787590" lon="-122.499930"></trkpt>
<trkpt lat="37.787610" lon="-122.499930"></trkpt>
<trkpt lat="37.787620" lon="-122.499930"></trkpt>
<trkpt lat="37.787640" lon="-122.499930"></trkpt>
<trkpt lat="37.787650" lon="-122.499930"></trkpt>
<trkpt lat="37.787660" lon="-122.499920"></trkpt>
<trkpt lat="37.787670" lon="-122.499920"></trkpt>
<trkpt lat="37.787690" lon="-122.499910"></trkpt>
<trkpt lat="37.787700" lon="-122.499900"></trkpt>
<trkpt lat="37.787710" lon="-122.499880"></trkpt>
<trkpt lat="37.787720" lon="-122.499870"></trkpt>
<trkpt lat="37.787720" lon="-122.499860"></trkpt>
<trkpt lat="37.787730" lon="-122.499830"></trkpt>
<trkpt lat="37.787730" lon="-122.499790"></trkpt>
<trkpt lat="37.787740" lon="-122.499760"></trkpt>
<trkpt lat="37.787740" lon="-122.499710"></trkpt>
<trkpt lat="37.787760" lon="-122.499570"></trkpt>
<trkpt lat="37.787770" lon="-122.499460"></trkpt>
<trkpt lat="37.787770" lon="-122.499410"></trkpt>
<trkpt lat="37.787770" lon="-122.499370"></trkpt>
<trkpt lat="37.787760" lon="-122.499340"></trkpt>
<trkpt lat="37.787750" lon="-122.499290"></trkpt>
<trkpt lat="37.787710" lon="-122.499200"></trkpt>
<trkpt lat="37.787700" lon="-122.499190"></trkpt>
<trkpt lat="37.787690" lon="-122.499140"></trkpt>
<trkpt lat="37.787680" lon="-122.499110"></trkpt>
<trkpt lat="37.787650" lon="-122.499030"></trkpt>
<trkpt lat="37.787640" lon="-122.498990"></trkpt>
<trkpt lat="37.787630" lon="-122.498980"></trkpt>
<trkpt lat="37.787610" lon="-122.498930"></trkpt>
<trkpt lat="37.787600" lon="-122.498910"></trkpt>
<trkpt lat="37.787560" lon="-122.498840"></trkpt>
<trkpt lat="37.787520" lon="-122.498740"></trkpt>
<trkpt lat="37.787490" lon="-122.498670"></trkpt>
<trkpt lat="37.787450" lon="-122.498600"></trkpt>
<trkpt lat="37.787430" lon="-122.498540"></trkpt>
<trkpt lat="37.787360" lon="-122.498400"></trkpt>
<trkpt lat="37.787330" lon="-122.498350"></trkpt>
<trkpt lat="37.787310" lon="-122.498320"></trkpt>
<trkpt lat="37.787250" lon="-122.498220"></trkpt>
<trkpt lat="37.787230" lon="-122.498190"></trkpt>
<trkpt lat="37.787220" lon="-122.498170"></trkpt>
<trkpt lat="37.787120" lon="-122.498070"></trkpt>
<trkpt lat="37.787080" lon="-122.498030"></trkpt>
<trkpt lat="37.787040" lon="-122.498000"></trkpt>
<trkpt lat="37.786980" lon="-122.497920"></trkpt>
<trkpt lat="37.786940" lon="-122.497880"></trkpt>
<trkpt lat="37.786840" lon="-122.497780"></trkpt>
<trkpt lat="37.786830" lon="-122.497760"></trkpt>
<trkpt lat="37.786800" lon="-122.497740"></trkpt>
<trkpt lat="37.786780" lon="-122.497700"></trkpt>
<trkpt lat="37.786740" lon="-122.497650"></trkpt>
<trkpt lat="37.786720" lon="-122.497610"></trkpt>
<trkpt lat="37.786700" lon="-122.497570"></trkpt>
<trkpt lat="37.786700" lon="-122.497560"></trkpt>
<trkpt lat="37.786690" lon="-122.497550"></trkpt>
<trkpt lat="37.786690" lon="-122.497530"></trkpt>
<trkpt lat="37.786690" lon="-122.497520"></trkpt>
<trkpt lat="37.786690" lon="-122.497500"></trkpt>
<trkpt lat="37.786680" lon="-122.497480"></trkpt>
<trkpt lat="37.786660" lon="-122.497420"></trkpt>
<trkpt lat="37.786650" lon="-122.497410"></trkpt>
<trkpt lat="37.786640" lon="-122.497360"></trkpt>
<trkpt lat="37.786630" lon="-122.497350"></trkpt>
<trkpt lat="37.786630" lon="-122.497320"></trkpt>
<trkpt lat="37.786610" lon="-122.497270"></trkpt>
<trkpt lat="37.786610" lon="-122.497230"></trkpt>
<trkpt lat="37.786610" lon="-122.497190"></trkpt>
<trkpt lat="37.786610" lon="-122.497130"></trkpt>
<trkpt lat="37.786610" lon="-122.497120"></trkpt>
<trkpt lat="37.786610" lon="-122.497060"></trkpt>
<trkpt lat="37.786610" lon="-122.496960"></trkpt>
<trkpt lat="37.786610" lon="-122.496900"></trkpt>
<trkpt lat="37.786610" lon="-122.496820"></trkpt>
<trkpt lat="37.786610" lon="-122.496730"></trkpt>
<trkpt lat="37.786610" lon="-122.496720"></trkpt>
<trkpt lat="37.786620" lon="-122.496670"></trkpt>
<trkpt lat="37.786620" lon="-122.496630"></trkpt>
<trkpt lat="37.786630" lon="-122.496590"></trkpt>
<trkpt lat="37.786630" lon="-122.496540"></trkpt>
<trkpt lat="37.786630" lon="-122.496510"></trkpt>
<trkpt lat="37.786630" lon="-122.496500"></trkpt>
<trkpt lat="37.786630" lon="-122.496470"></trkpt>
<trkpt lat="37.786620" lon="-122.496440"></trkpt>
<trkpt lat="37.786620" lon="-122.496410"></trkpt>
<trkpt lat="37.786610" lon="-122.496380"></trkpt>
<trkpt lat="37.786600" lon="-122.496330"></trkpt>
<trkpt lat="37.786600" lon="-122.496280"></trkpt>
<trkpt lat="37.786590" lon="-122.496230"></trkpt>
<trkpt lat="37.786590" lon="-122.496220"></trkpt>
<trkpt lat="37.786560" lon="-122.496140"></trkpt>
<trkpt lat="37.786560" lon="-122.496090"></trkpt>
<trkpt lat="37.786560" lon="-122.496070"></trkpt>
<trkpt lat="37.786560" lon="-122.496060"></trkpt>
<trkpt lat="37.786560" lon="-122.496030"></trkpt>
<trkpt lat="37.786560" lon="-122.496020"></trkpt>
<trkpt lat="37.786570" lon="-122.496000"></trkpt>
<trkpt lat="37.786580" lon="-122.495940"></trkpt>
<trkpt lat="37.786590" lon="-122.495850"></trkpt>
<trkpt lat="37.786590" lon="-122.495840"></trkpt>
<trkpt lat="37.786600" lon="-122.495780"></trkpt>
<trkpt lat="37.786620" lon="-122.495620"></trkpt>
<trkpt lat="37.786630" lon="-122.495500"></trkpt>
<trkpt lat="37.786630" lon="-122.495390"></trkpt>
<trkpt lat="37.786640" lon="-122.495320"></trkpt>
<trkpt lat="37.786650" lon="-122.495160"></trkpt>
<trkpt lat="37.786650" lon="-122.495100"></trkpt>
<trkpt lat="37.786660" lon="-122.494950"></trkpt>
<trkpt lat="37.786660" lon="-122.494930"></trkpt>
<trkpt lat="37.786670" lon="-122.494710"></trkpt>
<trkpt lat="37.786660" lon="-122.494650"></trkpt>
<trkpt lat="37.786650" lon="-122.494590"></trkpt>
<trkpt lat="37.786630" lon="-122.494540"></trkpt>
<trkpt lat="37.786550" lon="-122.494410"></trkpt>
<trkpt lat="37.786510" lon="-122.494350"></trkpt>
<trkpt lat="37.786490" lon="-122.494280"></trkpt>
<trkpt lat="37.786470" lon="-122.494210"></trkpt>
<trkpt lat="37.786460" lon="-122.494130"></trkpt>
<trkpt lat="37.786440" lon="-122.494030"></trkpt>
<trkpt lat="37.786390" lon="-122.494080"></trkpt>
<trkpt lat="37.786310" lon="-122.494160"></trkpt>
<trkpt lat="37.786210" lon="-122.494290"></trkpt>
<trkpt lat="37.786160" lon="-122.494360"></trkpt>
<trkpt lat="37.786170" lon="-122.494370"></trkpt>
<trkpt lat="37.786160" lon="-122.494390"></trkpt>
<trkpt lat="37.786100" lon="-122.494500"></trkpt>
<trkpt lat="37.786090" lon="-122.494520"></trkpt>
<trkpt lat="37.786070" lon="-122.494550"></trkpt>
<trkpt lat="37.786060" lon="-122.494570"></trkpt>
<trkpt lat="37.786030" lon="-122.494640"></trkpt>
<trkpt lat="37.786000" lon="-122.494690"></trkpt>
<trkpt lat="37.785990" lon="-122.494720"></trkpt>
<trkpt lat="37.785970" lon="-122.494770"></trkpt>
<trkpt lat="37.785960" lon="-122.494820"></trkpt>
<trkpt lat="37.785940" lon="-122.494870"></trkpt>
<trkpt lat="37.785930" lon="-122.494930"></trkpt>
<trkpt lat="37.785930" lon="-122.494990"></trkpt>
<trkpt lat="37.785920" lon="-122.495010"></trkpt>
<trkpt lat="37.785910" lon="-122.495100"></trkpt>
<trkpt lat="37.785890" lon="-122.495370"></trkpt>
<trkpt lat="37.785880" lon="-122.495410"></trkpt>
<trkpt lat="37.785870" lon="-122.495530"></trkpt>
<trkpt lat="37.785870" lon="-122.495630"></trkpt>
<trkpt lat="37.785860" lon="-122.495730"></trkpt>
<trkpt lat="37.785860" lon="-122.495780"></trkpt>
<trkpt lat="37.785860" lon="-122.495870"></trkpt>
<trkpt lat="37.785860" lon="-122.495910"></trkpt>
<trkpt lat="37.785860" lon="-122.496040"></trkpt>
<trkpt lat="37.785860" lon="-122.496080"></trkpt>
<trkpt lat="37.785870" lon="-122.496120"></trkpt>
<trkpt lat="37.785870" lon="-122.496150"></trkpt>
<trkpt lat="37.785930" lon="-122.496400"></trkpt>
<trkpt lat="37.785950" lon="-122.496490"></trkpt>
<trkpt lat="37.785970" lon="-122.496560"></trkpt>
<trkpt lat="37.785980" lon="-122.496630"></trkpt>
<trkpt lat="37.785990" lon="-122.496660"></trkpt>
<trkpt lat="37.786040" lon="-122.496790"></trkpt>
<trkpt lat="37.786050" lon="-122.496830"></trkpt>
<trkpt lat="37.786090" lon="-122.496980"></trkpt>
<trkpt lat="37.786130" lon="-122.497080"></trkpt>
<trkpt lat="37.786130" lon="-122.497090"></trkpt>
<trkpt lat="37.786170" lon="-122.497200"></trkpt>
<trkpt lat="37.786170" lon="-122.497230"></trkpt>
<trkpt lat="37.786200" lon="-122.497300"></trkpt>
<trkpt lat="37.786240" lon="-122.497430"></trkpt>
<trkpt lat="37.786240" lon="-122.497440"></trkpt>
<trkpt lat="37.786260" lon="-122.497480"></trkpt>
<trkpt lat="37.786260" lon="-122.497490"></trkpt>
<trkpt lat="37.786270" lon="-122.497510"></trkpt>
<trkpt lat="37.786300" lon="-122.497630"></trkpt>
<trkpt lat="37.786350" lon="-122.497780"></trkpt>
<trkpt lat="37.786370" lon="-122.497880"></trkpt>
<trkpt lat="37.786400" lon="-122.497970"></trkpt>
<trkpt lat="37.786410" lon="-122.498010"></trkpt>
<trkpt lat="37.786430" lon="-122.498070"></trkpt>
<trkpt lat="37.786440" lon="-122.498150"></trkpt>
<trkpt lat="37.786460" lon="-122.498240"></trkpt>
<trkpt lat="37.786470" lon="-122.498320"></trkpt>
<trkpt lat="37.786480" lon="-122.498380"></trkpt>
<trkpt lat="37.786490" lon="-122.498440"></trkpt>
<trkpt lat="37.786490" lon="-122.498490"></trkpt>
<trkpt lat="37.786500" lon="-122.498540"></trkpt>
<trkpt lat="37.786500" lon="-122.498620"></trkpt>
<trkpt lat="37.786500" lon="-122.498650"></trkpt>
<trkpt lat="37.786500" lon="-122.498750"></trkpt>
<trkpt lat="37.786510" lon="-122.498820"></trkpt>
<trkpt lat="37.786500" lon="-122.498860"></trkpt>
<trkpt lat="37.786500" lon="-122.498880"></trkpt>
<trkpt lat="37.786500" lon="-122.498950"></trkpt>
<trkpt lat="37.786500" lon="-122.499010"></trkpt>
<trkpt lat="37.786490" lon="-122.499090"></trkpt>
<trkpt lat="37.786490" lon="-122.499120"></trkpt>
<trkpt lat="37.786480" lon="-122.499170"></trkpt>
<trkpt lat="37.786470" lon="-122.499210"></trkpt>
<trkpt lat="37.786470" lon="-122.499250"></trkpt>
<trkpt lat="37.786440" lon="-122.499340"></trkpt>
<trkpt lat="37.786420" lon="-122.499390"></trkpt>
<trkpt lat="37.786410" lon="-122.499420"></trkpt>
<trkpt lat="37.786400" lon="-122.499460"></trkpt>
<trkpt lat="37.786250" lon="-122.499720"></trkpt>
<trkpt lat="37.786180" lon="-122.499820"></trkpt>
<trkpt lat="37.786090" lon="-122.499940"></trkpt>
<trkpt lat="37.786010" lon="-122.500040"></trkpt>
<trkpt lat="37.785950" lon="-122.500150"></trkpt>
<trkpt lat="37.785890" lon="-122.500220"></trkpt>
<trkpt lat="37.785830" lon="-122.500310"></trkpt>
<trkpt lat="37.785790" lon="-122.500360"></trkpt>
<trkpt lat="37.785740" lon="-122.500430"></trkpt>
<trkpt lat="37.785710" lon="-122.500530"></trkpt>
<trkpt lat="37.785570" lon="-122.500390"></trkpt>
<trkpt lat="37.785550" lon="-122.500420"></trkpt>
<trkpt lat="37.785480" lon="-122.500550"></trkpt>
<trkpt lat="37.785400" lon="-122.500680"></trkpt>
<trkpt lat="37.785360" lon="-122.500760"></trkpt>
<trkpt lat="37.785320" lon="-122.500740"></trkpt>
<trkpt lat="37.785280" lon="-122.500740"></trkpt>
<trkpt lat="37.785270" lon="-122.500740"></trkpt>
<trkpt lat="37.785230" lon="-122.500750"></trkpt>
<trkpt lat="37.785210" lon="-122.500760"></trkpt>
<trkpt lat="37.785190" lon="-122.500760"></trkpt>
<trkpt lat="37.785190" lon="-122.500740"></trkpt>
<trkpt lat="37.785160" lon="-122.500670"></trkpt>
<trkpt lat="37.785140" lon="-122.500640"></trkpt>
<trkpt lat="37.785130" lon="-122.500620"></trkpt>
<trkpt lat="37.784990" lon="-122.500480"></trkpt>
<trkpt lat="37.784830" lon="-122.500340"></trkpt>
<trkpt lat="37.784790" lon="-122.500390"></trkpt>
<trkpt lat="37.784740" lon="-122.500470"></trkpt>
<trkpt lat="37.784780" lon="-122.500530"></trkpt>
<trkpt lat="37.784730" lon="-122.500610"></trkpt>
<trkpt lat="37.784640" lon="-122.500740"></trkpt>
<trkpt lat="37.784680" lon="-122.500780"></trkpt>
<trkpt lat="37.784680" lon="-122.500790"></trkpt>
<trkpt lat="37.784640" lon="-122.500850"></trkpt>
<trkpt lat="37.784590" lon="-122.500800"></trkpt>
<trkpt lat="37.784570" lon="-122.500820"></trkpt>
</trkseg></trk>
</gpx>
