<?xml version="1.0" encoding="UTF-8"?>
<gpx version="1.1" creator="google-directions">
<trk><name>sf_ocean_beach</name><trkseg>
<trkpt lat="37.735640" lon="-122.504500"></trkpt>
<trkpt lat="37.735650" lon="-122.504870"></trkpt>
<trkpt lat="37.735650" lon="-122.505140"></trkpt>
<trkpt lat="37.735650" lon="-122.505190"></trkpt>
<trkpt lat="37.735660" lon="-122.505190"></trkpt>
<trkpt lat="37.735660" lon="-122.505380"></trkpt>
<trkpt lat="37.735640" lon="-122.505380"></trkpt>
<trkpt lat="37.735640" lon="-122.505740"></trkpt>
<trkpt lat="37.735640" lon="-122.505830"></trkpt>
<trkpt lat="37.735640" lon="-122.505960"></trkpt>
<trkpt lat="37.735640" lon="-122.506020"></trkpt>
<trkpt lat="37.735640" lon="-122.506090"></trkpt>
<trkpt lat="37.735660" lon="-122.506100"></trkpt>
<trkpt lat="37.735660" lon="-122.506240"></trkpt>
<trkpt lat="37.735640" lon="-122.506230"></trkpt>
<trkpt lat="37.735640" lon="-122.506280"></trkpt>
<trkpt lat="37.735640" lon="-122.506450"></trkpt>
<trkpt lat="37.735640" lon="-122.506500"></trkpt>
<trkpt lat="37.735630" lon="-122.506550"></trkpt>
<trkpt lat="37.735630" lon="-122.506590"></trkpt>
<trkpt lat="37.735630" lon="-122.506620"></trkpt>
<trkpt lat="37.735710" lon="-122.506620"></trkpt>
<trkpt lat="37.735900" lon="-122.506630"></trkpt>
<trkpt lat="37.735980" lon="-122.506640"></trkpt>
<trkpt lat="37.736030" lon="-122.506640"></trkpt>
<trkpt lat="37.736120" lon="-122.506650"></trkpt>
<trkpt lat="37.736290" lon="-122.506670"></trkpt>
<trkpt lat="37.736410" lon="-122.506680"></trkpt>
<trkpt lat="37.736630" lon="-122.506710"></trkpt>
<trkpt lat="37.736690" lon="-122.506720"></trkpt>
<trkpt lat="37.737030" lon="-122.506760"></trkpt>
<trkpt lat="37.737100" lon="-122.506770"></trkpt>
<trkpt lat="37.737200" lon="-122.506790"></trkpt>
<trkpt lat="37.737530" lon="-122.506830"></trkpt>
<trkpt lat="37.737600" lon="-122.506850"></trkpt>
<trkpt lat="37.737730" lon="-122.506870"></trkpt>
<trkpt lat="37.737960" lon="-122.506900"></trkpt>
<trkpt lat="37.738000" lon="-122.506900"></trkpt>
<trkpt lat="37.738090" lon="-122.506910"></trkpt>
<trkpt lat="37.738160" lon="-122.506910"></trkpt>
<trkpt lat="37.738220" lon="-122.506920"></trkpt>
<trkpt lat="37.738570" lon="-122.506960"></trkpt>
<trkpt lat="37.738830" lon="-122.507000"></trkpt>
<trkpt lat="37.739600" lon="-122.507100"></trkpt>
<trkpt lat="37.740150" lon="-122.507170"></trkpt>
<trkpt lat="37.740290" lon="-122.507190"></trkpt>
<trkpt lat="37.740410" lon="-122.507200"></trkpt>
<trkpt lat="37.740740" lon="-122.507240"></trkpt>
<trkpt lat="37.741270" lon="-122.507310"></trkpt>
<trkpt lat="37.741340" lon="-122.507330"></trkpt>
<trkpt lat="37.741640" lon="-122.507380"></trkpt>
<trkpt lat="37.741700" lon="-122.507380"></trkpt>
<trkpt lat="37.741930" lon="-122.507410"></trkpt>
<trkpt lat="37.742000" lon="-122.507410"></trkpt>
<trkpt lat="37.742630" lon="-122.507490"></trkpt>
<trkpt lat="37.742890" lon="-122.507520"></trkpt>
<trkpt lat="37.743340" lon="-122.507580"></trkpt>
<trkpt lat="37.743420" lon="-122.507590"></trkpt>
<trkpt lat="37.744220" lon="-122.507700"></trkpt>
<trkpt lat="37.744820" lon="-122.507770"></trkpt>
<trkpt lat="37.744890" lon="-122.507790"></trkpt>
<trkpt lat="37.745040" lon="-122.507810"></trkpt>
<trkpt lat="37.745110" lon="-122.507820"></trkpt>
<trkpt lat="37.745370" lon="-122.507860"></trkpt>
<trkpt lat="37.745430" lon="-122.507870"></trkpt>
<trkpt lat="37.745660" lon="-122.507900"></trkpt>
<trkpt lat="37.745730" lon="-122.507890"></trkpt>
<trkpt lat="37.746320" lon="-122.507970"></trkpt>
<trkpt lat="37.746780" lon="-122.508030"></trkpt>
<trkpt lat="37.746840" lon="-122.508030"></trkpt>
<trkpt lat="37.747230" lon="-122.508080"></trkpt>
<trkpt lat="37.747290" lon="-122.508090"></trkpt>
<trkpt lat="37.747940" lon="-122.508180"></trkpt>
<trkpt lat="37.748460" lon="-122.508250"></trkpt>
<trkpt lat="37.748520" lon="-122.508250"></trkpt>
<trkpt lat="37.748780" lon="-122.508290"></trkpt>
<trkpt lat="37.748850" lon="-122.508310"></trkpt>
<trkpt lat="37.749090" lon="-122.508340"></trkpt>
<trkpt lat="37.749150" lon="-122.508350"></trkpt>
<trkpt lat="37.749430" lon="-122.508380"></trkpt>
<trkpt lat="37.749500" lon="-122.508380"></trkpt>
<trkpt lat="37.750430" lon="-122.508500"></trkpt>
<trkpt lat="37.750630" lon="-122.508530"></trkpt>
<trkpt lat="37.750690" lon="-122.508530"></trkpt>
<trkpt lat="37.750770" lon="-122.508540"></trkpt>
<trkpt lat="37.750840" lon="-122.508550"></trkpt>
<trkpt lat="37.750960" lon="-122.508570"></trkpt>
<trkpt lat="37.751040" lon="-122.508580"></trkpt>
<trkpt lat="37.751120" lon="-122.508590"></trkpt>
<trkpt lat="37.751150" lon="-122.508590"></trkpt>
<trkpt lat="37.751210" lon="-122.508600"></trkpt>
<trkpt lat="37.751450" lon="-122.508630"></trkpt>
<trkpt lat="37.751510" lon="-122.508640"></trkpt>
<trkpt lat="37.751850" lon="-122.508680"></trkpt>
<trkpt lat="37.751870" lon="-122.508690"></trkpt>
<trkpt lat="37.751930" lon="-122.508690"></trkpt>
<trkpt lat="37.752520" lon="-122.508770"></trkpt>
<trkpt lat="37.752590" lon="-122.508790"></trkpt>
<trkpt lat="37.752830" lon="-122.508830"></trkpt>
<trkpt lat="37.752860" lon="-122.508830"></trkpt>
<trkpt lat="37.753280" lon="-122.508880"></trkpt>
<trkpt lat="37.753350" lon="-122.508880"></trkpt>
<trkpt lat="37.753920" lon="-122.508950"></trkpt>
<trkpt lat="37.754050" lon="-122.508970"></trkpt>
<trkpt lat="37.754670" lon="-122.509050"></trkpt>
<trkpt lat="37.755920" lon="-122.509210"></trkpt>
<trkpt lat="37.755980" lon="-122.509220"></trkpt>
<trkpt lat="37.756220" lon="-122.509250"></trkpt>
<trkpt lat="37.756290" lon="-122.509270"></trkpt>
<trkpt lat="37.756520" lon="-122.509300"></trkpt>
<trkpt lat="37.756580" lon="-122.509310"></trkpt>
<trkpt lat="37.756860" lon="-122.509350"></trkpt>
<trkpt lat="37.756920" lon="-122.509350"></trkpt>
<trkpt lat="37.757110" lon="-122.509370"></trkpt>
<trkpt lat="37.757180" lon="-122.509380"></trkpt>
<trkpt lat="37.758160" lon="-122.509500"></trkpt>
<trkpt lat="37.758390" lon="-122.509530"></trkpt>
<trkpt lat="37.758460" lon="-122.509540"></trkpt>
<trkpt lat="37.759050" lon="-122.509620"></trkpt>
<trkpt lat="37.759110" lon="-122.509630"></trkpt>
<trkpt lat="37.759630" lon="-122.509700"></trkpt>
<trkpt lat="37.759690" lon="-122.509700"></trkpt>
<trkpt lat="37.759810" lon="-122.509720"></trkpt>
<trkpt lat="37.759880" lon="-122.509740"></trkpt>
<trkpt lat="37.760230" lon="-122.509780"></trkpt>
<trkpt lat="37.760270" lon="-122.509790"></trkpt>
<trkpt lat="37.760540" lon="-122.509820"></trkpt>
<trkpt lat="37.760610" lon="-122.509820"></trkpt>
<trkpt lat="37.760860" lon="-122.509860"></trkpt>
<trkpt lat="37.760930" lon="-122.509860"></trkpt>
<trkpt lat="37.761440" lon="-122.509930"></trkpt>
<trkpt lat="37.761500" lon="-122.509940"></trkpt>
<trkpt lat="37.761840" lon="-122.509980"></trkpt>
<trkpt lat="37.762080" lon="-122.510010"></trkpt>
<trkpt lat="37.762150" lon="-122.510020"></trkpt>
<trkpt lat="37.763140" lon="-122.510150"></trkpt>
<trkpt lat="37.763210" lon="-122.510160"></trkpt>
<trkpt lat="37.763270" lon="-122.510160"></trkpt>
<trkpt lat="37.763460" lon="-122.510180"></trkpt>
<trkpt lat="37.763520" lon="-122.510190"></trkpt>
<trkpt lat="37.763570" lon="-122.510200"></trkpt>
<trkpt lat="37.763630" lon="-122.510200"></trkpt>
<trkpt lat="37.763700" lon="-122.510210"></trkpt>
<trkpt lat="37.763870" lon="-122.510230"></trkpt>
<trkpt lat="37.763900" lon="-122.510230"></trkpt>
<trkpt lat="37.763900" lon="-122.510190"></trkpt>
<trkpt lat="37.763920" lon="-122.510190"></trkpt>
<trkpt lat="37.764100" lon="-122.510210"></trkpt>
<trkpt lat="37.764100" lon="-122.510310"></trkpt>
<trkpt lat="37.764150" lon="-122.510240"></trkpt>
<trkpt lat="37.764180" lon="-122.510220"></trkpt>
<trkpt lat="37.764200" lon="-122.510210"></trkpt>
<trkpt lat="37.764230" lon="-122.510210"></trkpt>
<trkpt lat="37.764260" lon="-122.510210"></trkpt>
<trkpt lat="37.764300" lon="-122.510210"></trkpt>
<trkpt lat="37.764350" lon="-122.510200"></trkpt>
<trkpt lat="37.764430" lon="-122.510180"></trkpt>
<trkpt lat="37.764580" lon="-122.510140"></trkpt>
<trkpt lat="37.764650" lon="-122.510130"></trkpt>
<trkpt lat="37.764720" lon="-122.510120"></trkpt>
<trkpt lat="37.764820" lon="-122.510100"></trkpt>
<trkpt lat="37.764880" lon="-122.510100"></trkpt>
<trkpt lat="37.765070" lon="-122.510090"></trkpt>
<trkpt lat="37.765120" lon="-122.510090"></trkpt>
<trkpt lat="37.765130" lon="-122.510090"></trkpt>
<trkpt lat="37.765140" lon="-122.510090"></trkpt>
<trkpt lat="37.765290" lon="-122.510090"></trkpt>
<trkpt lat="37.765480" lon="-122.510090"></trkpt>
<trkpt lat="37.766020" lon="-122.510120"></trkpt>
<trkpt lat="37.766380" lon="-122.510140"></trkpt>
<trkpt lat="37.766830" lon="-122.510170"></trkpt>
<trkpt lat="37.767130" lon="-122.510210"></trkpt>
<trkpt lat="37.767460" lon="-122.510240"></trkpt>
<trkpt lat="37.767550" lon="-122.510260"></trkpt>
<trkpt lat="37.767590" lon="-122.510260"></trkpt>
<trkpt lat="37.767630" lon="-122.510270"></trkpt>
<trkpt lat="37.767750" lon="-122.510300"></trkpt>
<trkpt lat="37.767860" lon="-122.510330"></trkpt>
<trkpt lat="37.767930" lon="-122.510340"></trkpt>
<trkpt lat="37.768260" lon="-122.510380"></trkpt>
<trkpt lat="37.768430" lon="-122.510410"></trkpt>
<trkpt lat="37.768630" lon="-122.510470"></trkpt>
<trkpt lat="37.768650" lon="-122.510470"></trkpt>
<trkpt lat="37.768710" lon="-122.510490"></trkpt>
<trkpt lat="37.768740" lon="-122.510500"></trkpt>
<trkpt lat="37.768750" lon="-122.510500"></trkpt>
<trkpt lat="37.769190" lon="-122.510590"></trkpt>
<trkpt lat="37.769310" lon="-122.510610"></trkpt>
<trkpt lat="37.769440" lon="-122.510630"></trkpt>
<trkpt lat="37.769940" lon="-122.510700"></trkpt>
<trkpt lat="37.770010" lon="-122.510710"></trkpt>
<trkpt lat="37.770330" lon="-122.510770"></trkpt>
<trkpt lat="37.770370" lon="-122.510780"></trkpt>
<trkpt lat="37.770540" lon="-122.510790"></trkpt>
<trkpt lat="37.770560" lon="-122.510790"></trkpt>
<trkpt lat="37.770640" lon="-122.510770"></trkpt>
<trkpt lat="37.770730" lon="-122.510760"></trkpt>
<trkpt lat="37.770930" lon="-122.510740"></trkpt>
<trkpt lat="37.770970" lon="-122.510760"></trkpt>
<trkpt lat="37.771100" lon="-122.510800"></trkpt>
<trkpt lat="37.771180" lon="-122.510810"></trkpt>
<trkpt lat="37.771240" lon="-122.510830"></trkpt>
<trkpt lat="37.771250" lon="-122.510830"></trkpt>
<trkpt lat="37.771260" lon="-122.510840"></trkpt>
<trkpt lat="37.771270" lon="-122.510850"></trkpt>
<trkpt lat="37.771280" lon="-122.510860"></trkpt>
<trkpt lat="37.771280" lon="-122.510830"></trkpt>
<trkpt lat="37.771280" lon="-122.510840"></trkpt>
<trkpt lat="37.771450" lon="-122.510870"></trkpt>
<trkpt lat="37.771480" lon="-122.510820"></trkpt>
<trkpt lat="37.771490" lon="-122.510810"></trkpt>
<trkpt lat="37.771510" lon="-122.510800"></trkpt>
<trkpt lat="37.771530" lon="-122.510790"></trkpt>
<trkpt lat="37.771610" lon="-122.510770"></trkpt>
<trkpt lat="37.771710" lon="-122.510760"></trkpt>
<trkpt lat="37.771730" lon="-122.510760"></trkpt>
<trkpt lat="37.771760" lon="-122.510770"></trkpt>
<trkpt lat="37.771870" lon="-122.510800"></trkpt>
<trkpt lat="37.771910" lon="-122.510810"></trkpt>
<trkpt lat="37.771930" lon="-122.510810"></trkpt>
<trkpt lat="37.771950" lon="-122.510800"></trkpt>
<trkpt lat="37.771990" lon="-122.510790"></trkpt>
<trkpt lat="37.772060" lon="-122.510790"></trkpt>
<trkpt lat="37.772080" lon="-122.510790"></trkpt>
<trkpt lat="37.772120" lon="-122.510790"></trkpt>
<trkpt lat="37.772250" lon="-122.510820"></trkpt>
<trkpt lat="37.772320" lon="-122.510840"></trkpt>
<trkpt lat="37.772440" lon="-122.510860"></trkpt>
<trkpt lat="37.772620" lon="-122.510890"></trkpt>
<trkpt lat="37.772910" lon="-122.510920"></trkpt>
<trkpt lat="37.772940" lon="-122.510920"></trkpt>
<trkpt lat="37.772970" lon="-122.510900"></trkpt>
<trkpt lat="37.773010" lon="-122.510860"></trkpt>
<trkpt lat="37.773060" lon="-122.510800"></trkpt>
<trkpt lat="37.773120" lon="-122.510770"></trkpt>
<trkpt lat="37.773170" lon="-122.510750"></trkpt>
<trkpt lat="37.773360" lon="-122.510780"></trkpt>
<trkpt lat="37.773590" lon="-122.510810"></trkpt>
<trkpt lat="37.773360" lon="-122.510780"></trkpt>
<trkpt lat="37.773170" lon="-122.510750"></trkpt>
<trkpt lat="37.773120" lon="-122.510770"></trkpt>
<trkpt lat="37.773060" lon="-122.510800"></trkpt>
<trkpt lat="37.773010" lon="-122.510860"></trkpt>
<trkpt lat="37.772960" lon="-122.510910"></trkpt>
<trkpt lat="37.772930" lon="-122.510920"></trkpt>
<trkpt lat="37.772910" lon="-122.510920"></trkpt>
<trkpt lat="37.772620" lon="-122.510890"></trkpt>
<trkpt lat="37.772440" lon="-122.510860"></trkpt>
<trkpt lat="37.772320" lon="-122.510840"></trkpt>
<trkpt lat="37.772250" lon="-122.510820"></trkpt>
<trkpt lat="37.772120" lon="-122.510790"></trkpt>
<trkpt lat="37.772080" lon="-122.510790"></trkpt>
<trkpt lat="37.772060" lon="-122.510790"></trkpt>
<trkpt lat="37.771990" lon="-122.510790"></trkpt>
<trkpt lat="37.771950" lon="-122.510800"></trkpt>
<trkpt lat="37.771930" lon="-122.510810"></trkpt>
<trkpt lat="37.771910" lon="-122.510810"></trkpt>
<trkpt lat="37.771870" lon="-122.510800"></trkpt>
<trkpt lat="37.771760" lon="-122.510770"></trkpt>
<trkpt lat="37.771730" lon="-122.510760"></trkpt>
<trkpt lat="37.771710" lon="-122.510760"></trkpt>
<trkpt lat="37.771610" lon="-122.510770"></trkpt>
<trkpt lat="37.771530" lon="-122.510790"></trkpt>
<trkpt lat="37.771510" lon="-122.510800"></trkpt>
<trkpt lat="37.771490" lon="-122.510810"></trkpt>
<trkpt lat="37.771450" lon="-122.510870"></trkpt>
<trkpt lat="37.771280" lon="-122.510830"></trkpt>
<trkpt lat="37.771280" lon="-122.510860"></trkpt>
<trkpt lat="37.771270" lon="-122.510850"></trkpt>
<trkpt lat="37.771260" lon="-122.510840"></trkpt>
<trkpt lat="37.771250" lon="-122.510830"></trkpt>
<trkpt lat="37.771240" lon="-122.510830"></trkpt>
<trkpt lat="37.771180" lon="-122.510810"></trkpt>
<trkpt lat="37.771100" lon="-122.510800"></trkpt>
<trkpt lat="37.770970" lon="-122.510760"></trkpt>
<trkpt lat="37.770930" lon="-122.510740"></trkpt>
<trkpt lat="37.770730" lon="-122.510760"></trkpt>
<trkpt lat="37.770640" lon="-122.510770"></trkpt>
<trkpt lat="37.770540" lon="-122.510790"></trkpt>
<trkpt lat="37.770550" lon="-122.510800"></trkpt>
<trkpt lat="37.770380" lon="-122.510790"></trkpt>
<trkpt lat="37.770380" lon="-122.510780"></trkpt>
<trkpt lat="37.770350" lon="-122.510770"></trkpt>
<trkpt lat="37.770330" lon="-122.510770"></trkpt>
<trkpt lat="37.770010" lon="-122.510710"></trkpt>
<trkpt lat="37.769940" lon="-122.510700"></trkpt>
<trkpt lat="37.769440" lon="-122.510630"></trkpt>
<trkpt lat="37.769310" lon="-122.510610"></trkpt>
<trkpt lat="37.769190" lon="-122.510590"></trkpt>
<trkpt lat="37.768750" lon="-122.510500"></trkpt>
<trkpt lat="37.768740" lon="-122.510500"></trkpt>
<trkpt lat="37.768710" lon="-122.510490"></trkpt>
<trkpt lat="37.768650" lon="-122.510470"></trkpt>
<trkpt lat="37.768630" lon="-122.510470"></trkpt>
<trkpt lat="37.768430" lon="-122.510410"></trkpt>
<trkpt lat="37.768260" lon="-122.510380"></trkpt>
<trkpt lat="37.767930" lon="-122.510340"></trkpt>
<trkpt lat="37.767860" lon="-122.510330"></trkpt>
<trkpt lat="37.767750" lon="-122.510300"></trkpt>
<trkpt lat="37.767630" lon="-122.510270"></trkpt>
<trkpt lat="37.767590" lon="-122.510260"></trkpt>
<trkpt lat="37.767550" lon="-122.510260"></trkpt>
<trkpt lat="37.767460" lon="-122.510240"></trkpt>
<trkpt lat="37.767130" lon="-122.510210"></trkpt>
<trkpt lat="37.766830" lon="-122.510170"></trkpt>
<trkpt lat="37.766380" lon="-122.510140"></trkpt>
<trkpt lat="37.766020" lon="-122.510120"></trkpt>
<trkpt lat="37.765480" lon="-122.510090"></trkpt>
<trkpt lat="37.765290" lon="-122.510090"></trkpt>
<trkpt lat="37.765140" lon="-122.510090"></trkpt>
<trkpt lat="37.765130" lon="-122.510090"></trkpt>
<trkpt lat="37.765120" lon="-122.510090"></trkpt>
<trkpt lat="37.765070" lon="-122.510090"></trkpt>
<trkpt lat="37.764880" lon="-122.510100"></trkpt>
<trkpt lat="37.764820" lon="-122.510100"></trkpt>
<trkpt lat="37.764720" lon="-122.510120"></trkpt>
<trkpt lat="37.764650" lon="-122.510130"></trkpt>
<trkpt lat="37.764580" lon="-122.510140"></trkpt>
<trkpt lat="37.764430" lon="-122.510180"></trkpt>
<trkpt lat="37.764350" lon="-122.510200"></trkpt>
<trkpt lat="37.764300" lon="-122.510210"></trkpt>
<trkpt lat="37.764260" lon="-122.510210"></trkpt>
<trkpt lat="37.764230" lon="-122.510210"></trkpt>
<trkpt lat="37.764200" lon="-122.510210"></trkpt>
<trkpt lat="37.764180" lon="-122.510220"></trkpt>
<trkpt lat="37.764150" lon="-122.510240"></trkpt>
<trkpt lat="37.764140" lon="-122.510260"></trkpt>
<trkpt lat="37.764100" lon="-122.510310"></trkpt>
<trkpt lat="37.764100" lon="-122.510210"></trkpt>
<trkpt lat="37.763920" lon="-122.510190"></trkpt>
<trkpt lat="37.763900" lon="-122.510190"></trkpt>
<trkpt lat="37.763900" lon="-122.510230"></trkpt>
<trkpt lat="37.763870" lon="-122.510230"></trkpt>
<trkpt lat="37.763700" lon="-122.510210"></trkpt>
<trkpt lat="37.763630" lon="-122.510200"></trkpt>
<trkpt lat="37.763570" lon="-122.510200"></trkpt>
<trkpt lat="37.763520" lon="-122.510190"></trkpt>
<trkpt lat="37.763460" lon="-122.510180"></trkpt>
<trkpt lat="37.763270" lon="-122.510160"></trkpt>
<trkpt lat="37.763210" lon="-122.510160"></trkpt>
<trkpt lat="37.763140" lon="-122.510150"></trkpt>
<trkpt lat="37.762150" lon="-122.510020"></trkpt>
<trkpt lat="37.762080" lon="-122.510010"></trkpt>
<trkpt lat="37.761840" lon="-122.509980"></trkpt>
<trkpt lat="37.761500" lon="-122.509940"></trkpt>
<trkpt lat="37.761440" lon="-122.509930"></trkpt>
<trkpt lat="37.760930" lon="-122.509860"></trkpt>
<trkpt lat="37.760860" lon="-122.509860"></trkpt>
<trkpt lat="37.760610" lon="-122.509820"></trkpt>
<trkpt lat="37.760540" lon="-122.509820"></trkpt>
<trkpt lat="37.760270" lon="-122.509790"></trkpt>
<trkpt lat="37.760230" lon="-122.509780"></trkpt>
<trkpt lat="37.759880" lon="-122.509740"></trkpt>
<trkpt lat="37.759810" lon="-122.509720"></trkpt>
<trkpt lat="37.759690" lon="-122.509700"></trkpt>
<trkpt lat="37.759630" lon="-122.509700"></trkpt>
<trkpt lat="37.759110" lon="-122.509630"></trkpt>
<trkpt lat="37.759050" lon="-122.509620"></trkpt>
<trkpt lat="37.758460" lon="-122.509540"></trkpt>
<trkpt lat="37.758390" lon="-122.509530"></trkpt>
<trkpt lat="37.758160" lon="-122.509500"></trkpt>
<trkpt lat="37.757180" lon="-122.509380"></trkpt>
<trkpt lat="37.757110" lon="-122.509370"></trkpt>
<trkpt lat="37.756920" lon="-122.509350"></trkpt>
<trkpt lat="37.756860" lon="-122.509350"></trkpt>
<trkpt lat="37.756580" lon="-122.509310"></trkpt>
<trkpt lat="37.756520" lon="-122.509300"></trkpt>
<trkpt lat="37.756290" lon="-122.509270"></trkpt>
<trkpt lat="37.756220" lon="-122.509250"></trkpt>
<trkpt lat="37.755980" lon="-122.509220"></trkpt>
<trkpt lat="37.755920" lon="-122.509210"></trkpt>
<trkpt lat="37.754670" lon="-122.509050"></trkpt>
<trkpt lat="37.754050" lon="-122.508970"></trkpt>
<trkpt lat="37.753920" lon="-122.508950"></trkpt>
<trkpt lat="37.753350" lon="-122.508880"></trkpt>
<trkpt lat="37.753280" lon="-122.508880"></trkpt>
<trkpt lat="37.752860" lon="-122.508830"></trkpt>
<trkpt lat="37.752830" lon="-122.508830"></trkpt>
<trkpt lat="37.752590" lon="-122.508790"></trkpt>
<trkpt lat="37.752520" lon="-122.508770"></trkpt>
<trkpt lat="37.751930" lon="-122.508690"></trkpt>
<trkpt lat="37.751870" lon="-122.508690"></trkpt>
<trkpt lat="37.751850" lon="-122.508680"></trkpt>
<trkpt lat="37.751510" lon="-122.508640"></trkpt>
<trkpt lat="37.751450" lon="-122.508630"></trkpt>
<trkpt lat="37.751210" lon="-122.508600"></trkpt>
<trkpt lat="37.751150" lon="-122.508590"></trkpt>
<trkpt lat="37.751120" lon="-122.508590"></trkpt>
<trkpt lat="37.751040" lon="-122.508580"></trkpt>
<trkpt lat="37.750960" lon="-122.508570"></trkpt>
<trkpt lat="37.750840" lon="-122.508550"></trkpt>
<trkpt lat="37.750770" lon="-122.508540"></trkpt>
<trkpt lat="37.750690" lon="-122.508530"></trkpt>
<trkpt lat="37.750630" lon="-122.508530"></trkpt>
<trkpt lat="37.750430" lon="-122.508500"></trkpt>
<trkpt lat="37.749500" lon="-122.508380"></trkpt>
<trkpt lat="37.749430" lon="-122.508380"></trkpt>
<trkpt lat="37.749150" lon="-122.508350"></trkpt>
<trkpt lat="37.749090" lon="-122.508340"></trkpt>
<trkpt lat="37.748850" lon="-122.508310"></trkpt>
<trkpt lat="37.748780" lon="-122.508290"></trkpt>
<trkpt lat="37.748520" lon="-122.508250"></trkpt>
<trkpt lat="37.748460" lon="-122.508250"></trkpt>
<trkpt lat="37.747940" lon="-122.508180"></trkpt>
<trkpt lat="37.747290" lon="-122.508090"></trkpt>
<trkpt lat="37.747230" lon="-122.508080"></trkpt>
<trkpt lat="37.746840" lon="-122.508030"></trkpt>
<trkpt lat="37.746780" lon="-122.508030"></trkpt>
<trkpt lat="37.746320" lon="-122.507970"></trkpt>
<trkpt lat="37.745730" lon="-122.507890"></trkpt>
<trkpt lat="37.745660" lon="-122.507900"></trkpt>
<trkpt lat="37.745430" lon="-122.507870"></trkpt>
<trkpt lat="37.745370" lon="-122.507860"></trkpt>
<trkpt lat="37.745110" lon="-122.507820"></trkpt>
<trkpt lat="37.745040" lon="-122.507810"></trkpt>
<trkpt lat="37.744890" lon="-122.507790"></trkpt>
<trkpt lat="37.744820" lon="-122.507770"></trkpt>
<trkpt lat="37.744220" lon="-122.507700"></trkpt>
<trkpt lat="37.743420" lon="-122.507590"></trkpt>
<trkpt lat="37.743340" lon="-122.507580"></trkpt>
<trkpt lat="37.742890" lon="-122.507520"></trkpt>
<trkpt lat="37.742630" lon="-122.507490"></trkpt>
<trkpt lat="37.742000" lon="-122.507410"></trkpt>
<trkpt lat="37.741930" lon="-122.507410"></trkpt>
<trkpt lat="37.741700" lon="-122.507380"></trkpt>
<trkpt lat="37.741640" lon="-122.507380"></trkpt>
<trkpt lat="37.741340" lon="-122.507330"></trkpt>
<trkpt lat="37.741270" lon="-122.507310"></trkpt>
<trkpt lat="37.740740" lon="-122.507240"></trkpt>
<trkpt lat="37.740410" lon="-122.507200"></trkpt>
<trkpt lat="37.740290" lon="-122.507190"></trkpt>
<trkpt lat="37.740150" lon="-122.507170"></trkpt>
<trkpt lat="37.739600" lon="-122.507100"></trkpt>
<trkpt lat="37.738830" lon="-122.507000"></trkpt>
<trkpt lat="37.738570" lon="-122.506960"></trkpt>
<trkpt lat="37.738220" lon="-122.506920"></trkpt>
<trkpt lat="37.738160" lon="-122.506910"></trkpt>
<trkpt lat="37.738090" lon="-122.506910"></trkpt>
<trkpt lat="37.738000" lon="-122.506900"></trkpt>
<trkpt lat="37.737960" lon="-122.506900"></trkpt>
<trkpt lat="37.737730" lon="-122.506870"></trkpt>
<trkpt lat="37.737600" lon="-122.506850"></trkpt>
<trkpt lat="37.737530" lon="-122.506830"></trkpt>
<trkpt lat="37.737200" lon="-122.506790"></trkpt>
<trkpt lat="37.737100" lon="-122.506770"></trkpt>
<trkpt lat="37.737030" lon="-122.506760"></trkpt>
<trkpt lat="37.736690" lon="-122.506720"></trkpt>
<trkpt lat="37.736630" lon="-122.506710"></trkpt>
<trkpt lat="37.736410" lon="-122.506680"></trkpt>
<trkpt lat="37.736290" lon="-122.506670"></trkpt>
<trkpt lat="37.736120" lon="-122.506650"></trkpt>
<trkpt lat="37.736030" lon="-122.506640"></trkpt>
<trkpt lat="37.735980" lon="-122.506640"></trkpt>
<trkpt lat="37.735900" lon="-122.506630"></trkpt>
<trkpt lat="37.735710" lon="-122.506620"></trkpt>
<trkpt lat="37.735630" lon="-122.506620"></trkpt>
<trkpt lat="37.735630" lon="-122.506590"></trkpt>
<trkpt lat="37.735630" lon="-122.506540"></trkpt>
<trkpt lat="37.735640" lon="-122.506500"></trkpt>
<trkpt lat="37.735640" lon="-122.506450"></trkpt>
<trkpt lat="37.735640" lon="-122.506280"></trkpt>
<trkpt lat="37.735640" lon="-122.506230"></trkpt>
<trkpt lat="37.735660" lon="-122.506240"></trkpt>
<trkpt lat="37.735660" lon="-122.506230"></trkpt>
<trkpt lat="37.735660" lon="-122.506100"></trkpt>
<trkpt lat="37.735640" lon="-122.506090"></trkpt>
<trkpt lat="37.735640" lon="-122.506020"></trkpt>
<trkpt lat="37.735640" lon="-122.505960"></trkpt>
<trkpt lat="37.735640" lon="-122.505830"></trkpt>
<trkpt lat="37.735640" lon="-122.505740"></trkpt>
<trkpt lat="37.735640" lon="-122.505380"></trkpt>
<trkpt lat="37.735660" lon="-122.505380"></trkpt>
<trkpt lat="37.735660" lon="-122.505370"></trkpt>
<trkpt lat="37.735660" lon="-122.505190"></trkpt>
<trkpt lat="37.735650" lon="-122.505190"></trkpt>
<trkpt lat="37.735650" lon="-122.505140"></trkpt>
<trkpt lat="37.735650" lon="-122.504870"></trkpt>
<trkpt lat="37.735640" lon="-122.504500"></trkpt>
</trkseg></trk>
</gpx>
