<?xml version='1.0' encoding='utf-8'?>
<gpx version="1.1" creator="RunCast" xmlns="http://www.topografix.com/GPX/1/1"><trk><name>sf_ocean_beach</name><trkseg><trkpt lat="37.773600" lon="-122.510700" /><trkpt lat="37.773465" lon="-122.510695" /><trkpt lat="37.773331" lon="-122.510689" /><trkpt lat="37.773196" lon="-122.510684" /><trkpt lat="37.773061" lon="-122.510679" /><trkpt lat="37.772927" lon="-122.510673" /><trkpt lat="37.772792" lon="-122.510668" /><trkpt lat="37.772658" lon="-122.510663" /><trkpt lat="37.772523" lon="-122.510658" /><trkpt lat="37.772388" lon="-122.510652" /><trkpt lat="37.772254" lon="-122.510647" /><trkpt lat="37.772119" lon="-122.510642" /><trkpt lat="37.771984" lon="-122.510636" /><trkpt lat="37.771850" lon="-122.510631" /><trkpt lat="37.771715" lon="-122.510626" /><trkpt lat="37.771581" lon="-122.510620" /><trkpt lat="37.771446" lon="-122.510615" /><trkpt lat="37.771311" lon="-122.510610" /><trkpt lat="37.771177" lon="-122.510605" /><trkpt lat="37.771042" lon="-122.510599" /><trkpt lat="37.770907" lon="-122.510594" /><trkpt lat="37.770773" lon="-122.510589" /><trkpt lat="37.770638" lon="-122.510583" /><trkpt lat="37.770504" lon="-122.510578" /><trkpt lat="37.770369" lon="-122.510573" /><trkpt lat="37.770234" lon="-122.510567" /><trkpt lat="37.770100" lon="-122.510562" /><trkpt lat="37.769965" lon="-122.510557" /><trkpt lat="37.769830" lon="-122.510552" /><trkpt lat="37.769696" lon="-122.510546" /><trkpt lat="37.769561" lon="-122.510541" /><trkpt lat="37.769427" lon="-122.510536" /><trkpt lat="37.769292" lon="-122.510530" /><trkpt lat="37.769157" lon="-122.510525" /><trkpt lat="37.769023" lon="-122.510520" /><trkpt lat="37.768888" lon="-122.510514" /><trkpt lat="37.768753" lon="-122.510509" /><trkpt lat="37.768619" lon="-122.510504" /><trkpt lat="37.768484" lon="-122.510499" /><trkpt lat="37.768349" lon="-122.510493" /><trkpt lat="37.768215" lon="-122.510488" /><trkpt lat="37.768080" lon="-122.510483" /><trkpt lat="37.767946" lon="-122.510477" /><trkpt lat="37.767811" lon="-122.510472" /><trkpt lat="37.767676" lon="-122.510467" /><trkpt lat="37.767542" lon="-122.510461" /><trkpt lat="37.767407" lon="-122.510456" /><trkpt lat="37.767272" lon="-122.510451" /><trkpt lat="37.767138" lon="-122.510446" /><trkpt lat="37.767003" lon="-122.510440" /><trkpt lat="37.766869" lon="-122.510435" /><trkpt lat="37.766734" lon="-122.510430" /><trkpt lat="37.766599" lon="-122.510424" /><trkpt lat="37.766465" lon="-122.510419" /><trkpt lat="37.766330" lon="-122.510414" /><trkpt lat="37.766195" lon="-122.510408" /><trkpt lat="37.766061" lon="-122.510403" /><trkpt lat="37.765926" lon="-122.510398" /><trkpt lat="37.765792" lon="-122.510393" /><trkpt lat="37.765657" lon="-122.510387" /><trkpt lat="37.765522" lon="-122.510382" /><trkpt lat="37.765388" lon="-122.510377" /><trkpt lat="37.765253" lon="-122.510371" /><trkpt lat="37.765118" lon="-122.510366" /><trkpt lat="37.764984" lon="-122.510361" /><trkpt lat="37.764849" lon="-122.510355" /><trkpt lat="37.764714" lon="-122.510350" /><trkpt lat="37.764580" lon="-122.510345" /><trkpt lat="37.764445" lon="-122.510340" /><trkpt lat="37.764311" lon="-122.510334" /><trkpt lat="37.764176" lon="-122.510329" /><trkpt lat="37.764041" lon="-122.510324" /><trkpt lat="37.763907" lon="-122.510318" /><trkpt lat="37.763772" lon="-122.510313" /><trkpt lat="37.763637" lon="-122.510308" /><trkpt lat="37.763503" lon="-122.510302" /><trkpt lat="37.763368" lon="-122.510297" /><trkpt lat="37.763234" lon="-122.510292" /><trkpt lat="37.763099" lon="-122.510287" /><trkpt lat="37.762964" lon="-122.510281" /><trkpt lat="37.762830" lon="-122.510276" /><trkpt lat="37.762695" lon="-122.510271" /><trkpt lat="37.762560" lon="-122.510265" /><trkpt lat="37.762426" lon="-122.510260" /><trkpt lat="37.762291" lon="-122.510255" /><trkpt lat="37.762157" lon="-122.510249" /><trkpt lat="37.762022" lon="-122.510244" /><trkpt lat="37.761887" lon="-122.510239" /><trkpt lat="37.761753" lon="-122.510234" /><trkpt lat="37.761618" lon="-122.510228" /><trkpt lat="37.761483" lon="-122.510223" /><trkpt lat="37.761349" lon="-122.510218" /><trkpt lat="37.761214" lon="-122.510212" /><trkpt lat="37.761080" lon="-122.510207" /><trkpt lat="37.760945" lon="-122.510202" /><trkpt lat="37.760810" lon="-122.510196" /><trkpt lat="37.760676" lon="-122.510191" /><trkpt lat="37.760541" lon="-122.510186" /><trkpt lat="37.760406" lon="-122.510181" /><trkpt lat="37.760272" lon="-122.510175" /><trkpt lat="37.760137" lon="-122.510170" /><trkpt lat="37.760002" lon="-122.510165" /><trkpt lat="37.759868" lon="-122.510159" /><trkpt lat="37.759733" lon="-122.510154" /><trkpt lat="37.759599" lon="-122.510149" /><trkpt lat="37.759464" lon="-122.510143" /><trkpt lat="37.759329" lon="-122.510138" /><trkpt lat="37.759195" lon="-122.510133" /><trkpt lat="37.759060" lon="-122.510128" /><trkpt lat="37.758925" lon="-122.510122" /><trkpt lat="37.758791" lon="-122.510117" /><trkpt lat="37.758656" lon="-122.510112" /><trkpt lat="37.758522" lon="-122.510106" /><trkpt lat="37.758387" lon="-122.510101" /><trkpt lat="37.758252" lon="-122.510096" /><trkpt lat="37.758118" lon="-122.510090" /><trkpt lat="37.757983" lon="-122.510085" /><trkpt lat="37.757848" lon="-122.510080" /><trkpt lat="37.757714" lon="-122.510075" /><trkpt lat="37.757579" lon="-122.510069" /><trkpt lat="37.757445" lon="-122.510064" /><trkpt lat="37.757310" lon="-122.510059" /><trkpt lat="37.757175" lon="-122.510053" /><trkpt lat="37.757041" lon="-122.510048" /><trkpt lat="37.756906" lon="-122.510043" /><trkpt lat="37.756771" lon="-122.510037" /><trkpt lat="37.756637" lon="-122.510032" /><trkpt lat="37.756502" lon="-122.510027" /><trkpt lat="37.756367" lon="-122.510022" /><trkpt lat="37.756233" lon="-122.510016" /><trkpt lat="37.756098" lon="-122.510011" /><trkpt lat="37.755964" lon="-122.510006" /><trkpt lat="37.755829" lon="-122.510000" /><trkpt lat="37.755694" lon="-122.509995" /><trkpt lat="37.755560" lon="-122.509990" /><trkpt lat="37.755425" lon="-122.509984" /><trkpt lat="37.755290" lon="-122.509979" /><trkpt lat="37.755156" lon="-122.509974" /><trkpt lat="37.755021" lon="-122.509969" /><trkpt lat="37.754887" lon="-122.509963" /><trkpt lat="37.754752" lon="-122.509958" /><trkpt lat="37.754617" lon="-122.509953" /><trkpt lat="37.754483" lon="-122.509947" /><trkpt lat="37.754348" lon="-122.509942" /><trkpt lat="37.754213" lon="-122.509937" /><trkpt lat="37.754079" lon="-122.509931" /><trkpt lat="37.753944" lon="-122.509926" /><trkpt lat="37.753810" lon="-122.509921" /><trkpt lat="37.753675" lon="-122.509916" /><trkpt lat="37.753540" lon="-122.509910" /><trkpt lat="37.753406" lon="-122.509905" /><trkpt lat="37.753271" lon="-122.509900" /><trkpt lat="37.753136" lon="-122.509894" /><trkpt lat="37.753002" lon="-122.509889" /><trkpt lat="37.752867" lon="-122.509884" /><trkpt lat="37.752733" lon="-122.509878" /><trkpt lat="37.752598" lon="-122.509873" /><trkpt lat="37.752463" lon="-122.509868" /><trkpt lat="37.752329" lon="-122.509863" /><trkpt lat="37.752194" lon="-122.509857" /><trkpt lat="37.752059" lon="-122.509852" /><trkpt lat="37.751925" lon="-122.509847" /><trkpt lat="37.751790" lon="-122.509841" /><trkpt lat="37.751655" lon="-122.509836" /><trkpt lat="37.751521" lon="-122.509831" /><trkpt lat="37.751386" lon="-122.509825" /><trkpt lat="37.751252" lon="-122.509820" /><trkpt lat="37.751117" lon="-122.509815" /><trkpt lat="37.750982" lon="-122.509810" /><trkpt lat="37.750848" lon="-122.509804" /><trkpt lat="37.750713" lon="-122.509799" /><trkpt lat="37.750578" lon="-122.509794" /><trkpt lat="37.750444" lon="-122.509788" /><trkpt lat="37.750309" lon="-122.509783" /><trkpt lat="37.750175" lon="-122.509778" /><trkpt lat="37.750040" lon="-122.509772" /><trkpt lat="37.749905" lon="-122.509767" /><trkpt lat="37.749771" lon="-122.509762" /><trkpt lat="37.749636" lon="-122.509757" /><trkpt lat="37.749501" lon="-122.509751" /><trkpt lat="37.749367" lon="-122.509746" /><trkpt lat="37.749232" lon="-122.509741" /><trkpt lat="37.749098" lon="-122.509735" /><trkpt lat="37.748963" lon="-122.509730" /><trkpt lat="37.748828" lon="-122.509725" /><trkpt lat="37.748694" lon="-122.509719" /><trkpt lat="37.748559" lon="-122.509714" /><trkpt lat="37.748424" lon="-122.509709" /><trkpt lat="37.748290" lon="-122.509704" /><trkpt lat="37.748155" lon="-122.509698" /><trkpt lat="37.748020" lon="-122.509693" /><trkpt lat="37.747886" lon="-122.509688" /><trkpt lat="37.747751" lon="-122.509682" /><trkpt lat="37.747617" lon="-122.509677" /><trkpt lat="37.747482" lon="-122.509672" /><trkpt lat="37.747347" lon="-122.509666" /><trkpt lat="37.747213" lon="-122.509661" /><trkpt lat="37.747078" lon="-122.509656" /><trkpt lat="37.746943" lon="-122.509651" /><trkpt lat="37.746809" lon="-122.509645" /><trkpt lat="37.746674" lon="-122.509640" /><trkpt lat="37.746540" lon="-122.509635" /><trkpt lat="37.746405" lon="-122.509629" /><trkpt lat="37.746270" lon="-122.509624" /><trkpt lat="37.746136" lon="-122.509619" /><trkpt lat="37.746001" lon="-122.509613" /><trkpt lat="37.745866" lon="-122.509608" /><trkpt lat="37.745732" lon="-122.509603" /><trkpt lat="37.745597" lon="-122.509598" /><trkpt lat="37.745463" lon="-122.509592" /><trkpt lat="37.745328" lon="-122.509587" /><trkpt lat="37.745193" lon="-122.509582" /><trkpt lat="37.745059" lon="-122.509576" /><trkpt lat="37.744924" lon="-122.509571" /><trkpt lat="37.744789" lon="-122.509566" /><trkpt lat="37.744655" lon="-122.509560" /><trkpt lat="37.744520" lon="-122.509555" /><trkpt lat="37.744386" lon="-122.509550" /><trkpt lat="37.744251" lon="-122.509545" /><trkpt lat="37.744116" lon="-122.509539" /><trkpt lat="37.743982" lon="-122.509534" /><trkpt lat="37.743847" lon="-122.509529" /><trkpt lat="37.743712" lon="-122.509523" /><trkpt lat="37.743578" lon="-122.509518" /><trkpt lat="37.743443" lon="-122.509513" /><trkpt lat="37.743308" lon="-122.509507" /><trkpt lat="37.743174" lon="-122.509502" /><trkpt lat="37.743039" lon="-122.509497" /><trkpt lat="37.742905" lon="-122.509492" /><trkpt lat="37.742770" lon="-122.509486" /><trkpt lat="37.742635" lon="-122.509481" /><trkpt lat="37.742501" lon="-122.509476" /><trkpt lat="37.742366" lon="-122.509470" /><trkpt lat="37.742231" lon="-122.509465" /><trkpt lat="37.742097" lon="-122.509460" /><trkpt lat="37.741962" lon="-122.509454" /><trkpt lat="37.741828" lon="-122.509449" /><trkpt lat="37.741693" lon="-122.509444" /><trkpt lat="37.741558" lon="-122.509439" /><trkpt lat="37.741424" lon="-122.509433" /><trkpt lat="37.741289" lon="-122.509428" /><trkpt lat="37.741154" lon="-122.509423" /><trkpt lat="37.741020" lon="-122.509417" /><trkpt lat="37.740885" lon="-122.509412" /><trkpt lat="37.740751" lon="-122.509407" /><trkpt lat="37.740616" lon="-122.509401" /><trkpt lat="37.740481" lon="-122.509396" /><trkpt lat="37.740347" lon="-122.509391" /><trkpt lat="37.740212" lon="-122.509386" /><trkpt lat="37.740077" lon="-122.509380" /><trkpt lat="37.739943" lon="-122.509375" /><trkpt lat="37.739808" lon="-122.509370" /><trkpt lat="37.739673" lon="-122.509364" /><trkpt lat="37.739539" lon="-122.509359" /><trkpt lat="37.739404" lon="-122.509354" /><trkpt lat="37.739270" lon="-122.509348" /><trkpt lat="37.739135" lon="-122.509343" /><trkpt lat="37.739000" lon="-122.509338" /><trkpt lat="37.738866" lon="-122.509333" /><trkpt lat="37.738731" lon="-122.509327" /><trkpt lat="37.738596" lon="-122.509322" /><trkpt lat="37.738462" lon="-122.509317" /><trkpt lat="37.738327" lon="-122.509311" /><trkpt lat="37.738193" lon="-122.509306" /><trkpt lat="37.738058" lon="-122.509301" /><trkpt lat="37.737923" lon="-122.509295" /><trkpt lat="37.737789" lon="-122.509290" /><trkpt lat="37.737654" lon="-122.509285" /><trkpt lat="37.737519" lon="-122.509280" /><trkpt lat="37.737385" lon="-122.509274" /><trkpt lat="37.737250" lon="-122.509269" /><trkpt lat="37.737116" lon="-122.509264" /><trkpt lat="37.736981" lon="-122.509258" /><trkpt lat="37.736846" lon="-122.509253" /><trkpt lat="37.736712" lon="-122.509248" /><trkpt lat="37.736577" lon="-122.509242" /><trkpt lat="37.736442" lon="-122.509237" /><trkpt lat="37.736308" lon="-122.509232" /><trkpt lat="37.736173" lon="-122.509227" /><trkpt lat="37.736039" lon="-122.509221" /><trkpt lat="37.735904" lon="-122.509216" /><trkpt lat="37.735769" lon="-122.509211" /><trkpt lat="37.735635" lon="-122.509205" /><trkpt lat="37.735635" lon="-122.509205" /><trkpt lat="37.735769" lon="-122.509211" /><trkpt lat="37.735904" lon="-122.509216" /><trkpt lat="37.736039" lon="-122.509221" /><trkpt lat="37.736173" lon="-122.509227" /><trkpt lat="37.736308" lon="-122.509232" /><trkpt lat="37.736442" lon="-122.509237" /><trkpt lat="37.736577" lon="-122.509242" /><trkpt lat="37.736712" lon="-122.509248" /><trkpt lat="37.736846" lon="-122.509253" /><trkpt lat="37.736981" lon="-122.509258" /><trkpt lat="37.737116" lon="-122.509264" /><trkpt lat="37.737250" lon="-122.509269" /><trkpt lat="37.737385" lon="-122.509274" /><trkpt lat="37.737519" lon="-122.509280" /><trkpt lat="37.737654" lon="-122.509285" /><trkpt lat="37.737789" lon="-122.509290" /><trkpt lat="37.737923" lon="-122.509295" /><trkpt lat="37.738058" lon="-122.509301" /><trkpt lat="37.738193" lon="-122.509306" /><trkpt lat="37.738327" lon="-122.509311" /><trkpt lat="37.738462" lon="-122.509317" /><trkpt lat="37.738596" lon="-122.509322" /><trkpt lat="37.738731" lon="-122.509327" /><trkpt lat="37.738866" lon="-122.509333" /><trkpt lat="37.739000" lon="-122.509338" /><trkpt lat="37.739135" lon="-122.509343" /><trkpt lat="37.739270" lon="-122.509348" /><trkpt lat="37.739404" lon="-122.509354" /><trkpt lat="37.739539" lon="-122.509359" /><trkpt lat="37.739673" lon="-122.509364" /><trkpt lat="37.739808" lon="-122.509370" /><trkpt lat="37.739943" lon="-122.509375" /><trkpt lat="37.740077" lon="-122.509380" /><trkpt lat="37.740212" lon="-122.509386" /><trkpt lat="37.740347" lon="-122.509391" /><trkpt lat="37.740481" lon="-122.509396" /><trkpt lat="37.740616" lon="-122.509401" /><trkpt lat="37.740751" lon="-122.509407" /><trkpt lat="37.740885" lon="-122.509412" /><trkpt lat="37.741020" lon="-122.509417" /><trkpt lat="37.741154" lon="-122.509423" /><trkpt lat="37.741289" lon="-122.509428" /><trkpt lat="37.741424" lon="-122.509433" /><trkpt lat="37.741558" lon="-122.509439" /><trkpt lat="37.741693" lon="-122.509444" /><trkpt lat="37.741828" lon="-122.509449" /><trkpt lat="37.741962" lon="-122.509454" /><trkpt lat="37.742097" lon="-122.509460" /><trkpt lat="37.742231" lon="-122.509465" /><trkpt lat="37.742366" lon="-122.509470" /><trkpt lat="37.742501" lon="-122.509476" /><trkpt lat="37.742635" lon="-122.509481" /><trkpt lat="37.742770" lon="-122.509486" /><trkpt lat="37.742905" lon="-122.509492" /><trkpt lat="37.743039" lon="-122.509497" /><trkpt lat="37.743174" lon="-122.509502" /><trkpt lat="37.743308" lon="-122.509507" /><trkpt lat="37.743443" lon="-122.509513" /><trkpt lat="37.743578" lon="-122.509518" /><trkpt lat="37.743712" lon="-122.509523" /><trkpt lat="37.743847" lon="-122.509529" /><trkpt lat="37.743982" lon="-122.509534" /><trkpt lat="37.744116" lon="-122.509539" /><trkpt lat="37.744251" lon="-122.509545" /><trkpt lat="37.744386" lon="-122.509550" /><trkpt lat="37.744520" lon="-122.509555" /><trkpt lat="37.744655" lon="-122.509560" /><trkpt lat="37.744789" lon="-122.509566" /><trkpt lat="37.744924" lon="-122.509571" /><trkpt lat="37.745059" lon="-122.509576" /><trkpt lat="37.745193" lon="-122.509582" /><trkpt lat="37.745328" lon="-122.509587" /><trkpt lat="37.745463" lon="-122.509592" /><trkpt lat="37.745597" lon="-122.509598" /><trkpt lat="37.745732" lon="-122.509603" /><trkpt lat="37.745866" lon="-122.509608" /><trkpt lat="37.746001" lon="-122.509613" /><trkpt lat="37.746136" lon="-122.509619" /><trkpt lat="37.746270" lon="-122.509624" /><trkpt lat="37.746405" lon="-122.509629" /><trkpt lat="37.746540" lon="-122.509635" /><trkpt lat="37.746674" lon="-122.509640" /><trkpt lat="37.746809" lon="-122.509645" /><trkpt lat="37.746943" lon="-122.509651" /><trkpt lat="37.747078" lon="-122.509656" /><trkpt lat="37.747213" lon="-122.509661" /><trkpt lat="37.747347" lon="-122.509666" /><trkpt lat="37.747482" lon="-122.509672" /><trkpt lat="37.747617" lon="-122.509677" /><trkpt lat="37.747751" lon="-122.509682" /><trkpt lat="37.747886" lon="-122.509688" /><trkpt lat="37.748020" lon="-122.509693" /><trkpt lat="37.748155" lon="-122.509698" /><trkpt lat="37.748290" lon="-122.509704" /><trkpt lat="37.748424" lon="-122.509709" /><trkpt lat="37.748559" lon="-122.509714" /><trkpt lat="37.748694" lon="-122.509719" /><trkpt lat="37.748828" lon="-122.509725" /><trkpt lat="37.748963" lon="-122.509730" /><trkpt lat="37.749098" lon="-122.509735" /><trkpt lat="37.749232" lon="-122.509741" /><trkpt lat="37.749367" lon="-122.509746" /><trkpt lat="37.749501" lon="-122.509751" /><trkpt lat="37.749636" lon="-122.509757" /><trkpt lat="37.749771" lon="-122.509762" /><trkpt lat="37.749905" lon="-122.509767" /><trkpt lat="37.750040" lon="-122.509772" /><trkpt lat="37.750175" lon="-122.509778" /><trkpt lat="37.750309" lon="-122.509783" /><trkpt lat="37.750444" lon="-122.509788" /><trkpt lat="37.750578" lon="-122.509794" /><trkpt lat="37.750713" lon="-122.509799" /><trkpt lat="37.750848" lon="-122.509804" /><trkpt lat="37.750982" lon="-122.509810" /><trkpt lat="37.751117" lon="-122.509815" /><trkpt lat="37.751252" lon="-122.509820" /><trkpt lat="37.751386" lon="-122.509825" /><trkpt lat="37.751521" lon="-122.509831" /><trkpt lat="37.751655" lon="-122.509836" /><trkpt lat="37.751790" lon="-122.509841" /><trkpt lat="37.751925" lon="-122.509847" /><trkpt lat="37.752059" lon="-122.509852" /><trkpt lat="37.752194" lon="-122.509857" /><trkpt lat="37.752329" lon="-122.509863" /><trkpt lat="37.752463" lon="-122.509868" /><trkpt lat="37.752598" lon="-122.509873" /><trkpt lat="37.752733" lon="-122.509878" /><trkpt lat="37.752867" lon="-122.509884" /><trkpt lat="37.753002" lon="-122.509889" /><trkpt lat="37.753136" lon="-122.509894" /><trkpt lat="37.753271" lon="-122.509900" /><trkpt lat="37.753406" lon="-122.509905" /><trkpt lat="37.753540" lon="-122.509910" /><trkpt lat="37.753675" lon="-122.509916" /><trkpt lat="37.753810" lon="-122.509921" /><trkpt lat="37.753944" lon="-122.509926" /><trkpt lat="37.754079" lon="-122.509931" /><trkpt lat="37.754213" lon="-122.509937" /><trkpt lat="37.754348" lon="-122.509942" /><trkpt lat="37.754483" lon="-122.509947" /><trkpt lat="37.754617" lon="-122.509953" /><trkpt lat="37.754752" lon="-122.509958" /><trkpt lat="37.754887" lon="-122.509963" /><trkpt lat="37.755021" lon="-122.509969" /><trkpt lat="37.755156" lon="-122.509974" /><trkpt lat="37.755290" lon="-122.509979" /><trkpt lat="37.755425" lon="-122.509984" /><trkpt lat="37.755560" lon="-122.509990" /><trkpt lat="37.755694" lon="-122.509995" /><trkpt lat="37.755829" lon="-122.510000" /><trkpt lat="37.755964" lon="-122.510006" /><trkpt lat="37.756098" lon="-122.510011" /><trkpt lat="37.756233" lon="-122.510016" /><trkpt lat="37.756367" lon="-122.510022" /><trkpt lat="37.756502" lon="-122.510027" /><trkpt lat="37.756637" lon="-122.510032" /><trkpt lat="37.756771" lon="-122.510037" /><trkpt lat="37.756906" lon="-122.510043" /><trkpt lat="37.757041" lon="-122.510048" /><trkpt lat="37.757175" lon="-122.510053" /><trkpt lat="37.757310" lon="-122.510059" /><trkpt lat="37.757445" lon="-122.510064" /><trkpt lat="37.757579" lon="-122.510069" /><trkpt lat="37.757714" lon="-122.510075" /><trkpt lat="37.757848" lon="-122.510080" /><trkpt lat="37.757983" lon="-122.510085" /><trkpt lat="37.758118" lon="-122.510090" /><trkpt lat="37.758252" lon="-122.510096" /><trkpt lat="37.758387" lon="-122.510101" /><trkpt lat="37.758522" lon="-122.510106" /><trkpt lat="37.758656" lon="-122.510112" /><trkpt lat="37.758791" lon="-122.510117" /><trkpt lat="37.758925" lon="-122.510122" /><trkpt lat="37.759060" lon="-122.510128" /><trkpt lat="37.759195" lon="-122.510133" /><trkpt lat="37.759329" lon="-122.510138" /><trkpt lat="37.759464" lon="-122.510143" /><trkpt lat="37.759599" lon="-122.510149" /><trkpt lat="37.759733" lon="-122.510154" /><trkpt lat="37.759868" lon="-122.510159" /><trkpt lat="37.760002" lon="-122.510165" /><trkpt lat="37.760137" lon="-122.510170" /><trkpt lat="37.760272" lon="-122.510175" /><trkpt lat="37.760406" lon="-122.510181" /><trkpt lat="37.760541" lon="-122.510186" /><trkpt lat="37.760676" lon="-122.510191" /><trkpt lat="37.760810" lon="-122.510196" /><trkpt lat="37.760945" lon="-122.510202" /><trkpt lat="37.761080" lon="-122.510207" /><trkpt lat="37.761214" lon="-122.510212" /><trkpt lat="37.761349" lon="-122.510218" /><trkpt lat="37.761483" lon="-122.510223" /><trkpt lat="37.761618" lon="-122.510228" /><trkpt lat="37.761753" lon="-122.510234" /><trkpt lat="37.761887" lon="-122.510239" /><trkpt lat="37.762022" lon="-122.510244" /><trkpt lat="37.762157" lon="-122.510249" /><trkpt lat="37.762291" lon="-122.510255" /><trkpt lat="37.762426" lon="-122.510260" /><trkpt lat="37.762560" lon="-122.510265" /><trkpt lat="37.762695" lon="-122.510271" /><trkpt lat="37.762830" lon="-122.510276" /><trkpt lat="37.762964" lon="-122.510281" /><trkpt lat="37.763099" lon="-122.510287" /><trkpt lat="37.763234" lon="-122.510292" /><trkpt lat="37.763368" lon="-122.510297" /><trkpt lat="37.763503" lon="-122.510302" /><trkpt lat="37.763637" lon="-122.510308" /><trkpt lat="37.763772" lon="-122.510313" /><trkpt lat="37.763907" lon="-122.510318" /><trkpt lat="37.764041" lon="-122.510324" /><trkpt lat="37.764176" lon="-122.510329" /><trkpt lat="37.764311" lon="-122.510334" /><trkpt lat="37.764445" lon="-122.510340" /><trkpt lat="37.764580" lon="-122.510345" /><trkpt lat="37.764714" lon="-122.510350" /><trkpt lat="37.764849" lon="-122.510355" /><trkpt lat="37.764984" lon="-122.510361" /><trkpt lat="37.765118" lon="-122.510366" /><trkpt lat="37.765253" lon="-122.510371" /><trkpt lat="37.765388" lon="-122.510377" /><trkpt lat="37.765522" lon="-122.510382" /><trkpt lat="37.765657" lon="-122.510387" /><trkpt lat="37.765792" lon="-122.510393" /><trkpt lat="37.765926" lon="-122.510398" /><trkpt lat="37.766061" lon="-122.510403" /><trkpt lat="37.766195" lon="-122.510408" /><trkpt lat="37.766330" lon="-122.510414" /><trkpt lat="37.766465" lon="-122.510419" /><trkpt lat="37.766599" lon="-122.510424" /><trkpt lat="37.766734" lon="-122.510430" /><trkpt lat="37.766869" lon="-122.510435" /><trkpt lat="37.767003" lon="-122.510440" /><trkpt lat="37.767138" lon="-122.510446" /><trkpt lat="37.767272" lon="-122.510451" /><trkpt lat="37.767407" lon="-122.510456" /><trkpt lat="37.767542" lon="-122.510461" /><trkpt lat="37.767676" lon="-122.510467" /><trkpt lat="37.767811" lon="-122.510472" /><trkpt lat="37.767946" lon="-122.510477" /><trkpt lat="37.768080" lon="-122.510483" /><trkpt lat="37.768215" lon="-122.510488" /><trkpt lat="37.768349" lon="-122.510493" /><trkpt lat="37.768484" lon="-122.510499" /><trkpt lat="37.768619" lon="-122.510504" /><trkpt lat="37.768753" lon="-122.510509" /><trkpt lat="37.768888" lon="-122.510514" /><trkpt lat="37.769023" lon="-122.510520" /><trkpt lat="37.769157" lon="-122.510525" /><trkpt lat="37.769292" lon="-122.510530" /><trkpt lat="37.769427" lon="-122.510536" /><trkpt lat="37.769561" lon="-122.510541" /><trkpt lat="37.769696" lon="-122.510546" /><trkpt lat="37.769830" lon="-122.510552" /><trkpt lat="37.769965" lon="-122.510557" /><trkpt lat="37.770100" lon="-122.510562" /><trkpt lat="37.770234" lon="-122.510567" /><trkpt lat="37.770369" lon="-122.510573" /><trkpt lat="37.770504" lon="-122.510578" /><trkpt lat="37.770638" lon="-122.510583" /><trkpt lat="37.770773" lon="-122.510589" /><trkpt lat="37.770907" lon="-122.510594" /><trkpt lat="37.771042" lon="-122.510599" /><trkpt lat="37.771177" lon="-122.510605" /><trkpt lat="37.771311" lon="-122.510610" /><trkpt lat="37.771446" lon="-122.510615" /><trkpt lat="37.771581" lon="-122.510620" /><trkpt lat="37.771715" lon="-122.510626" /><trkpt lat="37.771850" lon="-122.510631" /><trkpt lat="37.771984" lon="-122.510636" /><trkpt lat="37.772119" lon="-122.510642" /><trkpt lat="37.772254" lon="-122.510647" /><trkpt lat="37.772388" lon="-122.510652" /><trkpt lat="37.772523" lon="-122.510658" /><trkpt lat="37.772658" lon="-122.510663" /><trkpt lat="37.772792" lon="-122.510668" /><trkpt lat="37.772927" lon="-122.510673" /><trkpt lat="37.773061" lon="-122.510679" /><trkpt lat="37.773196" lon="-122.510684" /><trkpt lat="37.773331" lon="-122.510689" /><trkpt lat="37.773465" lon="-122.510695" /><trkpt lat="37.773600" lon="-122.510700" /></trkseg></trk></gpx>