<?xml version="1.0" encoding="UTF-8"?>
<gpx version="1.1" creator="greatruns-mapmyrun">
<trk><name>sf_presidio_gg_loop</name><trkseg>
<trkpt lat="37.798526" lon="-122.447543"></trkpt>
<trkpt lat="37.798504" lon="-122.447830"></trkpt>
<trkpt lat="37.798504" lon="-122.447830"></trkpt>
<trkpt lat="37.798134" lon="-122.448481"></trkpt>
<trkpt lat="37.798134" lon="-122.448481"></trkpt>
<trkpt lat="37.797941" lon="-122.448459"></trkpt>
<trkpt lat="37.797941" lon="-122.448459"></trkpt>
<trkpt lat="37.797850" lon="-122.448548"></trkpt>
<trkpt lat="37.797850" lon="-122.448548"></trkpt>
<trkpt lat="37.797648" lon="-122.449001"></trkpt>
<trkpt lat="37.797648" lon="-122.449001"></trkpt>
<trkpt lat="37.797720" lon="-122.449977"></trkpt>
<trkpt lat="37.797720" lon="-122.449977"></trkpt>
<trkpt lat="37.798335" lon="-122.451119"></trkpt>
<trkpt lat="37.798335" lon="-122.451119"></trkpt>
<trkpt lat="37.798955" lon="-122.451624"></trkpt>
<trkpt lat="37.798955" lon="-122.451624"></trkpt>
<trkpt lat="37.799257" lon="-122.452552"></trkpt>
<trkpt lat="37.799257" lon="-122.452552"></trkpt>
<trkpt lat="37.799441" lon="-122.452675"></trkpt>
<trkpt lat="37.799441" lon="-122.452675"></trkpt>
<trkpt lat="37.800149" lon="-122.452865"></trkpt>
<trkpt lat="37.800149" lon="-122.452865"></trkpt>
<trkpt lat="37.800467" lon="-122.453145"></trkpt>
<trkpt lat="37.800467" lon="-122.453145"></trkpt>
<trkpt lat="37.801220" lon="-122.455282"></trkpt>
<trkpt lat="37.801220" lon="-122.455282"></trkpt>
<trkpt lat="37.801809" lon="-122.456441"></trkpt>
<trkpt lat="37.801809" lon="-122.456441"></trkpt>
<trkpt lat="37.801836" lon="-122.456918"></trkpt>
<trkpt lat="37.801836" lon="-122.456918"></trkpt>
<trkpt lat="37.802161" lon="-122.457405"></trkpt>
<trkpt lat="37.802161" lon="-122.457405"></trkpt>
<trkpt lat="37.802334" lon="-122.457965"></trkpt>
<trkpt lat="37.802334" lon="-122.457965"></trkpt>
<trkpt lat="37.801757" lon="-122.459579"></trkpt>
<trkpt lat="37.801757" lon="-122.459579"></trkpt>
<trkpt lat="37.801347" lon="-122.461276"></trkpt>
<trkpt lat="37.801347" lon="-122.461276"></trkpt>
<trkpt lat="37.801523" lon="-122.461861"></trkpt>
<trkpt lat="37.801523" lon="-122.461861"></trkpt>
<trkpt lat="37.801543" lon="-122.462974"></trkpt>
<trkpt lat="37.801543" lon="-122.462974"></trkpt>
<trkpt lat="37.801827" lon="-122.463760"></trkpt>
<trkpt lat="37.801827" lon="-122.463760"></trkpt>
<trkpt lat="37.801914" lon="-122.464255"></trkpt>
<trkpt lat="37.801914" lon="-122.464255"></trkpt>
<trkpt lat="37.801607" lon="-122.465045"></trkpt>
<trkpt lat="37.801607" lon="-122.465045"></trkpt>
<trkpt lat="37.801194" lon="-122.465405"></trkpt>
<trkpt lat="37.801194" lon="-122.465405"></trkpt>
<trkpt lat="37.800929" lon="-122.465819"></trkpt>
<trkpt lat="37.800929" lon="-122.465819"></trkpt>
<trkpt lat="37.800945" lon="-122.466990"></trkpt>
<trkpt lat="37.800945" lon="-122.466990"></trkpt>
<trkpt lat="37.801127" lon="-122.467311"></trkpt>
<trkpt lat="37.801127" lon="-122.467311"></trkpt>
<trkpt lat="37.801276" lon="-122.467913"></trkpt>
<trkpt lat="37.801276" lon="-122.467913"></trkpt>
<trkpt lat="37.801132" lon="-122.468498"></trkpt>
<trkpt lat="37.801132" lon="-122.468498"></trkpt>
<trkpt lat="37.801341" lon="-122.468784"></trkpt>
<trkpt lat="37.801341" lon="-122.468784"></trkpt>
<trkpt lat="37.801742" lon="-122.468910"></trkpt>
<trkpt lat="37.801742" lon="-122.468910"></trkpt>
<trkpt lat="37.802156" lon="-122.468862"></trkpt>
<trkpt lat="37.802156" lon="-122.468862"></trkpt>
<trkpt lat="37.802550" lon="-122.468921"></trkpt>
<trkpt lat="37.802550" lon="-122.468921"></trkpt>
<trkpt lat="37.803147" lon="-122.468817"></trkpt>
<trkpt lat="37.803147" lon="-122.468817"></trkpt>
<trkpt lat="37.804030" lon="-122.469210"></trkpt>
<trkpt lat="37.804030" lon="-122.469210"></trkpt>
<trkpt lat="37.804279" lon="-122.469611"></trkpt>
<trkpt lat="37.804279" lon="-122.469611"></trkpt>
<trkpt lat="37.804612" lon="-122.469881"></trkpt>
<trkpt lat="37.804612" lon="-122.469881"></trkpt>
<trkpt lat="37.804801" lon="-122.469916"></trkpt>
<trkpt lat="37.804801" lon="-122.469916"></trkpt>
<trkpt lat="37.805068" lon="-122.469771"></trkpt>
<trkpt lat="37.805068" lon="-122.469771"></trkpt>
<trkpt lat="37.805600" lon="-122.469797"></trkpt>
<trkpt lat="37.805600" lon="-122.469797"></trkpt>
<trkpt lat="37.806039" lon="-122.470085"></trkpt>
<trkpt lat="37.806039" lon="-122.470085"></trkpt>
<trkpt lat="37.806590" lon="-122.471218"></trkpt>
<trkpt lat="37.806590" lon="-122.471218"></trkpt>
<trkpt lat="37.807160" lon="-122.471704"></trkpt>
<trkpt lat="37.807160" lon="-122.471704"></trkpt>
<trkpt lat="37.807837" lon="-122.472823"></trkpt>
<trkpt lat="37.807837" lon="-122.472823"></trkpt>
<trkpt lat="37.807875" lon="-122.473093"></trkpt>
<trkpt lat="37.807875" lon="-122.473093"></trkpt>
<trkpt lat="37.807698" lon="-122.473413"></trkpt>
<trkpt lat="37.807698" lon="-122.473413"></trkpt>
<trkpt lat="37.807986" lon="-122.473955"></trkpt>
<trkpt lat="37.807986" lon="-122.473955"></trkpt>
<trkpt lat="37.808186" lon="-122.475021"></trkpt>
<trkpt lat="37.808186" lon="-122.475021"></trkpt>
<trkpt lat="37.808331" lon="-122.475220"></trkpt>
<trkpt lat="37.808331" lon="-122.475220"></trkpt>
<trkpt lat="37.808533" lon="-122.475275"></trkpt>
<trkpt lat="37.808533" lon="-122.475275"></trkpt>
<trkpt lat="37.808695" lon="-122.475732"></trkpt>
<trkpt lat="37.808695" lon="-122.475732"></trkpt>
<trkpt lat="37.808450" lon="-122.476271"></trkpt>
<trkpt lat="37.808450" lon="-122.476271"></trkpt>
<trkpt lat="37.808470" lon="-122.475908"></trkpt>
<trkpt lat="37.808470" lon="-122.475908"></trkpt>
<trkpt lat="37.808364" lon="-122.475881"></trkpt>
<trkpt lat="37.808364" lon="-122.475881"></trkpt>
<trkpt lat="37.808129" lon="-122.476247"></trkpt>
<trkpt lat="37.808129" lon="-122.476247"></trkpt>
<trkpt lat="37.808375" lon="-122.475855"></trkpt>
<trkpt lat="37.808375" lon="-122.475855"></trkpt>
<trkpt lat="37.808533" lon="-122.476000"></trkpt>
<trkpt lat="37.808533" lon="-122.476000"></trkpt>
<trkpt lat="37.808444" lon="-122.476250"></trkpt>
<trkpt lat="37.808444" lon="-122.476250"></trkpt>
<trkpt lat="37.808571" lon="-122.476033"></trkpt>
<trkpt lat="37.808571" lon="-122.476033"></trkpt>
<trkpt lat="37.808641" lon="-122.475646"></trkpt>
<trkpt lat="37.808641" lon="-122.475646"></trkpt>
<trkpt lat="37.808503" lon="-122.475296"></trkpt>
<trkpt lat="37.808503" lon="-122.475296"></trkpt>
<trkpt lat="37.808669" lon="-122.475146"></trkpt>
<trkpt lat="37.808669" lon="-122.475146"></trkpt>
<trkpt lat="37.808686" lon="-122.475024"></trkpt>
<trkpt lat="37.808686" lon="-122.475024"></trkpt>
<trkpt lat="37.808343" lon="-122.474550"></trkpt>
<trkpt lat="37.808343" lon="-122.474550"></trkpt>
<trkpt lat="37.808158" lon="-122.474131"></trkpt>
<trkpt lat="37.808158" lon="-122.474131"></trkpt>
<trkpt lat="37.807862" lon="-122.472831"></trkpt>
<trkpt lat="37.807862" lon="-122.472831"></trkpt>
<trkpt lat="37.807336" lon="-122.471854"></trkpt>
<trkpt lat="37.807336" lon="-122.471854"></trkpt>
<trkpt lat="37.806799" lon="-122.471403"></trkpt>
<trkpt lat="37.806799" lon="-122.471403"></trkpt>
<trkpt lat="37.806601" lon="-122.471325"></trkpt>
<trkpt lat="37.806601" lon="-122.471325"></trkpt>
<trkpt lat="37.806247" lon="-122.470676"></trkpt>
<trkpt lat="37.806247" lon="-122.470676"></trkpt>
<trkpt lat="37.805983" lon="-122.469970"></trkpt>
<trkpt lat="37.805983" lon="-122.469970"></trkpt>
<trkpt lat="37.806055" lon="-122.469894"></trkpt>
<trkpt lat="37.806055" lon="-122.469894"></trkpt>
<trkpt lat="37.806360" lon="-122.469934"></trkpt>
<trkpt lat="37.806360" lon="-122.469934"></trkpt>
<trkpt lat="37.806992" lon="-122.470823"></trkpt>
<trkpt lat="37.806992" lon="-122.470823"></trkpt>
<trkpt lat="37.807178" lon="-122.470934"></trkpt>
<trkpt lat="37.807178" lon="-122.470934"></trkpt>
<trkpt lat="37.808171" lon="-122.471129"></trkpt>
<trkpt lat="37.808171" lon="-122.471129"></trkpt>
<trkpt lat="37.808364" lon="-122.471245"></trkpt>
<trkpt lat="37.808364" lon="-122.471245"></trkpt>
<trkpt lat="37.808657" lon="-122.471166"></trkpt>
<trkpt lat="37.808657" lon="-122.471166"></trkpt>
<trkpt lat="37.808706" lon="-122.471057"></trkpt>
<trkpt lat="37.808706" lon="-122.471057"></trkpt>
<trkpt lat="37.808197" lon="-122.470188"></trkpt>
<trkpt lat="37.808197" lon="-122.470188"></trkpt>
<trkpt lat="37.807676" lon="-122.469619"></trkpt>
<trkpt lat="37.807676" lon="-122.469619"></trkpt>
<trkpt lat="37.806842" lon="-122.468943"></trkpt>
<trkpt lat="37.806842" lon="-122.468943"></trkpt>
<trkpt lat="37.806153" lon="-122.468701"></trkpt>
<trkpt lat="37.806153" lon="-122.468701"></trkpt>
<trkpt lat="37.805917" lon="-122.468430"></trkpt>
<trkpt lat="37.805917" lon="-122.468430"></trkpt>
<trkpt lat="37.804951" lon="-122.466715"></trkpt>
<trkpt lat="37.804951" lon="-122.466715"></trkpt>
<trkpt lat="37.804621" lon="-122.465066"></trkpt>
<trkpt lat="37.804621" lon="-122.465066"></trkpt>
<trkpt lat="37.804562" lon="-122.464068"></trkpt>
<trkpt lat="37.804562" lon="-122.464068"></trkpt>
<trkpt lat="37.804667" lon="-122.462433"></trkpt>
<trkpt lat="37.804667" lon="-122.462433"></trkpt>
<trkpt lat="37.804627" lon="-122.460649"></trkpt>
<trkpt lat="37.804627" lon="-122.460649"></trkpt>
<trkpt lat="37.805094" lon="-122.457873"></trkpt>
<trkpt lat="37.805094" lon="-122.457873"></trkpt>
<trkpt lat="37.805409" lon="-122.454548"></trkpt>
<trkpt lat="37.805409" lon="-122.454548"></trkpt>
<trkpt lat="37.805649" lon="-122.453391"></trkpt>
<trkpt lat="37.805649" lon="-122.453391"></trkpt>
<trkpt lat="37.805816" lon="-122.453021"></trkpt>
<trkpt lat="37.805816" lon="-122.453021"></trkpt>
<trkpt lat="37.805891" lon="-122.452247"></trkpt>
<trkpt lat="37.805891" lon="-122.452247"></trkpt>
<trkpt lat="37.806017" lon="-122.451891"></trkpt>
<trkpt lat="37.806017" lon="-122.451891"></trkpt>
<trkpt lat="37.806226" lon="-122.449731"></trkpt>
<trkpt lat="37.806226" lon="-122.449731"></trkpt>
<trkpt lat="37.806401" lon="-122.449251"></trkpt>
<trkpt lat="37.806401" lon="-122.449251"></trkpt>
<trkpt lat="37.806475" lon="-122.448356"></trkpt>
<trkpt lat="37.806475" lon="-122.448356"></trkpt>
<trkpt lat="37.806321" lon="-122.448226"></trkpt>
<trkpt lat="37.806321" lon="-122.448226"></trkpt>
<trkpt lat="37.806218" lon="-122.448247"></trkpt>
<trkpt lat="37.806218" lon="-122.448247"></trkpt>
<trkpt lat="37.806089" lon="-122.448478"></trkpt>
<trkpt lat="37.806089" lon="-122.448478"></trkpt>
<trkpt lat="37.805910" lon="-122.448558"></trkpt>
<trkpt lat="37.805910" lon="-122.448558"></trkpt>
<trkpt lat="37.805600" lon="-122.448551"></trkpt>
<trkpt lat="37.805600" lon="-122.448551"></trkpt>
<trkpt lat="37.805013" lon="-122.448327"></trkpt>
<trkpt lat="37.805013" lon="-122.448327"></trkpt>
<trkpt lat="37.804867" lon="-122.448155"></trkpt>
<trkpt lat="37.804867" lon="-122.448155"></trkpt>
<trkpt lat="37.805026" lon="-122.447418"></trkpt>
<trkpt lat="37.805026" lon="-122.447418"></trkpt>
<trkpt lat="37.804929" lon="-122.447358"></trkpt>
<trkpt lat="37.804929" lon="-122.447358"></trkpt>
<trkpt lat="37.804551" lon="-122.447219"></trkpt>
<trkpt lat="37.804551" lon="-122.447219"></trkpt>
<trkpt lat="37.803184" lon="-122.447120"></trkpt>
<trkpt lat="37.803184" lon="-122.447120"></trkpt>
<trkpt lat="37.801303" lon="-122.446623"></trkpt>
<trkpt lat="37.801303" lon="-122.446623"></trkpt>
<trkpt lat="37.800280" lon="-122.446510"></trkpt>
<trkpt lat="37.800280" lon="-122.446510"></trkpt>
<trkpt lat="37.800096" lon="-122.446414"></trkpt>
<trkpt lat="37.800096" lon="-122.446414"></trkpt>
<trkpt lat="37.799703" lon="-122.445989"></trkpt>
<trkpt lat="37.799703" lon="-122.445989"></trkpt>
<trkpt lat="37.799367" lon="-122.446228"></trkpt>
<trkpt lat="37.799367" lon="-122.446228"></trkpt>
<trkpt lat="37.798774" lon="-122.446143"></trkpt>
<trkpt lat="37.798774" lon="-122.446143"></trkpt>
<trkpt lat="37.798685" lon="-122.446203"></trkpt>
<trkpt lat="37.798685" lon="-122.446203"></trkpt>
<trkpt lat="37.798459" lon="-122.447018"></trkpt>
<trkpt lat="37.798459" lon="-122.447018"></trkpt>
<trkpt lat="37.798469" lon="-122.447470"></trkpt>
</trkseg></trk>
</gpx>
