<?xml version="1.0" encoding="UTF-8"?>
<gpx version="1.1" creator="greatruns-mapmyrun">
<trk><name>sf_the_presidio</name><trkseg>
<trkpt lat="37.798490" lon="-122.447310"></trkpt>
<trkpt lat="37.798430" lon="-122.447790"></trkpt>
<trkpt lat="37.798400" lon="-122.447840"></trkpt>
<trkpt lat="37.798360" lon="-122.447930"></trkpt>
<trkpt lat="37.798280" lon="-122.448020"></trkpt>
<trkpt lat="37.798250" lon="-122.448040"></trkpt>
<trkpt lat="37.798220" lon="-122.448060"></trkpt>
<trkpt lat="37.798200" lon="-122.448160"></trkpt>
<trkpt lat="37.798180" lon="-122.448280"></trkpt>
<trkpt lat="37.798160" lon="-122.448370"></trkpt>
<trkpt lat="37.798010" lon="-122.448920"></trkpt>
<trkpt lat="37.798030" lon="-122.449070"></trkpt>
<trkpt lat="37.798060" lon="-122.449120"></trkpt>
<trkpt lat="37.798050" lon="-122.449240"></trkpt>
<trkpt lat="37.797950" lon="-122.449630"></trkpt>
<trkpt lat="37.797990" lon="-122.449740"></trkpt>
<trkpt lat="37.797990" lon="-122.449740"></trkpt>
<trkpt lat="37.798430" lon="-122.450960"></trkpt>
<trkpt lat="37.798540" lon="-122.451170"></trkpt>
<trkpt lat="37.798710" lon="-122.451330"></trkpt>
<trkpt lat="37.798880" lon="-122.451430"></trkpt>
<trkpt lat="37.798970" lon="-122.451780"></trkpt>
<trkpt lat="37.799080" lon="-122.452150"></trkpt>
<trkpt lat="37.799180" lon="-122.452370"></trkpt>
<trkpt lat="37.799270" lon="-122.452500"></trkpt>
<trkpt lat="37.799270" lon="-122.452500"></trkpt>
<trkpt lat="37.799200" lon="-122.452590"></trkpt>
<trkpt lat="37.799270" lon="-122.452700"></trkpt>
<trkpt lat="37.799530" lon="-122.452840"></trkpt>
<trkpt lat="37.799730" lon="-122.452910"></trkpt>
<trkpt lat="37.800060" lon="-122.452970"></trkpt>
<trkpt lat="37.800130" lon="-122.453010"></trkpt>
<trkpt lat="37.800300" lon="-122.453190"></trkpt>
<trkpt lat="37.800550" lon="-122.453770"></trkpt>
<trkpt lat="37.800710" lon="-122.454170"></trkpt>
<trkpt lat="37.801180" lon="-122.455280"></trkpt>
<trkpt lat="37.801600" lon="-122.456270"></trkpt>
<trkpt lat="37.801710" lon="-122.456590"></trkpt>
<trkpt lat="37.801730" lon="-122.456750"></trkpt>
<trkpt lat="37.801830" lon="-122.457140"></trkpt>
<trkpt lat="37.801980" lon="-122.457600"></trkpt>
<trkpt lat="37.801980" lon="-122.457700"></trkpt>
<trkpt lat="37.801830" lon="-122.457820"></trkpt>
<trkpt lat="37.801830" lon="-122.457820"></trkpt>
<trkpt lat="37.801980" lon="-122.457700"></trkpt>
<trkpt lat="37.801970" lon="-122.457860"></trkpt>
<trkpt lat="37.801980" lon="-122.458000"></trkpt>
<trkpt lat="37.802080" lon="-122.458220"></trkpt>
<trkpt lat="37.802130" lon="-122.458320"></trkpt>
<trkpt lat="37.802140" lon="-122.458410"></trkpt>
<trkpt lat="37.802070" lon="-122.458580"></trkpt>
<trkpt lat="37.801810" lon="-122.459210"></trkpt>
<trkpt lat="37.801570" lon="-122.460050"></trkpt>
<trkpt lat="37.801250" lon="-122.461330"></trkpt>
<trkpt lat="37.801200" lon="-122.461460"></trkpt>
<trkpt lat="37.801290" lon="-122.461550"></trkpt>
<trkpt lat="37.801370" lon="-122.461650"></trkpt>
<trkpt lat="37.801420" lon="-122.461770"></trkpt>
<trkpt lat="37.801470" lon="-122.462020"></trkpt>
<trkpt lat="37.801470" lon="-122.462020"></trkpt>
<trkpt lat="37.801480" lon="-122.462260"></trkpt>
<trkpt lat="37.801450" lon="-122.462650"></trkpt>
<trkpt lat="37.801470" lon="-122.462980"></trkpt>
<trkpt lat="37.801650" lon="-122.463550"></trkpt>
<trkpt lat="37.801810" lon="-122.464060"></trkpt>
<trkpt lat="37.801810" lon="-122.464150"></trkpt>
<trkpt lat="37.801770" lon="-122.464440"></trkpt>
<trkpt lat="37.801730" lon="-122.464590"></trkpt>
<trkpt lat="37.801630" lon="-122.464790"></trkpt>
<trkpt lat="37.801580" lon="-122.464980"></trkpt>
<trkpt lat="37.801450" lon="-122.465130"></trkpt>
<trkpt lat="37.801180" lon="-122.465370"></trkpt>
<trkpt lat="37.801060" lon="-122.465500"></trkpt>
<trkpt lat="37.800980" lon="-122.465660"></trkpt>
<trkpt lat="37.800890" lon="-122.465900"></trkpt>
<trkpt lat="37.800860" lon="-122.466290"></trkpt>
<trkpt lat="37.800880" lon="-122.466710"></trkpt>
<trkpt lat="37.800930" lon="-122.467040"></trkpt>
<trkpt lat="37.800960" lon="-122.467120"></trkpt>
<trkpt lat="37.801030" lon="-122.467110"></trkpt>
<trkpt lat="37.801030" lon="-122.467110"></trkpt>
<trkpt lat="37.800090" lon="-122.467240"></trkpt>
<trkpt lat="37.799700" lon="-122.467240"></trkpt>
<trkpt lat="37.799620" lon="-122.467240"></trkpt>
<trkpt lat="37.799520" lon="-122.467280"></trkpt>
<trkpt lat="37.799400" lon="-122.467370"></trkpt>
<trkpt lat="37.799310" lon="-122.467500"></trkpt>
<trkpt lat="37.799240" lon="-122.467660"></trkpt>
<trkpt lat="37.799220" lon="-122.467820"></trkpt>
<trkpt lat="37.799210" lon="-122.468040"></trkpt>
<trkpt lat="37.799260" lon="-122.468210"></trkpt>
<trkpt lat="37.799330" lon="-122.468440"></trkpt>
<trkpt lat="37.799330" lon="-122.468560"></trkpt>
<trkpt lat="37.799290" lon="-122.468710"></trkpt>
<trkpt lat="37.799200" lon="-122.468840"></trkpt>
<trkpt lat="37.799060" lon="-122.468980"></trkpt>
<trkpt lat="37.798890" lon="-122.469100"></trkpt>
<trkpt lat="37.798780" lon="-122.469160"></trkpt>
<trkpt lat="37.798650" lon="-122.469190"></trkpt>
<trkpt lat="37.798480" lon="-122.469190"></trkpt>
<trkpt lat="37.798310" lon="-122.469160"></trkpt>
<trkpt lat="37.798180" lon="-122.469110"></trkpt>
<trkpt lat="37.798100" lon="-122.469060"></trkpt>
<trkpt lat="37.798040" lon="-122.468970"></trkpt>
<trkpt lat="37.797970" lon="-122.468820"></trkpt>
<trkpt lat="37.797770" lon="-122.467990"></trkpt>
<trkpt lat="37.797710" lon="-122.467840"></trkpt>
<trkpt lat="37.797600" lon="-122.467750"></trkpt>
<trkpt lat="37.797520" lon="-122.467740"></trkpt>
<trkpt lat="37.797380" lon="-122.467810"></trkpt>
<trkpt lat="37.797170" lon="-122.468050"></trkpt>
<trkpt lat="37.796950" lon="-122.468230"></trkpt>
<trkpt lat="37.796760" lon="-122.468330"></trkpt>
<trkpt lat="37.796680" lon="-122.468380"></trkpt>
<trkpt lat="37.796620" lon="-122.468460"></trkpt>
<trkpt lat="37.796420" lon="-122.468810"></trkpt>
<trkpt lat="37.796280" lon="-122.469110"></trkpt>
<trkpt lat="37.796160" lon="-122.469340"></trkpt>
<trkpt lat="37.796070" lon="-122.469400"></trkpt>
<trkpt lat="37.795950" lon="-122.469370"></trkpt>
<trkpt lat="37.795790" lon="-122.469270"></trkpt>
<trkpt lat="37.795720" lon="-122.469210"></trkpt>
<trkpt lat="37.795710" lon="-122.469050"></trkpt>
<trkpt lat="37.795640" lon="-122.469010"></trkpt>
<trkpt lat="37.795540" lon="-122.469000"></trkpt>
<trkpt lat="37.795460" lon="-122.468980"></trkpt>
<trkpt lat="37.795370" lon="-122.469010"></trkpt>
<trkpt lat="37.795200" lon="-122.469110"></trkpt>
<trkpt lat="37.795140" lon="-122.469130"></trkpt>
<trkpt lat="37.795040" lon="-122.469250"></trkpt>
<trkpt lat="37.795010" lon="-122.469290"></trkpt>
<trkpt lat="37.794970" lon="-122.469260"></trkpt>
<trkpt lat="37.794880" lon="-122.469140"></trkpt>
<trkpt lat="37.794800" lon="-122.468960"></trkpt>
<trkpt lat="37.794720" lon="-122.468960"></trkpt>
<trkpt lat="37.794430" lon="-122.468730"></trkpt>
<trkpt lat="37.794120" lon="-122.468440"></trkpt>
<trkpt lat="37.794040" lon="-122.468410"></trkpt>
<trkpt lat="37.793960" lon="-122.468410"></trkpt>
<trkpt lat="37.793910" lon="-122.468430"></trkpt>
<trkpt lat="37.793770" lon="-122.468530"></trkpt>
<trkpt lat="37.793160" lon="-122.469090"></trkpt>
<trkpt lat="37.792950" lon="-122.469340"></trkpt>
<trkpt lat="37.792850" lon="-122.469520"></trkpt>
<trkpt lat="37.792690" lon="-122.469790"></trkpt>
<trkpt lat="37.792610" lon="-122.469880"></trkpt>
<trkpt lat="37.792500" lon="-122.469930"></trkpt>
<trkpt lat="37.792270" lon="-122.470010"></trkpt>
<trkpt lat="37.792030" lon="-122.470140"></trkpt>
<trkpt lat="37.790930" lon="-122.470790"></trkpt>
<trkpt lat="37.790600" lon="-122.471020"></trkpt>
<trkpt lat="37.790230" lon="-122.471250"></trkpt>
<trkpt lat="37.790230" lon="-122.471250"></trkpt>
<trkpt lat="37.790180" lon="-122.471270"></trkpt>
<trkpt lat="37.790260" lon="-122.471110"></trkpt>
<trkpt lat="37.790520" lon="-122.470780"></trkpt>
<trkpt lat="37.790650" lon="-122.470630"></trkpt>
<trkpt lat="37.790680" lon="-122.470570"></trkpt>
<trkpt lat="37.790700" lon="-122.470460"></trkpt>
<trkpt lat="37.790690" lon="-122.470360"></trkpt>
<trkpt lat="37.790610" lon="-122.470130"></trkpt>
<trkpt lat="37.790500" lon="-122.469880"></trkpt>
<trkpt lat="37.790420" lon="-122.469780"></trkpt>
<trkpt lat="37.790300" lon="-122.469710"></trkpt>
<trkpt lat="37.790230" lon="-122.469720"></trkpt>
<trkpt lat="37.789520" lon="-122.470130"></trkpt>
<trkpt lat="37.789170" lon="-122.470250"></trkpt>
<trkpt lat="37.788750" lon="-122.470340"></trkpt>
<trkpt lat="37.788590" lon="-122.470330"></trkpt>
<trkpt lat="37.788480" lon="-122.470270"></trkpt>
<trkpt lat="37.788400" lon="-122.470130"></trkpt>
<trkpt lat="37.788290" lon="-122.469810"></trkpt>
<trkpt lat="37.788200" lon="-122.469360"></trkpt>
<trkpt lat="37.788150" lon="-122.469120"></trkpt>
<trkpt lat="37.787790" lon="-122.468660"></trkpt>
<trkpt lat="37.787840" lon="-122.468440"></trkpt>
<trkpt lat="37.787840" lon="-122.468440"></trkpt>
<trkpt lat="37.788380" lon="-122.465850"></trkpt>
<trkpt lat="37.788680" lon="-122.464400"></trkpt>
<trkpt lat="37.789240" lon="-122.461460"></trkpt>
<trkpt lat="37.789550" lon="-122.459830"></trkpt>
<trkpt lat="37.789700" lon="-122.459480"></trkpt>
<trkpt lat="37.789720" lon="-122.459460"></trkpt>
<trkpt lat="37.789800" lon="-122.459290"></trkpt>
<trkpt lat="37.789920" lon="-122.458970"></trkpt>
<trkpt lat="37.790010" lon="-122.458770"></trkpt>
<trkpt lat="37.790070" lon="-122.458710"></trkpt>
<trkpt lat="37.790170" lon="-122.458660"></trkpt>
<trkpt lat="37.790200" lon="-122.458650"></trkpt>
<trkpt lat="37.790290" lon="-122.458650"></trkpt>
<trkpt lat="37.790290" lon="-122.458590"></trkpt>
<trkpt lat="37.790300" lon="-122.458510"></trkpt>
<trkpt lat="37.790230" lon="-122.458450"></trkpt>
<trkpt lat="37.790130" lon="-122.458360"></trkpt>
<trkpt lat="37.790130" lon="-122.458370"></trkpt>
<trkpt lat="37.790020" lon="-122.458210"></trkpt>
<trkpt lat="37.790080" lon="-122.457920"></trkpt>
<trkpt lat="37.790110" lon="-122.457660"></trkpt>
<trkpt lat="37.790130" lon="-122.457640"></trkpt>
<trkpt lat="37.790380" lon="-122.456310"></trkpt>
<trkpt lat="37.790590" lon="-122.455430"></trkpt>
<trkpt lat="37.790830" lon="-122.454090"></trkpt>
<trkpt lat="37.791000" lon="-122.453170"></trkpt>
<trkpt lat="37.791240" lon="-122.452010"></trkpt>
<trkpt lat="37.791250" lon="-122.451930"></trkpt>
<trkpt lat="37.791300" lon="-122.451890"></trkpt>
<trkpt lat="37.791450" lon="-122.450970"></trkpt>
<trkpt lat="37.791640" lon="-122.450130"></trkpt>
<trkpt lat="37.791710" lon="-122.449820"></trkpt>
<trkpt lat="37.791770" lon="-122.449490"></trkpt>
<trkpt lat="37.791840" lon="-122.449290"></trkpt>
<trkpt lat="37.791830" lon="-122.449240"></trkpt>
<trkpt lat="37.791900" lon="-122.449020"></trkpt>
<trkpt lat="37.791970" lon="-122.448750"></trkpt>
<trkpt lat="37.791980" lon="-122.448610"></trkpt>
<trkpt lat="37.792150" lon="-122.448570"></trkpt>
<trkpt lat="37.792310" lon="-122.448560"></trkpt>
<trkpt lat="37.792400" lon="-122.448540"></trkpt>
<trkpt lat="37.792580" lon="-122.448500"></trkpt>
<trkpt lat="37.792610" lon="-122.448490"></trkpt>
<trkpt lat="37.792590" lon="-122.448470"></trkpt>
<trkpt lat="37.792590" lon="-122.448470"></trkpt>
<trkpt lat="37.792970" lon="-122.448940"></trkpt>
<trkpt lat="37.794040" lon="-122.450130"></trkpt>
<trkpt lat="37.795400" lon="-122.451680"></trkpt>
<trkpt lat="37.795600" lon="-122.451970"></trkpt>
<trkpt lat="37.795780" lon="-122.452190"></trkpt>
<trkpt lat="37.795980" lon="-122.452340"></trkpt>
<trkpt lat="37.797330" lon="-122.453940"></trkpt>
<trkpt lat="37.797400" lon="-122.454010"></trkpt>
<trkpt lat="37.797400" lon="-122.454010"></trkpt>
<trkpt lat="37.797490" lon="-122.454110"></trkpt>
<trkpt lat="37.797580" lon="-122.454040"></trkpt>
<trkpt lat="37.797790" lon="-122.453950"></trkpt>
<trkpt lat="37.798240" lon="-122.453760"></trkpt>
<trkpt lat="37.798670" lon="-122.453580"></trkpt>
<trkpt lat="37.798770" lon="-122.453550"></trkpt>
<trkpt lat="37.799200" lon="-122.452590"></trkpt>
<trkpt lat="37.799270" lon="-122.452500"></trkpt>
<trkpt lat="37.799370" lon="-122.452210"></trkpt>
<trkpt lat="37.799360" lon="-122.451990"></trkpt>
<trkpt lat="37.799310" lon="-122.451800"></trkpt>
<trkpt lat="37.799250" lon="-122.451700"></trkpt>
<trkpt lat="37.799210" lon="-122.451650"></trkpt>
<trkpt lat="37.799160" lon="-122.451590"></trkpt>
<trkpt lat="37.799040" lon="-122.451510"></trkpt>
<trkpt lat="37.798670" lon="-122.451300"></trkpt>
<trkpt lat="37.798580" lon="-122.451220"></trkpt>
<trkpt lat="37.798510" lon="-122.451120"></trkpt>
<trkpt lat="37.798400" lon="-122.450880"></trkpt>
<trkpt lat="37.798300" lon="-122.450610"></trkpt>
<trkpt lat="37.797950" lon="-122.449630"></trkpt>
<trkpt lat="37.798000" lon="-122.449450"></trkpt>
<trkpt lat="37.798060" lon="-122.449170"></trkpt>
<trkpt lat="37.798040" lon="-122.449100"></trkpt>
<trkpt lat="37.798020" lon="-122.449020"></trkpt>
<trkpt lat="37.798010" lon="-122.448920"></trkpt>
<trkpt lat="37.798080" lon="-122.448640"></trkpt>
<trkpt lat="37.798170" lon="-122.448320"></trkpt>
<trkpt lat="37.798180" lon="-122.448200"></trkpt>
<trkpt lat="37.798220" lon="-122.448060"></trkpt>
<trkpt lat="37.798270" lon="-122.448030"></trkpt>
<trkpt lat="37.798310" lon="-122.447990"></trkpt>
<trkpt lat="37.798350" lon="-122.447940"></trkpt>
<trkpt lat="37.798440" lon="-122.447760"></trkpt>
<trkpt lat="37.798550" lon="-122.446680"></trkpt>
</trkseg></trk>
</gpx>
